{"type": "FeatureCollection", "fuente": "https://srvags.sgc.gov.co/arcgis/rest/services/SIMMA/Capas_Principales/MapServer/1", "consultado": "2026-09-26T00:09:08", "ventana_grados": [-75.684, 4.448, -75.62, 4.5120000000000005], "features": [{"type": "Feature", "properties": {"INV_MOVIMIENTO_MASA_ID": 26397, "TIPO": "Deslizamiento", "SUBTIPO": "Deslizamiento rotacional"}, "geometry": {"type": "Point", "coordinates": [-75.66694444399997, 4.459166666853567]}}, {"type": "Feature", "properties": {"INV_MOVIMIENTO_MASA_ID": 35415, "TIPO": "Deslizamiento", "SUBTIPO": "Deslizamiento rotacional"}, "geometry": {"type": "Point", "coordinates": [-75.68045737999995, 4.454143294853746]}}, {"type": "Feature", "properties": {"INV_MOVIMIENTO_MASA_ID": 26393, "TIPO": "Deslizamiento", "SUBTIPO": "Deslizamiento rotacional"}, "geometry": {"type": "Point", "coordinates": [-75.63361111099994, 4.483333332852819]}}, {"type": "Feature", "properties": {"INV_MOVIMIENTO_MASA_ID": 35135, "TIPO": "Deslizamiento", "SUBTIPO": "Deslizamiento rotacional"}, "geometry": {"type": "Point", "coordinates": [-75.68045737999995, 4.454143294853746]}}, {"type": "Feature", "properties": {"INV_MOVIMIENTO_MASA_ID": 35154, "TIPO": "Deslizamiento", "SUBTIPO": "Deslizamiento rotacional"}, "geometry": {"type": "Point", "coordinates": [-75.68045737999995, 4.454143294853746]}}, {"type": "Feature", "properties": {"INV_MOVIMIENTO_MASA_ID": 26392, "TIPO": "Deslizamiento", "SUBTIPO": "Deslizamiento rotacional"}, "geometry": {"type": "Point", "coordinates": [-75.66694444399997, 4.459166666853567]}}]}