{"type":"FeatureCollection","name":"municipios_contexto_via","fuente":"IGAC, límites municipales [F]; selección por cruce con la vía actual [CP]","features":[{"type":"Feature","properties":{"MpNombre":"Armenia","Depto":"Quindío","rol":"contexto","via_km_aprox":0.9},"geometry":{"type":"Polygon","coordinates":[[[-75.64146560061369,4.588466622221915],[-75.64259856939456,4.587936623865597],[-75.64271645630708,4.5836521318280035],[-75.6436360887251,4.581315276914518],[-75.645373840258,4.581717662657386],[-75.64660941580132,4.579961281577619],[-75.64961519782857,4.579796578614842],[-75.65189599168671,4.57867856599016],[-75.65531826823245,4.579057847426391],[-75.65650696220644,4.577534135661326],[-75.65937567398466,4.576293104616899],[-75.6596002463209,4.574819208330714],[-75.66213712091401,4.5719169282696175],[-75.66152701424242,4.570208585067349],[-75.6637312614209,4.568671343386181],[-75.66444178181602,4.566489677375018],[-75.66350186791912,4.564718610200735],[-75.66578571931711,4.5593637287060815],[-75.66759778559559,4.55800674976019],[-75.66968831487243,4.553949923040751],[-75.67488983817975,4.55123382958657],[-75.67893131334594,4.551262393207113],[-75.67925833442068,4.55009388778649],[-75.68085841601346,4.549041666743427],[-75.68140321966571,4.549885952934089],[-75.6842577256508,4.5506002121277245],[-75.68786696616321,4.5502243766369075],[-75.68802994332623,4.551259330068304],[-75.68942037125804,4.552006957012995],[-75.69009726399415,4.5511805519119415],[-75.69099778020755,4.552025517308154],[-75.69257193380852,4.551050814150299],[-75.69464020578998,4.55317580925047],[-75.69584412509856,4.551714103665337],[-75.69769330577111,4.552493635988472],[-75.69855185141678,4.551020914684793],[-75.69872519290884,4.552035198316044],[-75.69983924402385,4.551742460722164],[-75.70278858829035,4.5486855506455335],[-75.70414206773239,4.549898670665508],[-75.70479402381707,4.548622125821616],[-75.70367763565513,4.547430153107297],[-75.7041117163062,4.546872274009961],[-75.7074894409973,4.546252744637049],[-75.70819088243655,4.548794140125038],[-75.71013045441114,4.545388661206095],[-75.7103636448454,4.547479092178201],[-75.71181741603532,4.547455985372912],[-75.7128395187203,4.543971152282828],[-75.71397119315264,4.545266609158373],[-75.71430283567867,4.544351570038981],[-75.71505534405145,4.544420246933332],[-75.71500647073456,4.5457393345814685],[-75.71782433232626,4.5440323080390925],[-75.71852970990516,4.544494063358308],[-75.7184701743682,4.543252365241185],[-75.71978609102156,4.542515067958628],[-75.72022690734603,4.543860946953925],[-75.72218519443719,4.544200896411533],[-75.72247755283871,4.544992955659784],[-75.72384699986728,4.543195233414236],[-75.72412342273786,4.5442407518101025],[-75.72479403221926,4.543998869045944],[-75.72625867529962,4.541996728934156],[-75.72724988713854,4.544109527190015],[-75.7272543712731,4.541699591222266],[-75.7282484427604,4.542275533756135],[-75.72889356309963,4.541439539300339],[-75.72900421572278,4.542821130444994],[-75.73046248988028,4.543720860220684],[-75.7315063044407,4.543184608243468],[-75.73216638598133,4.540704131208619],[-75.73321988712199,4.541369878792102],[-75.73447253895682,4.540682117586955],[-75.73421444294267,4.538466635812859],[-75.73488942975759,4.539520379180954],[-75.7357731350034,4.538555647744016],[-75.73699996497535,4.540232339230807],[-75.73833096925266,4.539708568120256],[-75.7392253591378,4.540705306886453],[-75.73985226974007,4.53939564559476],[-75.74085240224895,4.539923745967146],[-75.7406684471298,4.538856564921621],[-75.7444584008285,4.539473541584388],[-75.74505659832293,4.538218836377219],[-75.74666797458617,4.540129449105347],[-75.7480761382063,4.539121416394941],[-75.74874141833212,4.540282773623171],[-75.75074235059012,4.540986126003787],[-75.75078091277624,4.53944932090688],[-75.75368300286887,4.539412791588871],[-75.75590229468374,4.53801154222693],[-75.75647411611526,4.538144151205655],[-75.75628150516879,4.539202273314556],[-75.7573653416305,4.539586982598797],[-75.76500146943438,4.538123837062466],[-75.76681290686814,4.53487395107925],[-75.76820219573878,4.534404041752667],[-75.76947130217667,4.53117708067985],[-75.7690023736525,4.530159610936759],[-75.77070758313454,4.5296304669872365],[-75.77082332724183,4.527192521598543],[-75.77161953730315,4.526835257749369],[-75.77179626489517,4.521892530448637],[-75.77300331444437,4.520016945548407],[-75.77437454458418,4.519630706172607],[-75.77421644418699,4.518069608953112],[-75.77631257006149,4.5155078984000045],[-75.7782375161527,4.510225591313178],[-75.78044423304954,4.50866024886415],[-75.77962195174877,4.507163633294091],[-75.78061362762514,4.506868843083853],[-75.7800732837517,4.506077055015982],[-75.78099748586672,4.503968639095003],[-75.78035490557502,4.503423299784738],[-75.78274776437752,4.501501958127568],[-75.78236171691601,4.497410848658638],[-75.78312609689965,4.496467342955668],[-75.78423985500886,4.496762349436418],[-75.78483979220263,4.4944550755796255],[-75.7866778203558,4.492891532176867],[-75.78550896220814,4.490048886871926],[-75.78703918688475,4.4907034350786965],[-75.78914537055668,4.489122414434059],[-75.78880153174822,4.4881171383972545],[-75.78750674470336,4.489119517321105],[-75.78634519001922,4.488902177184832],[-75.78449640292945,4.486429095081779],[-75.78470907582388,4.484085251577167],[-75.78621055692643,4.484135750214037],[-75.79325933278122,4.480877023704521],[-75.79584465135835,4.481288217072929],[-75.7967334999633,4.478589774170645],[-75.79301479900761,4.478449698754231],[-75.79095890816778,4.48059894479677],[-75.78876408378434,4.480415672349654],[-75.78513625991137,4.481909088572183],[-75.7814326807883,4.481751827371629],[-75.77582966481644,4.480163107214803],[-75.77130667778069,4.482429878089088],[-75.76955751292057,4.484959925875315],[-75.76671165457691,4.484983526248901],[-75.7623398322009,4.486662051255614],[-75.75900882706473,4.486089128180121],[-75.75580950359466,4.487841484781692],[-75.75295685006925,4.487671261114747],[-75.74560243721601,4.489846574648213],[-75.74387207740452,4.489843411172756],[-75.74280834739984,4.4889301046098895],[-75.75236325113607,4.47980517868031],[-75.76326263367487,4.478425516951332],[-75.76881034818099,4.474883278184012],[-75.7706170134031,4.47216674809028],[-75.76885265930053,4.471187637823468],[-75.76751260129268,4.4688386452596225],[-75.7640337031902,4.471049839126632],[-75.7665330218404,4.464010932081289],[-75.7666854790988,4.455893934794008],[-75.76950270164312,4.453032747423373],[-75.77652468404786,4.451623036656674],[-75.77721862770187,4.449560296604827],[-75.77325836197033,4.449560577895505],[-75.76685396692265,4.451022411590619],[-75.76833859972321,4.445628124130177],[-75.76707475087625,4.445334149710401],[-75.76170927713478,4.448502973596492],[-75.7589678400918,4.45182765862072],[-75.75757225302026,4.447600394285021],[-75.75883311112246,4.445020854594251],[-75.75862902629785,4.440511893600852],[-75.76012226555227,4.43874605759247],[-75.7596528297205,4.436660129991743],[-75.76090022270411,4.435521559728903],[-75.76076267409537,4.433348889338707],[-75.76162335244514,4.432542586953351],[-75.76078304597527,4.43105641624458],[-75.76085307375891,4.4283601140831435],[-75.76224700227641,4.427380093814134],[-75.76251215057057,4.425049843872843],[-75.76435718261604,4.42421799407637],[-75.76405986901123,4.423202210285582],[-75.76738162523588,4.420680871187504],[-75.76753196366545,4.418683375346191],[-75.77083611285843,4.416882484420578],[-75.77217364933719,4.4170322172931105],[-75.7736130023911,4.414933275054166],[-75.77579624877403,4.4140525131985955],[-75.77734002313036,4.414366404634741],[-75.7776170111021,4.4131867358301005],[-75.77872751124163,4.413728850416252],[-75.77949039726126,4.41233278859596],[-75.78094728063344,4.412153320994751],[-75.78340299098126,4.409445005146429],[-75.78233442497992,4.408333442620267],[-75.78336539492308,4.4075073661144435],[-75.78354182806416,4.405810083182848],[-75.78090262071956,4.404257610420209],[-75.77909848409962,4.39945667102495],[-75.77501776070083,4.400140222178196],[-75.77457088810512,4.395146137797737],[-75.76449747598858,4.395071040153665],[-75.76315747216323,4.396819654591473],[-75.76239004186553,4.402286517607211],[-75.7596113030949,4.409041515929629],[-75.75700378733073,4.41192168344592],[-75.75553921299836,4.4113091053676765],[-75.75129502618859,4.413336645959009],[-75.74864870159874,4.420180098180573],[-75.74804845711115,4.424059549626111],[-75.74571020894113,4.4258515291557075],[-75.74622023296911,4.42962731595509],[-75.7455473147971,4.43131663234981],[-75.7436603202429,4.432273752965907],[-75.74054171855994,4.431605349122494],[-75.73821241176907,4.433723885777681],[-75.73525648727251,4.433065364895255],[-75.73268166026843,4.438641307766613],[-75.72985793056202,4.438962727383188],[-75.72933787581853,4.440767552665968],[-75.72700784736095,4.443251030762714],[-75.72456639078894,4.442826347649259],[-75.72520472187341,4.445650091416688],[-75.72406801842268,4.444936380168383],[-75.72234171629474,4.447343150919509],[-75.72066307467259,4.446490897036019],[-75.72046953677248,4.448063284371216],[-75.7188721195948,4.448407176421219],[-75.71882465645093,4.451546592403669],[-75.7167621431105,4.452080979849104],[-75.71755712163247,4.45394222879054],[-75.71534735264039,4.45354943633029],[-75.71516514130727,4.455432798268374],[-75.71606215420167,4.456887601349038],[-75.71501856602771,4.457376022863563],[-75.71521776310705,4.459212251198585],[-75.71366398141352,4.458497748824015],[-75.71276831879658,4.459542580695906],[-75.71368315865922,4.461021339616151],[-75.71206242201741,4.461072144913804],[-75.71253452930993,4.463536778101207],[-75.71195164769976,4.46620276896855],[-75.71073483336872,4.466918098014354],[-75.70804813329279,4.466655942436938],[-75.70869428870031,4.468433204119293],[-75.70743492807085,4.4695969434369],[-75.70836222258876,4.470782713293643],[-75.70573035459202,4.473068115342198],[-75.70710425587504,4.474398241766147],[-75.70486077630584,4.47608636671365],[-75.70618148810708,4.47718317893475],[-75.70464891331402,4.4778680004311155],[-75.70362533779067,4.480383640843085],[-75.70399437388159,4.483780954304705],[-75.7018489628008,4.483986216422731],[-75.70064735283206,4.486106833336868],[-75.69888752795201,4.487221760891001],[-75.69637085530363,4.491570400333719],[-75.6896238701629,4.495791370363958],[-75.68884288265382,4.499162560379046],[-75.68612791079347,4.504329998366638],[-75.68630411664952,4.507648260070664],[-75.68537926862655,4.508316238754035],[-75.68480869730124,4.510683189746024],[-75.68528482371917,4.514104612388144],[-75.68422131958738,4.515609509418253],[-75.68406220832784,4.517803828610983],[-75.68067327524825,4.520117503426902],[-75.68198902938472,4.523809642434396],[-75.68017101976365,4.524129045144036],[-75.67966580656966,4.5234643009073885],[-75.67837682163102,4.524460454075132],[-75.67583231670687,4.524539246719152],[-75.67200452930176,4.522654140185145],[-75.67053272817898,4.525748856031996],[-75.66523824618007,4.52739495854858],[-75.66225977320612,4.533081955292452],[-75.6610152821866,4.532631024658392],[-75.65959918174853,4.534625516306643],[-75.65928982862744,4.537423473247743],[-75.6523860348098,4.542289406249459],[-75.64933456784459,4.548639910663017],[-75.64703901057587,4.549358907871357],[-75.64257834403244,4.554127885990682],[-75.64143952624619,4.557474295572115],[-75.64204889528318,4.559688037401377],[-75.64114315614724,4.562682100974738],[-75.63863209034528,4.56387302695566],[-75.63899166425915,4.565841099699696],[-75.63651870087679,4.565848092599983],[-75.63480904576083,4.568553490795752],[-75.63234400790375,4.570551748737997],[-75.63250861780857,4.571670295029947],[-75.6376721106284,4.574276853685454],[-75.63983095959733,4.572004175753649],[-75.64158562492587,4.573177214570391],[-75.64215622944857,4.575637776104001],[-75.64079082607482,4.579021984890738],[-75.64091515860812,4.581218013734389],[-75.63953035898751,4.583561696248138],[-75.64146560061369,4.588466622221915]]]}},{"type":"Feature","properties":{"MpNombre":"Salento","Depto":"Quindío","rol":"contexto","via_km_aprox":4.2},"geometry":{"type":"Polygon","coordinates":[[[-75.38871062174103,4.715441807685895],[-75.39603490370801,4.715352150764237],[-75.40253158435473,4.709572729335526],[-75.40537991608933,4.710255500814269],[-75.40812479674933,4.707579586305514],[-75.40803514081222,4.7053243675577265],[-75.41191107864287,4.698896654939626],[-75.41426974564206,4.6976069741013005],[-75.42061469894594,4.696331089876206],[-75.42344923717714,4.693234473676999],[-75.42800794758821,4.69593797563423],[-75.43215724539371,4.69664286069218],[-75.43870671059418,4.6953163119899886],[-75.43830815192653,4.690718005365162],[-75.44035053177865,4.681713290128288],[-75.44450982870575,4.6798192383608805],[-75.44853111941941,4.6790768460154375],[-75.45526023392978,4.680552111585416],[-75.45934338925392,4.678667581745793],[-75.46459723867586,4.679390935648108],[-75.47225910370342,4.671957500909935],[-75.47386761859251,4.6675983268321035],[-75.4774463288432,4.666694131216352],[-75.47937845117698,4.663172529150259],[-75.48275728572972,4.664324189891057],[-75.48525096122746,4.666637024589572],[-75.49217043283082,4.666646543771942],[-75.49478784025837,4.668321681911599],[-75.49736717638636,4.673090123301483],[-75.50104571395593,4.675923360811412],[-75.50153567592461,4.679499041051143],[-75.50754608094212,4.687460040714823],[-75.5099731313438,4.687022221336152],[-75.51343295165918,4.688361638202285],[-75.51406945788796,4.690651866113858],[-75.51323664655246,4.692608972862549],[-75.51370658995383,4.693239532436079],[-75.51522230737719,4.693743975715895],[-75.51827926104926,4.693074754754083],[-75.52180086294005,4.695014017155729],[-75.525768614054,4.69307475461183],[-75.5277197723773,4.6931282948784325],[-75.53011707884203,4.6948653001558505],[-75.53263335874007,4.694668993782239],[-75.53681526217046,4.697530297784348],[-75.53928395301573,4.697286400934302],[-75.54578583034193,4.701480200897987],[-75.54783811472393,4.701069744164438],[-75.5507470058027,4.702199988599598],[-75.55225201510291,4.701295792733025],[-75.55412584082964,4.702806753089689],[-75.55660642880387,4.702188090332718],[-75.56032679562394,4.699425135836274],[-75.56541060098894,4.701487203891463],[-75.57062901423643,4.70039826928531],[-75.57093993119906,4.697710523959606],[-75.57457957133673,4.694666396254893],[-75.57883585544515,4.693096937429695],[-75.5821602983214,4.690272123059939],[-75.58475251280935,4.690976088999503],[-75.58522252355499,4.689675927887286],[-75.58916192662907,4.689129427703042],[-75.5917853049442,4.684653893609506],[-75.59466193298385,4.682927771027982],[-75.59571595869201,4.677491137255396],[-75.5976871708153,4.675880800655057],[-75.60061643073128,4.6755032329771105],[-75.59674264817211,4.6720281961676635],[-75.595957865318,4.667338490727802],[-75.59620852557988,4.658951553339419],[-75.59723870856995,4.657763107437055],[-75.60212703728767,4.655785472649013],[-75.60361555896525,4.6481665000544234],[-75.60972845691262,4.643161631575062],[-75.61131753912478,4.638083521404047],[-75.61504542382077,4.633615771224006],[-75.61891714580877,4.626139819450476],[-75.6251658962819,4.622223894215583],[-75.63090122264754,4.610792350630871],[-75.6355486282931,4.607261778606327],[-75.63481689924231,4.603680407949121],[-75.63794969041706,4.598623879424105],[-75.6400731666036,4.5976235642450725],[-75.6410258838708,4.595717734853526],[-75.64053585930219,4.59209593334697],[-75.64241937772168,4.588516877377708],[-75.64146560061369,4.588466622221915],[-75.63953035898751,4.583561696248138],[-75.64091515860812,4.581218013734389],[-75.64079082607482,4.579021984890738],[-75.64212922698898,4.57483403530005],[-75.64158562492587,4.573177214570391],[-75.63983095959733,4.572004175753649],[-75.6376721106284,4.574276853685454],[-75.63250861780857,4.571670295029947],[-75.63238024092145,4.570312629274523],[-75.62807659691197,4.5705523313147625],[-75.62649784069724,4.56978133589799],[-75.62492326419166,4.570488539047197],[-75.620250729365,4.568498561902931],[-75.61683884640635,4.569001086897366],[-75.61139627993691,4.565933144342048],[-75.60936029831393,4.561458549055504],[-75.60894596568781,4.557740717299221],[-75.61061899907469,4.554306999089998],[-75.61083012327414,4.54891851189067],[-75.61222148982084,4.543309980419919],[-75.60862834638549,4.54158050577996],[-75.6012902610027,4.542476823912205],[-75.59850888786742,4.538912014195792],[-75.59686442017708,4.531840659711014],[-75.59509487758038,4.529432005317302],[-75.59293463034959,4.529531404784864],[-75.58950354044613,4.52554189462231],[-75.58937416374533,4.5223700184417055],[-75.58822159474657,4.519554815551879],[-75.58529894332133,4.518709258078486],[-75.58521436009549,4.5181135126212055],[-75.58668140629652,4.517485081570549],[-75.58306442080747,4.517025569321815],[-75.58113668427117,4.515672585083564],[-75.57884952838332,4.515258855818864],[-75.5787005560585,4.514684503714359],[-75.57952970303857,4.514808199571186],[-75.57744786264652,4.511904973611056],[-75.57663123399008,4.509169395923196],[-75.572561353129,4.50645579321817],[-75.57151911128261,4.504210319245946],[-75.56773213240626,4.500612952019834],[-75.56508350371236,4.495938227986294],[-75.56500323934515,4.494604025023503],[-75.56658750835032,4.491855949616958],[-75.56418215211302,4.490016551257085],[-75.56818333832571,4.483605016693426],[-75.56785488726524,4.481770024871828],[-75.56406975527237,4.477677561450114],[-75.56110908863306,4.47608229767377],[-75.56050933062019,4.473988207051479],[-75.55777029973771,4.47400743781255],[-75.55567234494877,4.472134468296354],[-75.55215113767734,4.473548412923733],[-75.54570690728356,4.479882588420953],[-75.54350070938996,4.485119122927593],[-75.5379770450857,4.49049422642397],[-75.53560849832638,4.494701544692531],[-75.52462512606205,4.497929644445876],[-75.52427717840929,4.502393552179043],[-75.52581180202333,4.511588889946561],[-75.52784197025964,4.514637972264566],[-75.52458321293498,4.5212984139328505],[-75.52468865935923,4.524547769324767],[-75.52201415430329,4.527248455417875],[-75.52264441094584,4.534671350329422],[-75.52467875393015,4.542343954347614],[-75.52336780188118,4.5445119126475255],[-75.51886950342484,4.546123228977733],[-75.51503550433753,4.555587389006466],[-75.50949629933389,4.557837715328631],[-75.50819407873128,4.559181029265378],[-75.50589836713381,4.558767230288019],[-75.49694819662929,4.566352275342036],[-75.49393337224699,4.567184322127761],[-75.49012838994913,4.569744126284369],[-75.48753049797513,4.576687073820868],[-75.4849937785501,4.579420749800559],[-75.48442607629,4.582055384164861],[-75.47597213898885,4.5842001722305605],[-75.47211429512656,4.58823695586246],[-75.46887076330286,4.598322770131323],[-75.45961228006647,4.601071047005854],[-75.45842017032022,4.602077559424144],[-75.45381591275475,4.601670673152823],[-75.44999687844863,4.602934166795419],[-75.44123808160097,4.602370233226122],[-75.4366552397812,4.603069796042313],[-75.4323222419499,4.601056770775704],[-75.42805630287849,4.608164078643387],[-75.42100092831399,4.6108642505935284],[-75.41927258917627,4.616047348021492],[-75.41566275989739,4.621943608154378],[-75.41539123685254,4.624475024744715],[-75.41688912035666,4.630537020872358],[-75.41590093207341,4.633712580060075],[-75.41664021744403,4.636502651904684],[-75.419192485362,4.641675275965889],[-75.4219770566364,4.643465897619599],[-75.4224818903351,4.6446016205725655],[-75.42199801468104,4.6497461063031915],[-75.42251558595244,4.653052666899108],[-75.42151430920035,4.658615797041156],[-75.41686098062124,4.664867092084024],[-75.41694197236431,4.668288750411355],[-75.4159257791974,4.670899641431261],[-75.40777435409926,4.678334813327604],[-75.40578698384961,4.682877114066015],[-75.40173729225016,4.6873563524248185],[-75.40067734212215,4.69070079070188],[-75.398550858341,4.691359147961695],[-75.39649679284456,4.694045229136047],[-75.39263225456105,4.69653380736143],[-75.38768143305883,4.698699793249663],[-75.38317170694297,4.704006128277872],[-75.3844554981504,4.706106276615431],[-75.38350746760979,4.708344678568572],[-75.38871062174103,4.715441807685895]]]}}]}