{
 "type": "FeatureCollection",
 "name": "trazado_tunel",
 "crs": {
  "type": "name",
  "properties": {
   "name": "urn:ogc:def:crs:OGC:1.3:CRS84"
  }
 },
 "features": [
  {
   "type": "Feature",
   "properties": {
    "nombre": "Trazado del túnel de base Ferropista (eje recto entre portales)",
    "longitud_geodesica_m": 52211.8,
    "longitud_poligonal_m": 52211.8,
    "n_vertices": 106,
    "cota_portal_E_msnm": 951.0,
    "cota_portal_W_msnm": 1451.5,
    "pendiente_pct": 0.9586,
    "marca": "CP",
    "fuente_cotas": "[F, p.20] 950 / 1450 msnm; TOL 2 m [H]"
   },
   "geometry": {
    "type": "LineString",
    "coordinates": [
     [
      -75.196,
      4.364
     ],
     [
      -75.200366,
      4.365112
     ],
     [
      -75.204732,
      4.366224
     ],
     [
      -75.209099,
      4.367336
     ],
     [
      -75.213465,
      4.368449
     ],
     [
      -75.217831,
      4.369561
     ],
     [
      -75.222197,
      4.370673
     ],
     [
      -75.226563,
      4.371785
     ],
     [
      -75.23093,
      4.372897
     ],
     [
      -75.235296,
      4.374009
     ],
     [
      -75.239662,
      4.375121
     ],
     [
      -75.244028,
      4.376233
     ],
     [
      -75.248395,
      4.377345
     ],
     [
      -75.252761,
      4.378456
     ],
     [
      -75.257127,
      4.379568
     ],
     [
      -75.261494,
      4.38068
     ],
     [
      -75.26586,
      4.381792
     ],
     [
      -75.270226,
      4.382904
     ],
     [
      -75.274593,
      4.384015
     ],
     [
      -75.278959,
      4.385127
     ],
     [
      -75.283326,
      4.386239
     ],
     [
      -75.287692,
      4.387351
     ],
     [
      -75.292058,
      4.388462
     ],
     [
      -75.296425,
      4.389574
     ],
     [
      -75.300791,
      4.390685
     ],
     [
      -75.305158,
      4.391797
     ],
     [
      -75.309524,
      4.392909
     ],
     [
      -75.313891,
      4.39402
     ],
     [
      -75.318257,
      4.395132
     ],
     [
      -75.322624,
      4.396243
     ],
     [
      -75.32699,
      4.397355
     ],
     [
      -75.331357,
      4.398466
     ],
     [
      -75.335723,
      4.399577
     ],
     [
      -75.34009,
      4.400689
     ],
     [
      -75.344457,
      4.4018
     ],
     [
      -75.348823,
      4.402911
     ],
     [
      -75.35319,
      4.404023
     ],
     [
      -75.357556,
      4.405134
     ],
     [
      -75.361923,
      4.406245
     ],
     [
      -75.36629,
      4.407356
     ],
     [
      -75.370656,
      4.408468
     ],
     [
      -75.375023,
      4.409579
     ],
     [
      -75.37939,
      4.41069
     ],
     [
      -75.383756,
      4.411801
     ],
     [
      -75.388123,
      4.412912
     ],
     [
      -75.39249,
      4.414023
     ],
     [
      -75.396857,
      4.415134
     ],
     [
      -75.401223,
      4.416245
     ],
     [
      -75.40559,
      4.417356
     ],
     [
      -75.409957,
      4.418467
     ],
     [
      -75.414324,
      4.419578
     ],
     [
      -75.41869,
      4.420689
     ],
     [
      -75.423057,
      4.4218
     ],
     [
      -75.427424,
      4.422911
     ],
     [
      -75.431791,
      4.424022
     ],
     [
      -75.436158,
      4.425132
     ],
     [
      -75.440525,
      4.426243
     ],
     [
      -75.444892,
      4.427354
     ],
     [
      -75.449258,
      4.428465
     ],
     [
      -75.453625,
      4.429575
     ],
     [
      -75.457992,
      4.430686
     ],
     [
      -75.462359,
      4.431797
     ],
     [
      -75.466726,
      4.432907
     ],
     [
      -75.471093,
      4.434018
     ],
     [
      -75.47546,
      4.435128
     ],
     [
      -75.479827,
      4.436239
     ],
     [
      -75.484194,
      4.437349
     ],
     [
      -75.488561,
      4.43846
     ],
     [
      -75.492928,
      4.43957
     ],
     [
      -75.497295,
      4.440681
     ],
     [
      -75.501662,
      4.441791
     ],
     [
      -75.506029,
      4.442902
     ],
     [
      -75.510396,
      4.444012
     ],
     [
      -75.514763,
      4.445122
     ],
     [
      -75.519131,
      4.446233
     ],
     [
      -75.523498,
      4.447343
     ],
     [
      -75.527865,
      4.448453
     ],
     [
      -75.532232,
      4.449563
     ],
     [
      -75.536599,
      4.450674
     ],
     [
      -75.540966,
      4.451784
     ],
     [
      -75.545333,
      4.452894
     ],
     [
      -75.549701,
      4.454004
     ],
     [
      -75.554068,
      4.455114
     ],
     [
      -75.558435,
      4.456224
     ],
     [
      -75.562802,
      4.457334
     ],
     [
      -75.56717,
      4.458444
     ],
     [
      -75.571537,
      4.459554
     ],
     [
      -75.575904,
      4.460664
     ],
     [
      -75.580271,
      4.461774
     ],
     [
      -75.584639,
      4.462884
     ],
     [
      -75.589006,
      4.463994
     ],
     [
      -75.593373,
      4.465104
     ],
     [
      -75.597741,
      4.466214
     ],
     [
      -75.602108,
      4.467324
     ],
     [
      -75.606475,
      4.468433
     ],
     [
      -75.610843,
      4.469543
     ],
     [
      -75.61521,
      4.470653
     ],
     [
      -75.619578,
      4.471763
     ],
     [
      -75.623945,
      4.472872
     ],
     [
      -75.628312,
      4.473982
     ],
     [
      -75.63268,
      4.475092
     ],
     [
      -75.637047,
      4.476201
     ],
     [
      -75.641415,
      4.477311
     ],
     [
      -75.645782,
      4.47842
     ],
     [
      -75.65015,
      4.47953
     ],
     [
      -75.652,
      4.48
     ]
    ]
   }
  }
 ]
}