{"type":"FeatureCollection","name":"via_actual_ruta40","fuente":"© colaboradores de OpenStreetMap (ODbL), API Overpass: https://maps.mail.ru/osm/tools/overpass/api/interpreter","osm_base":"2026-09-27T20:44:51Z","consultado":"2026-09-27T20:46:21","metodo":"Camino más corto por la red trunk/primary (vías sin ref 40 penalizadas ×3) desde el nodo de la Ruta 40 más cercano al portal oriental del OE 1 hasta Armenia, pasando por el Túnel de La Línea [CP]","tunel_osm":"Vía Armenia - La Línea","longitud_m":76316.9,"longitud_tunel_m":13893.9,"longitud_fuera_ref40_m":171.4,"distancia_extremo_a_referencia_m":{"oriental_portal_E":4498,"occidental_Armenia":1534},"features":[{"type":"Feature","properties":{"tunel":false,"longitud_m":40706.9},"geometry":{"type":"LineString","coordinates":[[-75.1682693,4.3935317],[-75.1684999,4.3937751],[-75.1687628,4.3940572],[-75.1691718,4.3945841],[-75.1696278,4.3952834],[-75.1697861,4.3955067],[-75.1699329,4.3957387],[-75.1702246,4.396202],[-75.1708147,4.3971454],[-75.1719948,4.3990141],[-75.1723985,4.3995757],[-75.1726427,4.3998431],[-75.1729203,4.4000905],[-75.1732756,4.4003646],[-75.1736543,4.4006227],[-75.1762803,4.4023781],[-75.1771084,4.4029316],[-75.1781249,4.4036111],[-75.1783986,4.4037944],[-75.1787071,4.4039656],[-75.1791108,4.4041515],[-75.1795675,4.4043473],[-75.1797397,4.40442],[-75.1799509,4.4045117],[-75.1800534,4.4045524],[-75.1805581,4.4047616],[-75.1828887,4.4056884],[-75.1833728,4.4059057],[-75.1835874,4.4060729],[-75.1836574,4.4061916],[-75.1837787,4.4064529],[-75.1839119,4.406926],[-75.1840326,4.4073766],[-75.1841506,4.4076266],[-75.1843236,4.4078459],[-75.1844712,4.407993],[-75.1849996,4.4084517],[-75.1853952,4.408806],[-75.1856956,4.4091374],[-75.1858498,4.4092874],[-75.1861516,4.4096725],[-75.1863728,4.4099987],[-75.186515,4.4103263],[-75.1866657,4.4107891],[-75.1866861,4.4108627],[-75.1867058,4.4109143],[-75.1872204,4.4122103],[-75.1874042,4.412903],[-75.1874913,4.4132493],[-75.1876201,4.4135956],[-75.1876979,4.4137373],[-75.1879768,4.4140943],[-75.1881216,4.4143551],[-75.1882182,4.4146372],[-75.1882477,4.4149956],[-75.1882866,4.4154649],[-75.1883085,4.4156029],[-75.1883353,4.4158983],[-75.1884701,4.4174117],[-75.1885741,4.4184361],[-75.1886571,4.4190047],[-75.188728,4.4193281],[-75.1888461,4.4196214],[-75.1890158,4.4199763],[-75.1892174,4.4202841],[-75.19011,4.4215108],[-75.1904784,4.4219207],[-75.1909607,4.4223995],[-75.1912029,4.4226045],[-75.1915398,4.4227869],[-75.1918272,4.4228484],[-75.1920784,4.4228516],[-75.1923572,4.4228325],[-75.193917,4.4225598],[-75.1941638,4.4225331],[-75.1943247,4.4225331],[-75.1945634,4.4225545],[-75.1956336,4.4226721],[-75.1960708,4.4227336],[-75.1962988,4.4227871],[-75.19661,4.4229021],[-75.1968467,4.4230116],[-75.1971719,4.4231803],[-75.1974652,4.4233335],[-75.1978697,4.4235112],[-75.1981429,4.4236457],[-75.198395,4.4237286],[-75.1987222,4.4237566],[-75.1990723,4.4237071],[-75.1993606,4.4236416],[-75.1999041,4.4234824],[-75.2005405,4.4233258],[-75.2010275,4.4232619],[-75.2016231,4.4232285],[-75.2023941,4.4231928],[-75.203206,4.4231774],[-75.2042307,4.4231732],[-75.2049328,4.4231635],[-75.2068529,4.4231695],[-75.2076919,4.4232083],[-75.2086101,4.4233792],[-75.2105539,4.4237944],[-75.2111537,4.4239283],[-75.2127864,4.4242597],[-75.2130473,4.4242919],[-75.2133073,4.4242907],[-75.2136375,4.4242694],[-75.2139569,4.4242125],[-75.2146585,4.4240173],[-75.2162339,4.4235875],[-75.2166536,4.4235317],[-75.2179116,4.4233994],[-75.2182679,4.4234046],[-75.218547,4.423423],[-75.2186645,4.4234308],[-75.218959,4.4234983],[-75.2192435,4.4235874],[-75.2196635,4.4237556],[-75.2205036,4.4242173],[-75.2211311,4.4245464],[-75.2214143,4.4246727],[-75.2217964,4.4248001],[-75.2222065,4.4248908],[-75.2224627,4.4249189],[-75.2227214,4.424922],[-75.2230266,4.4249076],[-75.2233335,4.4248786],[-75.2239619,4.4247046],[-75.2245963,4.424491],[-75.2262162,4.4239071],[-75.2263983,4.4238041],[-75.2266994,4.4236116],[-75.2271709,4.4232914],[-75.2275231,4.4230522],[-75.2276869,4.4229701],[-75.2277297,4.4229567],[-75.2278445,4.4229206],[-75.2281213,4.4228781],[-75.2286727,4.4227959],[-75.22928,4.4227533],[-75.2306584,4.4227441],[-75.2313795,4.4227424],[-75.2315706,4.4227417],[-75.2329345,4.4227454],[-75.2341784,4.4227728],[-75.2344591,4.4227851],[-75.2347893,4.422785],[-75.2348598,4.422786],[-75.2349376,4.4227872],[-75.2354824,4.422781],[-75.2357925,4.4227535],[-75.235949,4.4227255],[-75.2362412,4.4226471],[-75.2365589,4.4225237],[-75.2368523,4.4223687],[-75.2376971,4.4217854],[-75.2379266,4.4216322],[-75.2387444,4.4210672],[-75.2389897,4.4209417],[-75.2392933,4.4208066],[-75.2399008,4.4206031],[-75.2400379,4.4205648],[-75.2415459,4.4201479],[-75.2417189,4.4200766],[-75.2419112,4.4199758],[-75.242342,4.4197068],[-75.2432853,4.419023],[-75.2434737,4.4189205],[-75.2436031,4.4188759],[-75.2437212,4.4188425],[-75.2439232,4.4187935],[-75.2440833,4.4187876],[-75.2442086,4.4187964],[-75.2444662,4.418823],[-75.2458406,4.4190478],[-75.2463464,4.4191233],[-75.2471045,4.4192156],[-75.2474603,4.4192497],[-75.2493525,4.4192717],[-75.2499107,4.4192515],[-75.2501261,4.4192473],[-75.2501934,4.419246],[-75.2504741,4.4192129],[-75.2507502,4.4191525],[-75.2510191,4.4190654],[-75.2512781,4.4189524],[-75.2515247,4.4188147],[-75.251865,4.4185684],[-75.2524441,4.4180802],[-75.2532223,4.4174155],[-75.2536895,4.4170843],[-75.253838,4.4169991],[-75.2539617,4.4169489],[-75.2540259,4.4169312],[-75.2542191,4.41688],[-75.2544161,4.4168461],[-75.254618,4.4168376],[-75.254844,4.4168367],[-75.2550718,4.4168463],[-75.2560648,4.4169361],[-75.2562915,4.4169049],[-75.2565153,4.4168432],[-75.2567652,4.4167334],[-75.2571218,4.4165147],[-75.2578243,4.4160658],[-75.2580687,4.4159322],[-75.2583268,4.4158281],[-75.2585028,4.4157925],[-75.2586865,4.4157676],[-75.2587992,4.4157631],[-75.2589494,4.4157658],[-75.2591794,4.4158228],[-75.2595033,4.4159611],[-75.2597029,4.4160503],[-75.260144,4.4162999],[-75.2603616,4.4164208],[-75.2606616,4.4165781],[-75.2608421,4.4166531],[-75.2609258,4.4166807],[-75.2610741,4.4167213],[-75.2612101,4.4167502],[-75.261398,4.4167741],[-75.2616486,4.4167781],[-75.2619795,4.4167344],[-75.262225,4.4166638],[-75.2624939,4.4165442],[-75.2629674,4.4162979],[-75.2637184,4.4158861],[-75.2641475,4.4156294],[-75.2643567,4.4154689],[-75.2645391,4.415255],[-75.2648771,4.4146934],[-75.2652097,4.4141184],[-75.2654806,4.4137494],[-75.2656978,4.4135114],[-75.2659097,4.4133362],[-75.2661324,4.4131918],[-75.2668499,4.4128495],[-75.2672723,4.4126142],[-75.2681853,4.4120567],[-75.2685557,4.411868],[-75.2687918,4.4117784],[-75.2690788,4.4116808],[-75.2693644,4.4116207],[-75.2698298,4.4115672],[-75.2702978,4.4115752],[-75.2713546,4.4115886],[-75.2726984,4.4116394],[-75.273482,4.4116584],[-75.2743777,4.4116838],[-75.2746419,4.4116697],[-75.2749327,4.4116118],[-75.2750722,4.4115645],[-75.2753208,4.4114681],[-75.2755397,4.4113495],[-75.2757736,4.4111777],[-75.2764655,4.4105534],[-75.2767558,4.4103167],[-75.2770569,4.410112],[-75.2773711,4.4099334],[-75.2776888,4.4098458],[-75.2785674,4.4097313],[-75.2793008,4.4095898],[-75.2797502,4.4094449],[-75.2801659,4.4092427],[-75.2805714,4.4089867],[-75.2809127,4.4086767],[-75.2822726,4.4070094],[-75.2825986,4.4066042],[-75.2827897,4.4064283],[-75.2829945,4.4062812],[-75.2832434,4.4061463],[-75.2834973,4.4060491],[-75.2846664,4.4058175],[-75.2849071,4.4057785],[-75.2853751,4.4056746],[-75.2854688,4.4056554],[-75.2855738,4.40563],[-75.286058,4.4055201],[-75.2862194,4.4054819],[-75.2863989,4.4054281],[-75.2889921,4.4049245],[-75.2905845,4.4045424],[-75.2918022,4.4042261],[-75.2923536,4.4041625],[-75.2927091,4.4041752],[-75.2930944,4.4042707],[-75.2933861,4.4044023],[-75.2936266,4.4045381],[-75.2937929,4.4046469],[-75.2939785,4.404777],[-75.2940559,4.4048454],[-75.2942278,4.4050095],[-75.2945328,4.4053034],[-75.2947023,4.4054646],[-75.2948906,4.4056669],[-75.2949838,4.4057512],[-75.2951453,4.4058654],[-75.2955889,4.4056307],[-75.2956917,4.4055861],[-75.2957963,4.4055823],[-75.2959211,4.4056314],[-75.2961754,4.4057345],[-75.2962382,4.4057568],[-75.2963255,4.405773],[-75.2963794,4.4057744],[-75.2964257,4.4057719],[-75.2965493,4.405741],[-75.2966325,4.4056987],[-75.2966795,4.4056642],[-75.2966947,4.4056518],[-75.2968145,4.4055603],[-75.2968833,4.4055247],[-75.2969689,4.4055052],[-75.2970924,4.4055177],[-75.2971697,4.4055524],[-75.2972562,4.4056299],[-75.2972901,4.4056835],[-75.2973162,4.4057556],[-75.2973482,4.4060044],[-75.297369,4.4060794],[-75.2974054,4.4061373],[-75.2974897,4.4062029],[-75.2978862,4.4063014],[-75.2981683,4.4063746],[-75.2983298,4.4063791],[-75.2984004,4.4063573],[-75.2984224,4.4063505],[-75.2984608,4.4063174],[-75.2985096,4.4062632],[-75.2986356,4.4061266],[-75.2987363,4.4060934],[-75.2988167,4.4060895],[-75.2989052,4.4061073],[-75.2989597,4.4061314],[-75.2990206,4.4061739],[-75.2990927,4.4062613],[-75.2991472,4.4063547],[-75.2991966,4.4064003],[-75.2992862,4.4064491],[-75.2993332,4.4064627],[-75.299428,4.4064697],[-75.2995227,4.4064503],[-75.2996937,4.4063725],[-75.2997976,4.4063534],[-75.2999214,4.4063661],[-75.3000605,4.406433],[-75.3001646,4.4065032],[-75.3002341,4.4065527],[-75.3003454,4.4065948],[-75.3004763,4.406601],[-75.3007218,4.4065516],[-75.3009884,4.4064889],[-75.3011069,4.4064615],[-75.301147,4.4064747],[-75.3011819,4.4064982],[-75.3012272,4.4065709],[-75.3012399,4.40669],[-75.3012494,4.4068236],[-75.3012486,4.406899],[-75.3012558,4.4069721],[-75.3012783,4.4070308],[-75.301307,4.4070669],[-75.3014357,4.4071553],[-75.3015633,4.4072297],[-75.3016614,4.4073161],[-75.3017255,4.4074265],[-75.3017759,4.4075261],[-75.3018047,4.4075811],[-75.3018407,4.4076201],[-75.3019193,4.4076629],[-75.3019745,4.4076722],[-75.3020419,4.4076643],[-75.3021043,4.4076359],[-75.3024901,4.4073857],[-75.3026176,4.4073507],[-75.3027572,4.4073501],[-75.3028894,4.407386],[-75.3030294,4.4074736],[-75.303181,4.4076173],[-75.3032128,4.4076661],[-75.303224,4.4077235],[-75.3031988,4.4078373],[-75.3031695,4.4080497],[-75.3031338,4.4081776],[-75.3031283,4.408255],[-75.3031459,4.4083877],[-75.3031854,4.4084908],[-75.3033191,4.4089808],[-75.3033656,4.4090388],[-75.3034128,4.4090887],[-75.3034664,4.4091371],[-75.3036167,4.4092378],[-75.3037867,4.4093064],[-75.304105,4.4093378],[-75.3043478,4.4092824],[-75.3044156,4.4092532],[-75.3045574,4.4091676],[-75.304928,4.4088977],[-75.3050422,4.4088455],[-75.3051444,4.4088373],[-75.3052074,4.4088484],[-75.305302,4.4088919],[-75.3053519,4.408933],[-75.3054965,4.4090459],[-75.3056129,4.4091033],[-75.3057341,4.4091335],[-75.3058661,4.4091234],[-75.3060691,4.4090614],[-75.306288,4.4089705],[-75.3063729,4.4089338],[-75.3065101,4.4088653],[-75.3066453,4.4087512],[-75.3066876,4.4087398],[-75.3067891,4.4087516],[-75.3068802,4.4088277],[-75.3068975,4.4088626],[-75.3069085,4.4089518],[-75.3068994,4.4089922],[-75.3068664,4.4090482],[-75.3068226,4.4091006],[-75.306745,4.4091958],[-75.3067218,4.40929],[-75.3067189,4.4093509],[-75.3067373,4.4094158],[-75.3067786,4.4094751],[-75.3068185,4.4095112],[-75.3069652,4.4095923],[-75.3069887,4.4096298],[-75.3070087,4.4096697],[-75.3070173,4.4097179],[-75.3070103,4.4097695],[-75.3069875,4.4098291],[-75.306936,4.4099223],[-75.3068895,4.4100424],[-75.306876,4.4101038],[-75.3068688,4.4101474],[-75.3068729,4.4101861],[-75.3068923,4.4102199],[-75.3069328,4.4102596],[-75.306978,4.410283],[-75.3070507,4.4103014],[-75.3071192,4.4103116],[-75.307207,4.4103024],[-75.307315,4.4102648],[-75.3073824,4.4102157],[-75.3074404,4.4101908],[-75.3075294,4.4101977],[-75.3075943,4.4102269],[-75.3076445,4.4102643],[-75.3077408,4.4103605],[-75.3078262,4.4105279],[-75.3078442,4.4105933],[-75.3078797,4.4109571],[-75.307907,4.4110036],[-75.3079508,4.4110533],[-75.3079907,4.4110777],[-75.3080901,4.4110977],[-75.3083222,4.4111166],[-75.3085356,4.4111678],[-75.3085781,4.4111978],[-75.3086056,4.4112376],[-75.3086206,4.4112752],[-75.3086446,4.4116058],[-75.3086905,4.4116817],[-75.3087156,4.4117179],[-75.3087595,4.4117611],[-75.3089595,4.411888],[-75.3093081,4.4120269],[-75.3095675,4.4121273],[-75.3096801,4.4121535],[-75.3097289,4.412151],[-75.3100409,4.4120728],[-75.3104383,4.4120428],[-75.3104984,4.4120333],[-75.3105605,4.4120117],[-75.3106222,4.411971],[-75.3106734,4.4119135],[-75.3108362,4.411694],[-75.3108948,4.4116182],[-75.3109635,4.4115337],[-75.3110238,4.4115002],[-75.3110976,4.4114766],[-75.3111704,4.4114668],[-75.3112325,4.4114858],[-75.3113174,4.4115365],[-75.3115035,4.4116631],[-75.3115914,4.4117178],[-75.3116892,4.4117791],[-75.3118131,4.4118376],[-75.3120155,4.4119044],[-75.3121469,4.4119117],[-75.312222,4.4119006],[-75.3122932,4.4118788],[-75.3131638,4.4114761],[-75.3132267,4.411434],[-75.3133003,4.4114162],[-75.3133756,4.411425],[-75.3134431,4.4114593],[-75.3134944,4.4115148],[-75.3135233,4.4115846],[-75.3135261,4.4116601],[-75.3135025,4.4117319],[-75.3134554,4.411791],[-75.3132527,4.4123839],[-75.313213,4.4124759],[-75.313132,4.4126025],[-75.3129209,4.4128423],[-75.3128656,4.4129291],[-75.3128374,4.4129888],[-75.3128228,4.4130406],[-75.3128224,4.4131107],[-75.3128714,4.4132857],[-75.3130197,4.4135189],[-75.3130535,4.4135956],[-75.313096,4.4137304],[-75.3131048,4.4138128],[-75.3131018,4.4138985],[-75.3130855,4.4140096],[-75.3130542,4.4141257],[-75.3129901,4.414301],[-75.3129414,4.4143835],[-75.3128968,4.4144568],[-75.3128442,4.4145208],[-75.3127518,4.4145929],[-75.3126254,4.4146826],[-75.3122529,4.4148375],[-75.3121939,4.4148726],[-75.3121171,4.4149428],[-75.3119832,4.4150858],[-75.3118806,4.4152416],[-75.3117949,4.4153648],[-75.3117481,4.4154531],[-75.3117227,4.4155078],[-75.3117087,4.4155572],[-75.3116863,4.4156248],[-75.3116847,4.4157178],[-75.3117028,4.4158005],[-75.3117318,4.4158741],[-75.3117985,4.4159541],[-75.3119905,4.416089],[-75.3120397,4.4161414],[-75.3120706,4.4161889],[-75.3120761,4.4162687],[-75.3120611,4.4163058],[-75.3120219,4.4163461],[-75.3117875,4.4165547],[-75.3117349,4.4166134],[-75.3116911,4.4166883],[-75.3116727,4.4167577],[-75.3116698,4.416823],[-75.3116773,4.4169029],[-75.3116986,4.4169877],[-75.3118478,4.417554],[-75.3118847,4.4176772],[-75.3119066,4.4177689],[-75.3119422,4.4178787],[-75.3119895,4.4179605],[-75.3120449,4.4180166],[-75.3121312,4.4180575],[-75.3122151,4.4180827],[-75.3123027,4.4180941],[-75.3123791,4.4180941],[-75.3127502,4.4180874],[-75.3128217,4.418093],[-75.3130028,4.4181232],[-75.3136997,4.4182428],[-75.3138228,4.4182527],[-75.313993,4.4182459],[-75.3143889,4.4182051],[-75.314535,4.4182092],[-75.3146586,4.4182342],[-75.3147829,4.4182888],[-75.3149529,4.4183472],[-75.3150724,4.4183559],[-75.3151952,4.4183457],[-75.3153152,4.4183131],[-75.3154634,4.4182242],[-75.3156089,4.4181005],[-75.3164346,4.4174689],[-75.3165633,4.4173891],[-75.3166209,4.417349],[-75.3166913,4.4173329],[-75.3167443,4.4173423],[-75.3167778,4.4173591],[-75.3169128,4.417552],[-75.3169579,4.4176365],[-75.3169903,4.4176681],[-75.3170786,4.4177366],[-75.3171493,4.4177771],[-75.3172126,4.4178047],[-75.3173324,4.4178157],[-75.3178821,4.4177171],[-75.317982,4.4176605],[-75.3180499,4.4175923],[-75.3181196,4.4174962],[-75.3181842,4.4173545],[-75.3182406,4.417136],[-75.3183183,4.4169915],[-75.3183705,4.4169194],[-75.3184462,4.416787],[-75.3184855,4.4167275],[-75.3185077,4.4166765],[-75.3185304,4.4166353],[-75.3186543,4.4164421],[-75.3187024,4.4163824],[-75.3188789,4.4161585],[-75.3189238,4.4160759],[-75.31895,4.415991],[-75.3189585,4.4159182],[-75.3189419,4.415732],[-75.3189582,4.415648],[-75.31899,4.4155618],[-75.3190747,4.4154323],[-75.3191975,4.4153281],[-75.3192704,4.41529],[-75.319702,4.4149589],[-75.3198085,4.414895],[-75.3199232,4.4148421],[-75.3201337,4.4147815],[-75.3205558,4.4147932],[-75.3218582,4.4148149],[-75.3219384,4.4148246],[-75.3220233,4.4148565],[-75.3221695,4.4149276],[-75.3223097,4.4150116],[-75.3224222,4.4150829],[-75.3226363,4.4152018],[-75.3229111,4.4153309],[-75.3230029,4.4153669],[-75.3230951,4.4153895],[-75.3232603,4.4154119],[-75.3236945,4.4154455],[-75.3239924,4.4154518],[-75.3242791,4.4154119],[-75.3244899,4.4153558],[-75.3246071,4.415299],[-75.3246852,4.4152642],[-75.3247516,4.4152179],[-75.3248117,4.4151643],[-75.3248605,4.415102],[-75.3249045,4.4150257],[-75.3249343,4.4149584],[-75.3250312,4.4147657],[-75.3250625,4.4146766],[-75.32509,4.414613],[-75.3251301,4.4145556],[-75.3251676,4.414516],[-75.325224,4.4144733],[-75.3256701,4.4142247],[-75.3257543,4.4141606],[-75.325829,4.414098],[-75.3259083,4.4140159],[-75.3260397,4.4138236],[-75.326117,4.4136899],[-75.3262138,4.4134992],[-75.3262462,4.4133757],[-75.3262534,4.413306],[-75.3262139,4.4129924],[-75.3262177,4.4129274],[-75.3262302,4.4128701],[-75.3265718,4.4121812],[-75.3268757,4.4115253],[-75.3269207,4.4114392],[-75.3269608,4.4113868],[-75.3270071,4.4113569],[-75.3270672,4.4113331],[-75.3271259,4.411323],[-75.3271961,4.4113242],[-75.3272549,4.4113317],[-75.3273197,4.4113537],[-75.3273751,4.4113817],[-75.3274149,4.4114217],[-75.3274474,4.4114753],[-75.3274652,4.411524],[-75.3274715,4.4115689],[-75.3274675,4.411685],[-75.3274389,4.4119309],[-75.3274314,4.4120618],[-75.3274373,4.41213],[-75.3274537,4.4121912],[-75.3274985,4.4122928],[-75.3276557,4.4124659],[-75.3277176,4.4125312],[-75.3278071,4.4126075],[-75.3278931,4.4126568],[-75.3279727,4.4126773],[-75.3280716,4.4126911],[-75.3283344,4.4126748],[-75.3285628,4.4126117],[-75.3287708,4.412536],[-75.3289996,4.4124347],[-75.3291305,4.4123651],[-75.3294014,4.4121726],[-75.3294572,4.4121093],[-75.329511,4.412012],[-75.3297064,4.4116824],[-75.3297646,4.41158],[-75.3299436,4.4113123],[-75.3300375,4.4111364],[-75.3300737,4.4110484],[-75.3301176,4.4108899],[-75.3301664,4.4103571],[-75.3302227,4.4100339],[-75.3302439,4.4099178],[-75.3302664,4.409843],[-75.3303028,4.4097706],[-75.3303579,4.4096881],[-75.3304055,4.4096357],[-75.3304555,4.4095945],[-75.3306033,4.4095501],[-75.3309156,4.4094819],[-75.3310007,4.4094569],[-75.3310859,4.4094206],[-75.3311812,4.4093687],[-75.3316776,4.4090741],[-75.3318742,4.4089318],[-75.331939,4.4088543],[-75.332009,4.4087469],[-75.3320806,4.4086061],[-75.3322964,4.4081217],[-75.3324229,4.4077711],[-75.3324587,4.4076456],[-75.3324925,4.4073718],[-75.3325183,4.4072991],[-75.3325883,4.4071763],[-75.332637,4.4071278],[-75.3326822,4.4070947],[-75.3327322,4.4070776],[-75.3327829,4.4070721],[-75.3328395,4.4070776],[-75.3332966,4.4072522],[-75.3334197,4.4072622],[-75.3334792,4.4072462],[-75.3335485,4.4072152],[-75.3338851,4.40703],[-75.3340249,4.4069602],[-75.3341425,4.406905],[-75.3342593,4.4068598],[-75.3343696,4.4068447],[-75.3344603,4.4068439],[-75.3345296,4.4068542],[-75.3346105,4.4068781],[-75.3346993,4.4069138],[-75.3347779,4.4069652],[-75.3348437,4.4070151],[-75.3349045,4.4070838],[-75.3349416,4.4071351],[-75.3349721,4.4071934],[-75.3351106,4.407397],[-75.3351995,4.4076078],[-75.335236,4.4077481],[-75.3352591,4.4080472],[-75.3352636,4.4081805],[-75.335264,4.4083299],[-75.3352799,4.408462],[-75.3353461,4.408639],[-75.3354538,4.4089631],[-75.3355565,4.4091915],[-75.3355795,4.4092685],[-75.3356796,4.4097018],[-75.3356934,4.4098224],[-75.3356931,4.4099281],[-75.335674,4.4101243],[-75.3356526,4.410239],[-75.3356476,4.4103048],[-75.335668,4.4103682],[-75.3356969,4.4104312],[-75.3357522,4.4104987],[-75.3358125,4.4105419],[-75.3360726,4.410669],[-75.3361893,4.4107576],[-75.3362696,4.4108293],[-75.3364582,4.4110221],[-75.3365335,4.4111],[-75.3366043,4.4111288],[-75.3366766,4.4111385],[-75.3367573,4.4111402],[-75.3369417,4.4110931],[-75.3371732,4.411061],[-75.3374179,4.4110711],[-75.3375187,4.4110615],[-75.3375881,4.4110441],[-75.3376575,4.4110131],[-75.3377232,4.4109716],[-75.3377598,4.41094],[-75.3377937,4.4108693],[-75.3378276,4.410814],[-75.3379169,4.4106359],[-75.3380693,4.4102523],[-75.3381171,4.4100927],[-75.338193,4.4098951],[-75.3382651,4.4097727],[-75.3383349,4.4096696],[-75.3384681,4.4095306],[-75.3385576,4.4094614],[-75.3386319,4.4093942],[-75.3387127,4.4093349],[-75.3387991,4.409284],[-75.3388902,4.4092422],[-75.3389852,4.4092099],[-75.3390829,4.4091874],[-75.3391825,4.4091748],[-75.3392828,4.4091725],[-75.3393828,4.4091803],[-75.3394815,4.4091983],[-75.3395778,4.4092261],[-75.3396709,4.4092636],[-75.3397596,4.4093103],[-75.339843,4.4093658],[-75.3399204,4.4094295],[-75.3399909,4.4095007],[-75.3401157,4.4096337],[-75.3402096,4.4097861],[-75.3403035,4.4099947],[-75.3403705,4.41023],[-75.3404242,4.4103557],[-75.3404623,4.4104661],[-75.3405213,4.4105669],[-75.3406098,4.4106625],[-75.3407093,4.4107264],[-75.3408072,4.4107765],[-75.3412119,4.4109592],[-75.3413073,4.4110091],[-75.3413835,4.4110586],[-75.3414414,4.4111323],[-75.3414978,4.4111991],[-75.3415355,4.411274],[-75.3415425,4.41135],[-75.3415382,4.4115087],[-75.3415458,4.4116273],[-75.3415576,4.411725],[-75.3415737,4.4118166],[-75.3416496,4.4119154],[-75.3417291,4.4119501],[-75.34189,4.4119467],[-75.3422073,4.4119189],[-75.3424043,4.4118929],[-75.342637,4.4118667],[-75.3428355,4.4118506],[-75.343034,4.4118667],[-75.3431815,4.4118694],[-75.3433263,4.4118319],[-75.3436294,4.4117544],[-75.3439495,4.4116812],[-75.3442807,4.4116761],[-75.3445521,4.4117475],[-75.3447425,4.411806],[-75.3448133,4.4118471],[-75.3448686,4.4118844],[-75.3449012,4.4119154],[-75.3449387,4.411983],[-75.3451201,4.4123924],[-75.3451693,4.4124744],[-75.3452353,4.4125476],[-75.3453022,4.4126029],[-75.3454095,4.4126542],[-75.3455226,4.4126942],[-75.3456213,4.4127128],[-75.3457428,4.4127227],[-75.3460193,4.4127274],[-75.3463137,4.412688],[-75.3469893,4.4125948],[-75.3476764,4.4124923],[-75.3481384,4.4124138],[-75.3484216,4.4123498],[-75.3492964,4.412154],[-75.349539,4.4121079],[-75.3497487,4.4120663],[-75.3498847,4.412023],[-75.3500395,4.4119785],[-75.3501713,4.4119522],[-75.3502784,4.4119391],[-75.3504683,4.4119574],[-75.350648,4.4119828],[-75.3507474,4.4119727],[-75.3508737,4.4119177],[-75.3509643,4.4118403],[-75.3511329,4.4116473],[-75.3512098,4.4116173],[-75.3512675,4.4116181],[-75.3513551,4.4116311],[-75.3514388,4.4116687],[-75.3516567,4.4117621],[-75.3518007,4.4118195],[-75.3519843,4.4118765],[-75.3522493,4.4119081],[-75.3523491,4.4118907],[-75.3524321,4.411855],[-75.352525,4.4117994],[-75.3526613,4.4116841],[-75.3528983,4.4114546],[-75.3529491,4.4114097],[-75.3530069,4.4113791],[-75.3531383,4.4113611],[-75.3531948,4.4113727],[-75.353252,4.4113979],[-75.3533031,4.4114358],[-75.353371,4.4115332],[-75.3535325,4.4117374],[-75.3535873,4.4117848],[-75.3536473,4.4118256],[-75.3537031,4.4118388],[-75.3537631,4.4118416],[-75.3538385,4.4118415],[-75.3539385,4.4118326],[-75.3543517,4.4117076],[-75.3545487,4.4116841],[-75.354691,4.4117125],[-75.3547784,4.4117632],[-75.354937,4.4119152],[-75.3550284,4.4119659],[-75.3551158,4.4119861],[-75.3555432,4.4120353],[-75.3556365,4.4120484],[-75.3557509,4.412074],[-75.3559229,4.4121446],[-75.3562388,4.4122567],[-75.3563416,4.4122844],[-75.356423,4.4122979],[-75.3564927,4.4123039],[-75.3565672,4.4122986],[-75.3566567,4.4122783],[-75.3568213,4.4122317],[-75.3570861,4.4121047],[-75.3572577,4.4120298],[-75.3574723,4.4119175],[-75.357652,4.411856],[-75.3577961,4.4118354],[-75.3579129,4.4118304],[-75.3581118,4.4117971],[-75.3582996,4.4117498],[-75.3584192,4.4116906],[-75.3585076,4.4116278],[-75.358612,4.4115236],[-75.3593948,4.4103323],[-75.3594709,4.4102703],[-75.3595306,4.4102452],[-75.3595942,4.4102325],[-75.359659,4.4102327],[-75.3597225,4.4102459],[-75.359782,4.4102715],[-75.3598352,4.4103085],[-75.3598799,4.4103553],[-75.3599024,4.4104159],[-75.3599171,4.4104975],[-75.3599225,4.4106084],[-75.3599184,4.4113341],[-75.3599186,4.4115342],[-75.3599293,4.4116539],[-75.359948,4.4117397],[-75.3599835,4.4118348],[-75.3600392,4.4119228],[-75.3601141,4.4120039],[-75.3601932,4.4120738],[-75.3603036,4.4121509],[-75.3604107,4.4121809],[-75.3605582,4.4122157],[-75.3607446,4.4122424],[-75.3608613,4.4122611],[-75.3609431,4.4123039],[-75.3610055,4.4123833],[-75.3610356,4.4124577],[-75.3610598,4.4125673],[-75.3610564,4.4126911],[-75.3610288,4.4129501],[-75.3609946,4.4131199],[-75.3609324,4.4134499],[-75.3608923,4.4136305],[-75.3608553,4.4139725],[-75.3608513,4.414059],[-75.3608365,4.4141863],[-75.3608081,4.414337],[-75.3606989,4.4146626],[-75.3606476,4.4147975],[-75.3606246,4.4149223],[-75.3606004,4.415085],[-75.3605981,4.4151838],[-75.360594,4.4152738],[-75.3605963,4.4154731],[-75.3606139,4.4156256],[-75.3606337,4.415723],[-75.3606488,4.4158123],[-75.3606792,4.4158545],[-75.3607231,4.4158934],[-75.3607949,4.4159302],[-75.3608995,4.415969],[-75.3614426,4.416094],[-75.3614953,4.4161171],[-75.3615526,4.4161672],[-75.3615781,4.4162331],[-75.3615942,4.4163233],[-75.361568,4.4167352],[-75.3615654,4.4168588],[-75.3615895,4.4169611],[-75.3616177,4.4170307],[-75.3616921,4.4171276],[-75.361965,4.4174719],[-75.3622332,4.4179038],[-75.3622882,4.4179747],[-75.362362,4.4180348],[-75.3624478,4.418087],[-75.3625309,4.4181204],[-75.3629018,4.4182254],[-75.3629621,4.4182434],[-75.3630018,4.4182871],[-75.3630192,4.4183196],[-75.3630268,4.418378],[-75.3630377,4.4184927],[-75.3630406,4.4187522],[-75.3630493,4.4188231],[-75.3630627,4.4188672],[-75.3630986,4.4189321],[-75.3631727,4.4190183],[-75.3632645,4.4190908],[-75.3633852,4.419162],[-75.3635434,4.4192215],[-75.3637353,4.4192824],[-75.3639337,4.4193051],[-75.3640497,4.4193078],[-75.3641564,4.4193024],[-75.3643562,4.4192837],[-75.3645091,4.419269],[-75.3645621,4.4192737],[-75.3645942,4.4192844],[-75.3646207,4.4193028],[-75.3646382,4.4193272],[-75.3646516,4.4193653],[-75.3646559,4.4194047],[-75.3646556,4.4195859],[-75.3646532,4.4196855],[-75.3646559,4.419754],[-75.3646653,4.4197992],[-75.3646851,4.4198473],[-75.3647237,4.4198894],[-75.3647868,4.4199268],[-75.3649127,4.419965],[-75.3650254,4.4199737],[-75.365478,4.4198988],[-75.3656269,4.4198921],[-75.3657757,4.4198961],[-75.3658904,4.4199128],[-75.366286,4.4200285],[-75.3666036,4.4200674],[-75.3667707,4.4200642],[-75.3669108,4.4200599],[-75.3670454,4.420035],[-75.367206,4.4199852],[-75.3675111,4.419759],[-75.367841,4.4195436],[-75.3681636,4.4193425],[-75.3684345,4.4190658],[-75.3684841,4.4190263],[-75.3685391,4.4189929],[-75.3685981,4.4189702],[-75.3686678,4.4189561],[-75.3687564,4.4189481],[-75.368932,4.4189387],[-75.3691439,4.4189133],[-75.3692324,4.4188946],[-75.3693183,4.4188625],[-75.3694323,4.4188104],[-75.3695315,4.4187743],[-75.3696281,4.4187622],[-75.3697461,4.4187596],[-75.3699929,4.4187836],[-75.3701632,4.4188304],[-75.3704461,4.4189321],[-75.3707854,4.4190096],[-75.3709973,4.419035],[-75.3715405,4.4190257],[-75.3717937,4.4190122],[-75.3719616,4.4190243],[-75.3722295,4.4190552],[-75.3723927,4.4190444],[-75.372785,4.4189668],[-75.3733656,4.4188117],[-75.3736117,4.4187019],[-75.3740805,4.418424],[-75.3744856,4.4181331],[-75.3749441,4.4177637],[-75.3752706,4.4174089],[-75.3753699,4.4173326],[-75.3754744,4.4172653],[-75.3755709,4.4172109],[-75.3756698,4.417166],[-75.3757748,4.4171256],[-75.3758628,4.4171039],[-75.3759564,4.4170884],[-75.3760437,4.4170799],[-75.3761202,4.4170839],[-75.3762153,4.4170985],[-75.3763219,4.4171253],[-75.3764207,4.4171596],[-75.3765458,4.4172197],[-75.376646,4.4172743],[-75.3767305,4.4173239],[-75.377,4.4175111],[-75.3773633,4.4177707],[-75.3777152,4.418016],[-75.3778747,4.4181317],[-75.3780556,4.4182247],[-75.3782479,4.4183231],[-75.3785799,4.4184285],[-75.378841,4.4185212],[-75.3790905,4.4186025],[-75.3793033,4.4187011],[-75.3795027,4.4187957],[-75.379678,4.4188829],[-75.3798653,4.4189713],[-75.3800046,4.4190298],[-75.3802095,4.4191132],[-75.3806704,4.419285],[-75.3812453,4.4194944],[-75.3815802,4.4196227],[-75.3817952,4.4197145],[-75.3819852,4.4198075],[-75.3824153,4.4200534],[-75.3838709,4.4209992],[-75.3848429,4.4215474],[-75.3849868,4.4216192],[-75.3852224,4.4217641],[-75.385433,4.4219392],[-75.3856717,4.4221919],[-75.385895,4.4224594],[-75.385989,4.4225557],[-75.3861485,4.422688],[-75.3862135,4.4227555],[-75.3862618,4.4228257],[-75.3862726,4.4228946],[-75.3862384,4.4229829],[-75.3861083,4.4231694],[-75.3860485,4.4232784],[-75.3860354,4.4234166],[-75.3861398,4.4238246],[-75.3862572,4.424151],[-75.3866173,4.4246763],[-75.3867215,4.4247789],[-75.3868871,4.4248881],[-75.387136,4.4249609],[-75.3878738,4.4250428],[-75.3879816,4.4250753],[-75.3880557,4.4251098],[-75.3880914,4.4251474],[-75.3881487,4.4252593],[-75.3882211,4.4254197],[-75.3883687,4.4257246],[-75.3886677,4.4261351],[-75.3887375,4.4262113],[-75.3888237,4.4262575],[-75.3889132,4.4262781],[-75.3890124,4.4262862],[-75.3892701,4.4262765],[-75.3894013,4.4262835],[-75.38948,4.4263344],[-75.3895361,4.4264066],[-75.3896084,4.4265346],[-75.3896903,4.4266405],[-75.3897332,4.4266819],[-75.3897822,4.4266967],[-75.3898803,4.4266918],[-75.3902046,4.4266565],[-75.3902677,4.4266525],[-75.3903208,4.4266698],[-75.3903709,4.4267154],[-75.3903984,4.4267662],[-75.390412,4.4268372],[-75.3904505,4.427407],[-75.3904765,4.427531],[-75.3905305,4.4276528],[-75.3906151,4.4277205],[-75.3907486,4.4277901],[-75.3910008,4.4279005],[-75.3912158,4.4280043],[-75.3912687,4.4280633],[-75.3912973,4.4281338],[-75.3913124,4.4282504],[-75.3913084,4.4283774],[-75.391295,4.4285378],[-75.3913057,4.4286221],[-75.3913231,4.4286996],[-75.3913714,4.4287732],[-75.3914465,4.4288414],[-75.3915509,4.4288997],[-75.3916959,4.4289256],[-75.3918559,4.428933],[-75.3919952,4.4289218],[-75.3922305,4.428864],[-75.3924293,4.4287952],[-75.392614,4.4287537],[-75.3927407,4.4287504],[-75.3928198,4.4287948],[-75.3928839,4.4288383],[-75.3929297,4.4289037],[-75.3929693,4.4289847],[-75.3929775,4.4290503],[-75.3929762,4.4291073],[-75.3929452,4.4291976],[-75.3928628,4.4292835],[-75.3927878,4.4293425],[-75.3926411,4.4294429],[-75.392409,4.4295859],[-75.3923286,4.4296451],[-75.3922716,4.429739],[-75.3922392,4.4298579],[-75.3922452,4.4300007],[-75.3922784,4.4301904],[-75.3923081,4.4304626],[-75.3923236,4.4305956],[-75.3923625,4.4306986],[-75.3924329,4.4307952],[-75.3926253,4.4309419],[-75.3927052,4.4310069],[-75.3929322,4.4312561],[-75.3931376,4.4314821],[-75.3932516,4.4315744],[-75.3934081,4.431663],[-75.3936285,4.4317549],[-75.3939784,4.431881],[-75.3941442,4.4319171],[-75.3945324,4.4319581],[-75.3946142,4.4319889],[-75.3946826,4.4320437],[-75.3947242,4.432128],[-75.3947671,4.4323138],[-75.3948046,4.4324515],[-75.3948497,4.4325242],[-75.3949582,4.4326196],[-75.3950916,4.4327002],[-75.395314,4.432798],[-75.3956535,4.4329048],[-75.3960545,4.4330265],[-75.3962603,4.4330629],[-75.3975197,4.4330449],[-75.3977684,4.4330463],[-75.3978087,4.4330492],[-75.3978436,4.4330599],[-75.397883,4.4330888],[-75.3979059,4.4331254],[-75.397913,4.433157],[-75.3979133,4.4332023],[-75.3979026,4.4332404],[-75.3978758,4.4332792],[-75.3978285,4.4333215],[-75.3977638,4.4333761],[-75.3977249,4.4334176],[-75.3977101,4.433455],[-75.3976954,4.4335025],[-75.3976949,4.4335551],[-75.3977188,4.4336048],[-75.3977618,4.4336556],[-75.3978261,4.4337084],[-75.3979032,4.4337418],[-75.3984786,4.4339183],[-75.3986201,4.4339604],[-75.3986637,4.4339845],[-75.3986945,4.4340119],[-75.3987173,4.43404],[-75.3987253,4.4340728],[-75.3987227,4.4341042],[-75.3987039,4.4341356],[-75.3986797,4.4341563],[-75.398577,4.4342213],[-75.3984538,4.4342967],[-75.3983974,4.4343395],[-75.3983653,4.4343916],[-75.3983478,4.4344465],[-75.3983566,4.4345124],[-75.3983947,4.4346142],[-75.3984484,4.4347032],[-75.3988883,4.4352634],[-75.3991914,4.4357207],[-75.3992933,4.4359333],[-75.3993107,4.4360282],[-75.3993148,4.4361406],[-75.3992356,4.4364775],[-75.3992336,4.4365865],[-75.3992853,4.4367316],[-75.3993782,4.4368449],[-75.3995988,4.4369802],[-75.3998778,4.4371514],[-75.3999491,4.4371822],[-75.4000175,4.4371995],[-75.4001623,4.4372209],[-75.4004498,4.4372294],[-75.4005808,4.4372664],[-75.4006693,4.4373012],[-75.400916,4.4374429],[-75.4011208,4.4375473],[-75.4013988,4.4376354],[-75.4017837,4.4376809],[-75.4020225,4.4377344],[-75.4022062,4.43784],[-75.4023242,4.4379643],[-75.4024301,4.4381021],[-75.4024972,4.4382505],[-75.4025455,4.4384631],[-75.4025562,4.4386008],[-75.4025415,4.4389538],[-75.4025522,4.439157],[-75.4025804,4.439395],[-75.4026394,4.4395541],[-75.4027292,4.4396785],[-75.402866,4.4397921],[-75.4030886,4.4399312],[-75.403678,4.4403183],[-75.4045732,4.4409607],[-75.4046778,4.4410196],[-75.4048964,4.4410904],[-75.4050882,4.4411319],[-75.4058164,4.4411078],[-75.4059117,4.4411399],[-75.4059861,4.4411947],[-75.4060283,4.4412669],[-75.4060565,4.441402],[-75.4061075,4.441652],[-75.4061665,4.4417817],[-75.4062469,4.4418927],[-75.4063301,4.4419569],[-75.4067847,4.4421788],[-75.4072814,4.4423867],[-75.4076484,4.4425372],[-75.4080695,4.442703],[-75.408394,4.4428367],[-75.4086382,4.4429449],[-75.4088144,4.442982],[-75.4090539,4.4430025],[-75.4093221,4.4429918],[-75.4096279,4.4429704],[-75.4099228,4.4429785],[-75.4101294,4.4430479],[-75.4105961,4.443211],[-75.4108421,4.4432842],[-75.4110103,4.4432819],[-75.4111925,4.4432335],[-75.4113472,4.4431469],[-75.4118407,4.4425318],[-75.411956,4.4424877],[-75.4120526,4.4424983],[-75.412125,4.4425184],[-75.4122068,4.4425425],[-75.4122618,4.442584],[-75.4123315,4.4426521],[-75.4123852,4.4426976],[-75.4125112,4.4427297],[-75.4126588,4.4427163],[-75.4135278,4.4424596],[-75.4136431,4.4424409],[-75.4137826,4.4424596],[-75.4141715,4.4425398],[-75.4143405,4.4425372],[-75.4150153,4.4424036],[-75.4158989,4.4423442],[-75.4167371,4.4422257],[-75.4175275,4.4420891],[-75.419386,4.441763],[-75.4196961,4.4417133],[-75.4208921,4.4415224],[-75.4211104,4.4414863],[-75.4215556,4.441422],[-75.4216604,4.4414195],[-75.4220579,4.4414099],[-75.4242564,4.4414714],[-75.4244666,4.4414734],[-75.4246747,4.4415036],[-75.4248769,4.4415614],[-75.4250694,4.4416456],[-75.4257716,4.4416542],[-75.4264551,4.441664],[-75.4271661,4.4416743],[-75.4278606,4.4416842],[-75.4285455,4.4416941],[-75.4292412,4.4417041],[-75.4295432,4.4414964],[-75.4298608,4.4412798],[-75.43005,4.4411507],[-75.4300926,4.4411216],[-75.4306211,4.4407612],[-75.4311979,4.4403677],[-75.4317302,4.4400047],[-75.4322637,4.4396408],[-75.4328272,4.4392564],[-75.4333641,4.4388902],[-75.4338797,4.4385706],[-75.4348755,4.4380981],[-75.435415,4.4378777],[-75.4355472,4.4377929],[-75.4359208,4.4374297],[-75.4360994,4.43732],[-75.4369535,4.4369328],[-75.4376324,4.436636],[-75.4378371,4.4365353],[-75.4379374,4.4364854],[-75.4385348,4.4362061],[-75.4387532,4.4361211],[-75.4392244,4.4359405],[-75.4394326,4.4358945],[-75.4396046,4.435868],[-75.4397759,4.4358919],[-75.4402895,4.4359801],[-75.4403778,4.4359928],[-75.4404706,4.4359895],[-75.4405562,4.4359764],[-75.4427378,4.4355705],[-75.4429489,4.4355442],[-75.4431309,4.4355379],[-75.4448364,4.4356818],[-75.4452717,4.4357207],[-75.4453689,4.4357174],[-75.4454777,4.4356173],[-75.4457032,4.435513],[-75.4458212,4.4354515],[-75.4460276,4.4353421],[-75.4462252,4.4352622],[-75.4463924,4.4352288],[-75.446694,4.4351932],[-75.4470862,4.4351408],[-75.4481129,4.4349833],[-75.4486976,4.4348806],[-75.4490968,4.4348068],[-75.4495967,4.4346883]]}},{"type":"Feature","properties":{"tunel":true,"longitud_m":92.9},"geometry":{"type":"LineString","coordinates":[[-75.4495967,4.4346883],[-75.4504173,4.4345169]]}},{"type":"Feature","properties":{"tunel":false,"longitud_m":350.1},"geometry":{"type":"LineString","coordinates":[[-75.4504173,4.4345169],[-75.45072,4.4344605],[-75.4510465,4.4343843],[-75.4514088,4.4342837],[-75.4515448,4.4342334],[-75.4516878,4.4341805],[-75.4517468,4.4341586],[-75.4521105,4.4339895],[-75.4527864,4.4336807],[-75.4533894,4.4334891]]}},{"type":"Feature","properties":{"tunel":true,"longitud_m":204.0},"geometry":{"type":"LineString","coordinates":[[-75.4533894,4.4334891],[-75.453659,4.4334477],[-75.4539031,4.4334182],[-75.4540519,4.4334076],[-75.4542612,4.4333942],[-75.4546756,4.4333514],[-75.4552187,4.4332939]]}},{"type":"Feature","properties":{"tunel":false,"longitud_m":443.5},"geometry":{"type":"LineString","coordinates":[[-75.4552187,4.4332939],[-75.4567999,4.433037],[-75.4570736,4.4330196],[-75.457299,4.4330068],[-75.4576047,4.4330228],[-75.4579914,4.4330643],[-75.4591787,4.4332594]]}},{"type":"Feature","properties":{"tunel":true,"longitud_m":128.3},"geometry":{"type":"LineString","coordinates":[[-75.4591787,4.4332594],[-75.460321,4.4334472]]}},{"type":"Feature","properties":{"tunel":false,"longitud_m":98.9},"geometry":{"type":"LineString","coordinates":[[-75.460321,4.4334472],[-75.4612003,4.4335949]]}},{"type":"Feature","properties":{"tunel":true,"longitud_m":94.8},"geometry":{"type":"LineString","coordinates":[[-75.4612003,4.4335949],[-75.4620451,4.4337296]]}},{"type":"Feature","properties":{"tunel":false,"longitud_m":40.6},"geometry":{"type":"LineString","coordinates":[[-75.4620451,4.4337296],[-75.4624045,4.4338002]]}},{"type":"Feature","properties":{"tunel":true,"longitud_m":190.4},"geometry":{"type":"LineString","coordinates":[[-75.4624045,4.4338002],[-75.4640975,4.4340858]]}},{"type":"Feature","properties":{"tunel":false,"longitud_m":322.3},"geometry":{"type":"LineString","coordinates":[[-75.4640975,4.4340858],[-75.4642676,4.4341243],[-75.4647928,4.4342302],[-75.4655152,4.4343868],[-75.465679,4.4344409],[-75.4659024,4.4345086],[-75.4661907,4.4346207],[-75.4664761,4.4347522],[-75.4668624,4.4349351]]}},{"type":"Feature","properties":{"tunel":true,"longitud_m":109.4},"geometry":{"type":"LineString","coordinates":[[-75.4668624,4.4349351],[-75.4677572,4.4353491]]}},{"type":"Feature","properties":{"tunel":false,"longitud_m":579.3},"geometry":{"type":"LineString","coordinates":[[-75.4677572,4.4353491],[-75.4682276,4.4356747],[-75.4705933,4.4368941],[-75.4709439,4.4370063],[-75.4711118,4.4370777],[-75.4712698,4.4371364],[-75.4715289,4.4372139],[-75.4717901,4.4372793],[-75.4721514,4.4373855],[-75.4725023,4.4374278]]}},{"type":"Feature","properties":{"tunel":true,"longitud_m":171.4},"geometry":{"type":"LineString","coordinates":[[-75.4725023,4.4374278],[-75.4726147,4.4374192],[-75.4727214,4.4374022],[-75.472887,4.4373691],[-75.4730744,4.4373424],[-75.4733202,4.4373089],[-75.4735365,4.4372771],[-75.4737985,4.4372307],[-75.4740282,4.4371861]]}},{"type":"Feature","properties":{"tunel":false,"longitud_m":507.9},"geometry":{"type":"LineString","coordinates":[[-75.4740282,4.4371861],[-75.4741843,4.4371332],[-75.4743001,4.4371043],[-75.4744511,4.4370694],[-75.4746815,4.4370417],[-75.47485,4.4370337],[-75.4750128,4.4370309],[-75.4752751,4.4370566],[-75.4755093,4.4371223],[-75.4757307,4.4371926],[-75.4759774,4.4373044],[-75.4761595,4.4374008],[-75.4763095,4.4374934],[-75.476419,4.4375536],[-75.4765348,4.437634],[-75.4766464,4.4377359],[-75.4767828,4.437898],[-75.4769458,4.4380663],[-75.477024,4.4381493],[-75.4771389,4.4382494],[-75.4773023,4.4383676],[-75.4774821,4.4384849],[-75.47764,4.4385473],[-75.4778557,4.438597],[-75.4780998,4.438632]]}},{"type":"Feature","properties":{"tunel":true,"longitud_m":61.4},"geometry":{"type":"LineString","coordinates":[[-75.4780998,4.438632],[-75.4786504,4.4386929]]}},{"type":"Feature","properties":{"tunel":false,"longitud_m":1049.1},"geometry":{"type":"LineString","coordinates":[[-75.4786504,4.4386929],[-75.4794731,4.4388152],[-75.4809256,4.4390068],[-75.4823903,4.4391982],[-75.4834456,4.4393742],[-75.4846283,4.4396326],[-75.484963,4.4396821],[-75.485187,4.4397266],[-75.4853788,4.4397413],[-75.4855017,4.4397702],[-75.4858448,4.4398761],[-75.4859988,4.439936],[-75.4861162,4.4400014],[-75.4862439,4.4401149],[-75.4864393,4.4402878],[-75.4865858,4.4404474],[-75.4866872,4.4405378],[-75.4869196,4.4407345],[-75.4870882,4.4408116],[-75.4873196,4.4409127],[-75.4876355,4.4410266]]}},{"type":"Feature","properties":{"tunel":true,"longitud_m":286.4},"geometry":{"type":"LineString","coordinates":[[-75.4876355,4.4410266],[-75.4879,4.4410606],[-75.4882077,4.4410694],[-75.4885486,4.441001],[-75.4889598,4.440817],[-75.4893691,4.4405795],[-75.4897159,4.4403774],[-75.4900055,4.4402099]]}},{"type":"Feature","properties":{"tunel":false,"longitud_m":491.1},"geometry":{"type":"LineString","coordinates":[[-75.4900055,4.4402099],[-75.4904388,4.4399218],[-75.4906493,4.4397641],[-75.4908683,4.43963],[-75.4911629,4.4394103],[-75.491389,4.4392435],[-75.4915163,4.4391579],[-75.4916813,4.4390643],[-75.4918257,4.4389944],[-75.4919397,4.4389482],[-75.4921371,4.4388898],[-75.4923259,4.4388399],[-75.4925538,4.4387847],[-75.4927552,4.4387428],[-75.4930123,4.4386732],[-75.493222,4.4385982],[-75.4933797,4.4385438],[-75.4935636,4.4384785],[-75.4937135,4.438415],[-75.4939471,4.4383084]]}},{"type":"Feature","properties":{"tunel":true,"longitud_m":378.8},"geometry":{"type":"LineString","coordinates":[[-75.4939471,4.4383084],[-75.4941312,4.4381952],[-75.4943428,4.4380802],[-75.4948121,4.4378868],[-75.4950455,4.4378253],[-75.4952991,4.4377636],[-75.4956737,4.4376801],[-75.4964773,4.4374964],[-75.4971972,4.4373215]]}},{"type":"Feature","properties":{"tunel":false,"longitud_m":96.2},"geometry":{"type":"LineString","coordinates":[[-75.4971972,4.4373215],[-75.4980529,4.4371768]]}},{"type":"Feature","properties":{"tunel":true,"longitud_m":386.9},"geometry":{"type":"LineString","coordinates":[[-75.4980529,4.4371768],[-75.4982339,4.4371622],[-75.4985356,4.4371429],[-75.498875,4.4371432],[-75.4993149,4.4371613],[-75.5000946,4.4371573],[-75.501541,4.4371188]]}},{"type":"Feature","properties":{"tunel":false,"longitud_m":387.9},"geometry":{"type":"LineString","coordinates":[[-75.501541,4.4371188],[-75.5039429,4.4370669],[-75.5046042,4.4370343],[-75.5047368,4.437038],[-75.5048255,4.4370453],[-75.5049213,4.4370586],[-75.5050321,4.4370932]]}},{"type":"Feature","properties":{"tunel":true,"longitud_m":198.3},"geometry":{"type":"LineString","coordinates":[[-75.5050321,4.4370932],[-75.505104,4.4371264],[-75.5052239,4.4371795],[-75.5054157,4.437257],[-75.5056931,4.437374],[-75.5059219,4.4374888],[-75.5066293,4.4378894]]}},{"type":"Feature","properties":{"tunel":false,"longitud_m":48.8},"geometry":{"type":"LineString","coordinates":[[-75.5066293,4.4378894],[-75.5069991,4.4381281]]}},{"type":"Feature","properties":{"tunel":true,"longitud_m":66.4},"geometry":{"type":"LineString","coordinates":[[-75.5069991,4.4381281],[-75.5074852,4.4384774]]}},{"type":"Feature","properties":{"tunel":false,"longitud_m":139.2},"geometry":{"type":"LineString","coordinates":[[-75.5074852,4.4384774],[-75.508356,4.4393798]]}},{"type":"Feature","properties":{"tunel":true,"longitud_m":168.8},"geometry":{"type":"LineString","coordinates":[[-75.508356,4.4393798],[-75.5093108,4.4405625]]}},{"type":"Feature","properties":{"tunel":false,"longitud_m":795.8},"geometry":{"type":"LineString","coordinates":[[-75.5093108,4.4405625],[-75.5094414,4.4407281],[-75.5095334,4.4408524],[-75.5096008,4.440935],[-75.5096723,4.4410191],[-75.5097586,4.4411024],[-75.5099231,4.4412164],[-75.5100725,4.4413054],[-75.5101743,4.4413835],[-75.5102988,4.44147],[-75.5107499,4.4417714],[-75.5109554,4.4419423],[-75.5111458,4.4421676],[-75.5112592,4.4424075],[-75.5113175,4.4426268],[-75.5113982,4.4429605],[-75.5114822,4.4431453],[-75.5116511,4.4433654],[-75.5118293,4.4434998],[-75.5119963,4.443581],[-75.5121724,4.4436194],[-75.5123952,4.4436598],[-75.5125644,4.4436918],[-75.512724,4.4437278],[-75.5128781,4.4437697],[-75.5130232,4.4438297],[-75.5131668,4.4438871],[-75.5133486,4.4439655],[-75.5135208,4.4440173],[-75.5137458,4.4440743],[-75.5139726,4.4441241],[-75.5142009,4.4441664],[-75.5144304,4.4442013],[-75.5146609,4.4442288],[-75.5148922,4.4442488]]}},{"type":"Feature","properties":{"tunel":true,"longitud_m":222.7},"geometry":{"type":"LineString","coordinates":[[-75.5148922,4.4442488],[-75.5168917,4.444444]]}},{"type":"Feature","properties":{"tunel":false,"longitud_m":530.4},"geometry":{"type":"LineString","coordinates":[[-75.5168917,4.444444],[-75.5172281,4.4445352],[-75.5176217,4.4447019],[-75.5178577,4.4448129],[-75.5179891,4.4448556],[-75.5181604,4.4448869],[-75.5182768,4.4448847],[-75.5184802,4.4449019],[-75.5187094,4.4449546],[-75.518885,4.4450211],[-75.5191049,4.4451422],[-75.5192507,4.4452515],[-75.5196165,4.4456392],[-75.5208519,4.4468374]]}},{"type":"Feature","properties":{"tunel":true,"longitud_m":8622.1},"geometry":{"type":"LineString","coordinates":[[-75.5208519,4.4468374],[-75.5484617,4.4741503],[-75.5760602,4.5014551]]}},{"type":"Feature","properties":{"tunel":false,"longitud_m":165.5},"geometry":{"type":"LineString","coordinates":[[-75.5760602,4.5014551],[-75.576222,4.5016677],[-75.5765555,4.5021059],[-75.5769625,4.5026406]]}},{"type":"Feature","properties":{"tunel":true,"longitud_m":518.2},"geometry":{"type":"LineString","coordinates":[[-75.5769625,4.5026406],[-75.5780761,4.5045044],[-75.5794971,4.5065531]]}},{"type":"Feature","properties":{"tunel":false,"longitud_m":278.5},"geometry":{"type":"LineString","coordinates":[[-75.5794971,4.5065531],[-75.5802047,4.5067911],[-75.5805974,4.507004],[-75.5808458,4.5072061],[-75.5809977,4.5074489],[-75.5810174,4.5074805],[-75.5811317,4.5076746],[-75.5812803,4.508096]]}},{"type":"Feature","properties":{"tunel":true,"longitud_m":826.5},"geometry":{"type":"LineString","coordinates":[[-75.5812803,4.508096],[-75.5838064,4.5143337],[-75.5839517,4.5146491],[-75.5840502,4.514742],[-75.5842326,4.5148732]]}},{"type":"Feature","properties":{"tunel":false,"longitud_m":438.8},"geometry":{"type":"LineString","coordinates":[[-75.5842326,4.5148732],[-75.5843615,4.5149415],[-75.5848722,4.5150896],[-75.5851776,4.5151239],[-75.5853228,4.515116],[-75.5857132,4.5151674],[-75.5859723,4.5152334],[-75.5862396,4.5153498],[-75.5864594,4.5154906],[-75.5867,4.5157098],[-75.5868282,4.5158689],[-75.5870623,4.5161551],[-75.587166,4.5162645],[-75.5872684,4.5164051],[-75.587292,4.5165849],[-75.5873129,4.5167889]]}},{"type":"Feature","properties":{"tunel":true,"longitud_m":341.7},"geometry":{"type":"LineString","coordinates":[[-75.5873129,4.5167889],[-75.5873436,4.5173294],[-75.5875147,4.5182786],[-75.5876005,4.5188775],[-75.5876675,4.5191289],[-75.5879485,4.5197725]]}},{"type":"Feature","properties":{"tunel":false,"longitud_m":5039.5},"geometry":{"type":"LineString","coordinates":[[-75.5879485,4.5197725],[-75.588054,4.5200032],[-75.5881638,4.520243],[-75.5882132,4.5203509],[-75.5887633,4.5215529],[-75.5887994,4.5216969],[-75.5887257,4.5216356],[-75.5885451,4.5213665],[-75.5884698,4.5213106],[-75.5883838,4.5212735],[-75.5882676,4.5212563],[-75.5881574,4.5212712],[-75.5880419,4.5213238],[-75.5879856,4.5213688],[-75.5879383,4.5214226],[-75.5878271,4.5217319],[-75.5877302,4.5217815],[-75.5876904,4.5222432],[-75.5876925,4.5227056],[-75.5877403,4.5231655],[-75.5878333,4.5236185],[-75.5879705,4.5240602],[-75.5881508,4.5244862],[-75.5883722,4.5248925],[-75.5886327,4.5252751],[-75.5889127,4.5257957],[-75.5889892,4.5259468],[-75.5890899,4.526093],[-75.5892051,4.5262194],[-75.5893068,4.5263074],[-75.5894646,4.5264124],[-75.5896186,4.5264861],[-75.5898446,4.5266401],[-75.5898749,4.5266636],[-75.5900432,4.5267945],[-75.5903383,4.5270538],[-75.5905221,4.5272368],[-75.5906853,4.5274274],[-75.590922,4.5277111],[-75.5910292,4.5278264],[-75.5912093,4.5280147],[-75.5913524,4.5281815],[-75.5915409,4.5284159],[-75.5916643,4.5285766],[-75.591717,4.5286429],[-75.591787,4.528731],[-75.5919171,4.5289122],[-75.5920645,4.5291445],[-75.5921721,4.5293253],[-75.5922437,4.5294493],[-75.5923117,4.5295486],[-75.5923134,4.5295511],[-75.5923838,4.5296461],[-75.5924782,4.5297345],[-75.5925881,4.5298135],[-75.5927729,4.5298971],[-75.5929818,4.529967],[-75.5934095,4.5300739],[-75.5939687,4.5302008],[-75.5951036,4.5304742],[-75.5971732,4.5309794],[-75.5977537,4.5311367],[-75.5979929,4.5312205],[-75.5982544,4.5313236],[-75.5985006,4.5314215],[-75.5986665,4.5315014],[-75.5988068,4.5315699],[-75.5990142,4.5316726],[-75.5991784,4.5317314],[-75.5993533,4.5317738],[-75.5995248,4.531801],[-75.5996879,4.5318151],[-75.5998209,4.5318137],[-75.5999423,4.5317913],[-75.6000541,4.5317625],[-75.6002071,4.5316983],[-75.6003445,4.5316254],[-75.6004673,4.5315304],[-75.6005717,4.5314249],[-75.6007777,4.5311809],[-75.6011693,4.5307421],[-75.6015894,4.5303084],[-75.6019051,4.529951],[-75.6020705,4.5297247],[-75.6021596,4.5295568],[-75.602224,4.5294191],[-75.602279,4.5292542],[-75.6023586,4.5289608],[-75.6024361,4.5285287],[-75.6025683,4.5279333],[-75.602674,4.5275402],[-75.602751,4.5271916],[-75.6028307,4.5267819],[-75.6029165,4.5264396],[-75.6029747,4.5261543],[-75.6030407,4.5258544],[-75.6031587,4.5253671],[-75.6032512,4.5249616],[-75.6033395,4.5245209],[-75.6034068,4.5242273],[-75.603435,4.5240166],[-75.603432,4.5238484],[-75.6034006,4.5236682],[-75.60334,4.5234695],[-75.6032413,4.5232954],[-75.6031158,4.5231364],[-75.6029471,4.5229989],[-75.6027695,4.5229257],[-75.6025468,4.5228465],[-75.6022152,4.5227773],[-75.6017302,4.5227192],[-75.6015793,4.5226769],[-75.601368,4.5226002],[-75.6011663,4.5224698],[-75.6009858,4.5223029],[-75.6007952,4.5220219],[-75.6006876,4.5217119],[-75.6006608,4.5214407],[-75.6006839,4.5212095],[-75.6007737,4.5209263],[-75.6009536,4.5206374],[-75.6011569,4.5204403],[-75.6013206,4.5203323],[-75.6015135,4.5202451],[-75.6017774,4.5201816],[-75.6019569,4.5201706],[-75.6022933,4.5202183],[-75.6025826,4.5203743],[-75.6029409,4.5205829],[-75.6031834,4.520747],[-75.6034201,4.5208588],[-75.6036393,4.5208973],[-75.6038568,4.5208753],[-75.6040402,4.5208068],[-75.6042087,4.5206949],[-75.6043277,4.5206009],[-75.6044301,4.520478],[-75.6045773,4.5201228],[-75.6046281,4.5198513],[-75.6046311,4.5193962],[-75.604658,4.5190539],[-75.6046749,4.5188892],[-75.6046923,4.5188096],[-75.6047241,4.5187038],[-75.6047675,4.5185843],[-75.6050578,4.5182535],[-75.605422,4.5179463],[-75.6061499,4.5173374],[-75.6064954,4.5170327],[-75.6069449,4.516688],[-75.6071075,4.5165782],[-75.6072818,4.516488],[-75.6074251,4.5164318],[-75.6075823,4.5163866],[-75.6077546,4.5163552],[-75.6079057,4.5163425],[-75.6081169,4.5163475],[-75.6081756,4.5163536],[-75.6082972,4.5163834],[-75.6083729,4.5164092]]}},{"type":"Feature","properties":{"tunel":true,"longitud_m":96.1},"geometry":{"type":"LineString","coordinates":[[-75.6083729,4.5164092],[-75.6085521,4.5165307],[-75.608715,4.5166732],[-75.6088593,4.5168344],[-75.6089827,4.517012]]}},{"type":"Feature","properties":{"tunel":false,"longitud_m":903.6},"geometry":{"type":"LineString","coordinates":[[-75.6089827,4.517012],[-75.6090517,4.5171374],[-75.609089,4.5172743],[-75.6095897,4.5191681],[-75.6097216,4.5195777],[-75.6098944,4.5199737],[-75.610135,4.5203329],[-75.6104356,4.5206438],[-75.6105343,4.5207856],[-75.6106447,4.5209243],[-75.6107319,4.5210784],[-75.610794,4.5212442],[-75.6108294,4.5214177],[-75.6108372,4.5215945],[-75.6108172,4.5217704],[-75.6107699,4.521941],[-75.6106965,4.5221022],[-75.6105988,4.5222499],[-75.6104791,4.5223807],[-75.6103405,4.5224913],[-75.6101862,4.5225789],[-75.6100416,4.5226575],[-75.609857,4.5227309],[-75.6091218,4.5230116],[-75.6089996,4.5230555],[-75.608706,4.5231703],[-75.6085861,4.5232239],[-75.6084658,4.5232938]]}},{"type":"Feature","properties":{"tunel":true,"longitud_m":98.9},"geometry":{"type":"LineString","coordinates":[[-75.6084658,4.5232938],[-75.6083531,4.5233912],[-75.608256,4.5235041],[-75.6081765,4.5236299],[-75.6081164,4.5237659],[-75.6080769,4.5239093],[-75.6080429,4.5240516]]}},{"type":"Feature","properties":{"tunel":false,"longitud_m":80.9},"geometry":{"type":"LineString","coordinates":[[-75.6080429,4.5240516],[-75.6080074,4.5242311],[-75.6079794,4.5244106],[-75.6079756,4.5245922],[-75.607996,4.5247727]]}},{"type":"Feature","properties":{"tunel":true,"longitud_m":253.9},"geometry":{"type":"LineString","coordinates":[[-75.607996,4.5247727],[-75.6080288,4.5249681],[-75.608141,4.5252057],[-75.6082155,4.5253032],[-75.6083104,4.5253966],[-75.6096727,4.5261786]]}},{"type":"Feature","properties":{"tunel":false,"longitud_m":64.0},"geometry":{"type":"LineString","coordinates":[[-75.6096727,4.5261786],[-75.6101716,4.526468]]}},{"type":"Feature","properties":{"tunel":true,"longitud_m":304.4},"geometry":{"type":"LineString","coordinates":[[-75.6101716,4.526468],[-75.6117385,4.5275061],[-75.6124749,4.5279573]]}},{"type":"Feature","properties":{"tunel":false,"longitud_m":3859.9},"geometry":{"type":"LineString","coordinates":[[-75.6124749,4.5279573],[-75.6125773,4.5280222],[-75.6126857,4.5280767],[-75.6127986,4.5281213],[-75.612915,4.5281556],[-75.613034,4.5281794],[-75.6131547,4.5281925],[-75.613276,4.5281947],[-75.6133971,4.528186],[-75.6135169,4.5281666],[-75.6136345,4.5281365],[-75.6137489,4.5280961],[-75.6138592,4.5280455],[-75.6139645,4.5279853],[-75.6140291,4.5279421],[-75.6142371,4.5277659],[-75.6143625,4.5276305],[-75.6144805,4.5274847],[-75.6146082,4.5273231],[-75.6147742,4.5271177],[-75.6148825,4.5269585],[-75.6149515,4.5268468],[-75.6149841,4.5267831],[-75.6150099,4.5267046],[-75.6150243,4.5266286],[-75.615027,4.5265549],[-75.6150243,4.526479],[-75.6150127,4.5264053],[-75.6149644,4.5261808],[-75.6149372,4.5259556],[-75.61494,4.52588],[-75.6149572,4.5257945],[-75.6149872,4.5257217],[-75.6150275,4.5256518],[-75.6150562,4.5256196],[-75.6150996,4.5255836],[-75.6151808,4.5255344],[-75.6152614,4.5254999],[-75.6153463,4.5254857],[-75.6154307,4.5254875],[-75.6154921,4.5254957],[-75.6155588,4.525515],[-75.6156552,4.5255621],[-75.6158169,4.5256276],[-75.6159725,4.5256994],[-75.6160998,4.5257479],[-75.6163258,4.5258064],[-75.6164992,4.5258288],[-75.6166109,4.5258359],[-75.6167493,4.5258421],[-75.6170186,4.5258445],[-75.6173587,4.5258434],[-75.617575,4.5258387],[-75.6177455,4.5258194],[-75.6179229,4.5257929],[-75.6181409,4.5257427],[-75.6184624,4.5256625],[-75.6187638,4.5255978],[-75.6188431,4.525595],[-75.6190112,4.5256134],[-75.6196167,4.5256477],[-75.6202226,4.5256811],[-75.6204743,4.5257019],[-75.620725,4.525724],[-75.6211214,4.5257707],[-75.6215276,4.5258188],[-75.6216956,4.5258386],[-75.6219709,4.525861],[-75.6223983,4.525889],[-75.6228821,4.5259271],[-75.6230405,4.5259418],[-75.623174,4.5259542],[-75.6234643,4.525997],[-75.6238303,4.5260573],[-75.6243453,4.5261457],[-75.6245286,4.5261795],[-75.6246773,4.5262224],[-75.6248045,4.5262684],[-75.6249047,4.5263069],[-75.6249794,4.5263534],[-75.6250923,4.5264548],[-75.6251652,4.5265346],[-75.6252365,4.5266489],[-75.6252937,4.5267616],[-75.6253096,4.5268118],[-75.6253427,4.5269167],[-75.6253667,4.5270625],[-75.625371,4.527178],[-75.6253695,4.5274433],[-75.6253684,4.527617],[-75.6253738,4.5277641],[-75.625397,4.5278936],[-75.6254371,4.5280162],[-75.6255158,4.5281958],[-75.6256231,4.5283997],[-75.6257274,4.5285652],[-75.6258898,4.5287785],[-75.6260764,4.5289815],[-75.6262366,4.5291257],[-75.6263869,4.5292368],[-75.6265668,4.5293485],[-75.6267345,4.5294322],[-75.6269004,4.5294949],[-75.627049,4.5295481],[-75.6272179,4.5295862],[-75.6273865,4.529608],[-75.6276056,4.5296247],[-75.6278399,4.5296324],[-75.6280805,4.5296305],[-75.6283264,4.5296209],[-75.6285712,4.5296019],[-75.6287729,4.5295734],[-75.6289146,4.5295378],[-75.6290233,4.5294951],[-75.6291564,4.5294138],[-75.6293924,4.5292354],[-75.629843,4.5288775],[-75.630285,4.5285167],[-75.6304381,4.5283941],[-75.6306069,4.5282771],[-75.6308543,4.5281131],[-75.6312537,4.5278936],[-75.6315136,4.5277695],[-75.6317454,4.5276583],[-75.6319556,4.5275514],[-75.6323794,4.5273498],[-75.6328108,4.5271345],[-75.6331571,4.526966],[-75.6334998,4.5268008],[-75.6337023,4.5267049],[-75.6338598,4.5266539],[-75.6340127,4.526622],[-75.6341334,4.5266082],[-75.6342683,4.5266044],[-75.6343998,4.5266123],[-75.6346765,4.5266678],[-75.6351522,4.5268712],[-75.6353094,4.526893],[-75.6354934,4.5268604],[-75.6356164,4.5268074],[-75.6357055,4.5267491],[-75.6358342,4.5266199],[-75.6359143,4.5264859],[-75.6359666,4.5263139],[-75.6359689,4.5261022],[-75.6359231,4.5259352],[-75.6358394,4.5257879],[-75.6357244,4.5256668],[-75.6355323,4.5255542],[-75.6353757,4.5255137],[-75.6351929,4.5255127],[-75.6350163,4.5255592],[-75.6349096,4.5256141],[-75.6347089,4.5258058],[-75.6346206,4.5259821],[-75.6345477,4.5262003],[-75.6345421,4.5264877],[-75.6345408,4.5267383],[-75.6345283,4.5270141],[-75.6344754,4.5272938],[-75.6343368,4.5275434],[-75.6341152,4.527766],[-75.6337013,4.5281006],[-75.6336319,4.5281757],[-75.6335802,4.5282387],[-75.6335183,4.5283189],[-75.6334005,4.5284549],[-75.6332034,4.5287781],[-75.6330945,4.5289569],[-75.6330614,4.5290158],[-75.6330409,4.5290607],[-75.6330261,4.5290992],[-75.6330115,4.5291459],[-75.6330009,4.5291897],[-75.6329911,4.5292485],[-75.6329865,4.5293021],[-75.6329858,4.5293511],[-75.6329904,4.5294198],[-75.6329993,4.529476]]}},{"type":"Feature","properties":{"tunel":true,"longitud_m":71.1},"geometry":{"type":"LineString","coordinates":[[-75.6329993,4.529476],[-75.6330684,4.5296709],[-75.6331754,4.5298592],[-75.6333112,4.5300281]]}},{"type":"Feature","properties":{"tunel":false,"longitud_m":5004.3},"geometry":{"type":"LineString","coordinates":[[-75.6333112,4.5300281],[-75.6336359,4.530486],[-75.6337329,4.5306202],[-75.6338252,4.5308125],[-75.6338547,4.530868],[-75.6338874,4.5309232],[-75.6339298,4.5309897],[-75.633972,4.5310454],[-75.6340094,4.531089],[-75.6340295,4.5311113],[-75.6340824,4.5311576],[-75.6341848,4.5312383],[-75.6343653,4.5313804],[-75.6344103,4.5314112],[-75.6345077,4.5314831],[-75.6345852,4.5315429],[-75.6347838,4.5316912],[-75.63499,4.5318412],[-75.63508,4.5319038],[-75.6351547,4.5319486],[-75.6352101,4.5319769],[-75.6352848,4.5320088],[-75.6353494,4.5320319],[-75.6354377,4.5320569],[-75.6355196,4.5320779],[-75.6355451,4.5320833],[-75.6356702,4.5321097],[-75.6358933,4.5321552],[-75.6360374,4.5321905],[-75.6361843,4.5322324],[-75.6364386,4.5323207],[-75.6368412,4.5324695],[-75.6371147,4.5325706],[-75.6373621,4.5326621],[-75.637961,4.5328735],[-75.6384,4.5330378],[-75.6384579,4.5330717],[-75.6385008,4.5331088],[-75.6385337,4.533143],[-75.6385703,4.5331872],[-75.6388413,4.5337263],[-75.6389434,4.5339045],[-75.6389688,4.5339424],[-75.6389968,4.5339683],[-75.6390155,4.5339853],[-75.6390518,4.5340137],[-75.6391073,4.5340424],[-75.6393914,4.5341465],[-75.6396143,4.5342329],[-75.6397346,4.5342793],[-75.6402849,4.5345182],[-75.6404114,4.5345496],[-75.6404675,4.5345475],[-75.640523,4.5345564],[-75.6405757,4.534574],[-75.6407509,4.5345595],[-75.6409093,4.5345249],[-75.6410786,4.5344874],[-75.641377,4.5343961],[-75.6415343,4.534356],[-75.6417101,4.5343126],[-75.6417575,4.5342997],[-75.6419689,4.5342421],[-75.6421443,4.5341943],[-75.6422117,4.5341759],[-75.6425176,4.5341079],[-75.64299,4.5340352],[-75.6431698,4.5340328],[-75.6435842,4.5340419],[-75.6437522,4.5340377],[-75.6437982,4.5340365],[-75.6439637,4.534026],[-75.6440825,4.534016],[-75.6441287,4.5340128],[-75.6441721,4.5340098],[-75.6443695,4.5339982],[-75.6446519,4.5339788],[-75.6447355,4.5339739],[-75.6451426,4.5339499],[-75.6452759,4.533942],[-75.6454923,4.5339265],[-75.6456427,4.5339408],[-75.6457916,4.533978],[-75.6459155,4.534018],[-75.6460243,4.5340756],[-75.6461643,4.5341393],[-75.646279,4.5342311],[-75.646371,4.5343239],[-75.6464468,4.5344108],[-75.6465365,4.5345263],[-75.6466438,4.5346775],[-75.6468026,4.5349142],[-75.6468955,4.5350583],[-75.6469414,4.5351364],[-75.6470085,4.5352936],[-75.6470515,4.535429],[-75.6470804,4.5355246],[-75.647134,4.5357021],[-75.6471735,4.5358327],[-75.6471869,4.5358786],[-75.6472206,4.5359943],[-75.6472745,4.5361735],[-75.6473283,4.5363158],[-75.6473544,4.5363822],[-75.6473963,4.5364529],[-75.6474368,4.5365099],[-75.6474907,4.5365712],[-75.6475639,4.5366512],[-75.6477742,4.5368623],[-75.6478811,4.5369791],[-75.6479645,4.5370704],[-75.6479993,4.5371128],[-75.6480371,4.5371588],[-75.6480944,4.5372401],[-75.6481648,4.5373499],[-75.6482918,4.5375567],[-75.6483822,4.5376997],[-75.6484538,4.5377934],[-75.6485282,4.5378662],[-75.6485979,4.5379259],[-75.6486938,4.5379973],[-75.6488435,4.5381084],[-75.6488843,4.5381413],[-75.6490456,4.5382626],[-75.6491061,4.5383167],[-75.6491513,4.5383801],[-75.6491833,4.5384408],[-75.6491939,4.5384641],[-75.649213,4.5385064],[-75.649249,4.5386005],[-75.649301,4.5387684],[-75.6493236,4.5388416],[-75.6494994,4.5393892],[-75.6495059,4.5394122],[-75.64953,4.5394973],[-75.64966,4.5399566],[-75.6496794,4.5400251],[-75.6497151,4.540152],[-75.649741,4.5402301],[-75.649768,4.5403032],[-75.6498056,4.5403603],[-75.6498482,4.5404158],[-75.6498914,4.5404559],[-75.6499519,4.5404924],[-75.6500127,4.5405158],[-75.650087,4.5405327],[-75.6501661,4.5405344],[-75.6502405,4.5405257],[-75.6503202,4.5404957],[-75.650426,4.5404401],[-75.6505691,4.5403616],[-75.651011,4.5401135],[-75.6511566,4.5400275],[-75.6512994,4.5399187],[-75.6513854,4.5398189],[-75.6515514,4.5395587],[-75.6516431,4.5394351],[-75.6517239,4.5393558],[-75.6518344,4.5392685],[-75.6519544,4.5391798],[-75.6520529,4.5391037],[-75.6526902,4.5385916],[-75.6527662,4.5385474],[-75.6528393,4.5385049],[-75.6529796,4.5384465],[-75.6530903,4.5384166],[-75.6532081,4.5383852],[-75.6533222,4.5383681],[-75.6535482,4.5383666],[-75.6536322,4.5383695],[-75.6537562,4.5383791],[-75.6543027,4.5384393],[-75.6544018,4.5384408],[-75.6544844,4.5384251],[-75.6545617,4.5384023],[-75.6546494,4.538358],[-75.6547352,4.5382968],[-75.6548095,4.5382198],[-75.6548593,4.5381513],[-75.654905,4.5380658],[-75.6549393,4.5379745],[-75.654964,4.537879],[-75.6549798,4.5378055],[-75.6550556,4.537464],[-75.6550901,4.5373294],[-75.6551353,4.5372144],[-75.6551897,4.5371203],[-75.6552556,4.5370348],[-75.6553342,4.5369549],[-75.65542,4.536885],[-75.6555563,4.5367896],[-75.6558792,4.5365798],[-75.6561929,4.5363889],[-75.6564429,4.5362461],[-75.6565739,4.5361782],[-75.6567317,4.5360964],[-75.6569792,4.5359623],[-75.6574956,4.5356543],[-75.6581998,4.5352223],[-75.6583816,4.5351081],[-75.6585002,4.535017],[-75.6585176,4.5350002],[-75.6585914,4.5349285],[-75.6586816,4.5348315],[-75.6587691,4.5347203],[-75.6588402,4.5346134],[-75.6588744,4.534559],[-75.6589033,4.5344993],[-75.6589525,4.5343643],[-75.6589989,4.5342101],[-75.6590411,4.5340802],[-75.6591019,4.5339545],[-75.6591497,4.5338878],[-75.659198,4.5338096],[-75.6592939,4.5337281],[-75.6593878,4.5336545],[-75.6594957,4.533595],[-75.6595467,4.5335716],[-75.6598417,4.5334433],[-75.6600174,4.5333711],[-75.6603292,4.5332407],[-75.6605378,4.5331478],[-75.6606752,4.5330957],[-75.6607772,4.5330629],[-75.6608516,4.5330469],[-75.6609254,4.5330302],[-75.6609931,4.5330335],[-75.6610756,4.5330362],[-75.6611554,4.5330395],[-75.6613686,4.5330669],[-75.6615456,4.5330803],[-75.6616489,4.5330897],[-75.6617106,4.533092],[-75.6617854,4.5330947],[-75.661853,4.5330971],[-75.6619237,4.5330978],[-75.6619779,4.5330983],[-75.6620593,4.5331048],[-75.6621311,4.5331074],[-75.6622064,4.5331122],[-75.6622671,4.533116],[-75.6623553,4.5331201],[-75.6624771,4.5331158],[-75.662548,4.5331133],[-75.6626271,4.5331147],[-75.6628182,4.533091],[-75.6629313,4.5330781],[-75.6630177,4.5330504],[-75.663165,4.5330074],[-75.663248,4.5329861],[-75.6634349,4.5329307],[-75.6636131,4.532879],[-75.663804,4.5328194],[-75.663928,4.5327773],[-75.6640857,4.5327287],[-75.6642487,4.5326705],[-75.6643555,4.5326317],[-75.6644829,4.5325757],[-75.6645856,4.5325289],[-75.6647218,4.5324565],[-75.6648411,4.5323811],[-75.6649504,4.5322926],[-75.6650564,4.532196],[-75.6652242,4.5320249],[-75.6654255,4.5318383],[-75.6655544,4.5317015],[-75.6656534,4.5315633],[-75.6657293,4.5314351],[-75.6659711,4.5309341],[-75.6660171,4.5308235],[-75.6660494,4.530706],[-75.6660835,4.5305499],[-75.6661215,4.5303366],[-75.6661681,4.5301305],[-75.6662536,4.52997],[-75.6663327,4.5298791],[-75.6664373,4.5297922],[-75.666558,4.5297213],[-75.6666613,4.5296772],[-75.6668155,4.5296398],[-75.6670033,4.529605],[-75.6672433,4.5295689],[-75.6674552,4.5295555],[-75.6676011,4.5295748],[-75.6677197,4.5296113],[-75.6678647,4.529678],[-75.6679053,4.5296954],[-75.667919,4.5296995]]}}]}