{"type": "FeatureCollection", "features": [{"type": "Feature", "id": 333, "geometry": {"type": "LineString", "coordinates": [[-75.43006811700002, 4.422838489854712], [-75.427956758, 4.42842825885452], [-75.42716928200002, 4.432951132854405], [-75.42373482199997, 4.440404515854141], [-75.42055759300001, 4.4430698238540725], [-75.416052095, 4.444674064854019], [-75.41207642900002, 4.446010644853963], [-75.40783753800002, 4.448146082853876], [-75.404925273, 4.451077022853775]]}, "properties": {"OBJECTID": 333, "FNODE_": 0, "TNODE_": 0, "LPOLY_": 0, "RPOLY_": 0, "FGE_L_": 333, "FGE_L_ID": 486, "COD": "100300", "NMG": " ", "SHAPE.LEN": 0.0407749763472545}}, {"type": "Feature", "id": 195, "geometry": {"type": "LineString", "coordinates": [[-75.564206071, 4.4138767428550105], [-75.55832736000002, 4.421361069854757], [-75.55075972899999, 4.431460164854414], [-75.54238795999999, 4.440065215854146], [-75.53583978299997, 4.4471095218539265], [-75.530944256, 4.4529397878537145], [-75.52467651799998, 4.458371522853539], [-75.51989146400001, 4.462876580853396], [-75.516304709, 4.4669759048533], [-75.51328457900001, 4.4694604368532085], [-75.511178024, 4.471885019853121], [-75.50542860000002, 4.47886950985287]]}, "properties": {"OBJECTID": 195, "FNODE_": 0, "TNODE_": 0, "LPOLY_": 0, "RPOLY_": 0, "FGE_L_": 195, "FGE_L_ID": 259, "COD": "100100", "NMG": " ", "SHAPE.LEN": 0.0878552765409014}}, {"type": "Feature", "id": 218, "geometry": {"type": "LineString", "coordinates": [[-75.344136176, 4.387301146855891], [-75.33468524099999, 4.412446208855047]]}, "properties": {"OBJECTID": 218, "FNODE_": 0, "TNODE_": 0, "LPOLY_": 0, "RPOLY_": 0, "FGE_L_": 218, "FGE_L_ID": 296, "COD": "100100", "NMG": " ", "SHAPE.LEN": 0.0268625076148536}}, {"type": "Feature", "id": 214, "geometry": {"type": "LineString", "coordinates": [[-75.36678566699999, 4.361134039856748], [-75.36685728999998, 4.366301934856583], [-75.36316939800003, 4.3709794318564175], [-75.358341242, 4.375835119856218], [-75.34964707199998, 4.383642866855982], [-75.340830735, 4.3894950838557785], [-75.33167955300001, 4.397246964855574], [-75.32377619699997, 4.403209447855338], [-75.31712840300003, 4.409338799855156], [-75.31081998899998, 4.414775930854983], [-75.30422697900002, 4.4204440388548125], [-75.299451444, 4.424147838854674], [-75.294335418, 4.42831382885452], [-75.28751822499999, 4.434788007854319], [-75.28132725799998, 4.441086553854098], [-75.277295444, 4.445304442853979], [-75.26986942299999, 4.454003644853699]]}, "properties": {"OBJECTID": 214, "FNODE_": 0, "TNODE_": 0, "LPOLY_": 0, "RPOLY_": 0, "FGE_L_": 214, "FGE_L_ID": 292, "COD": "100100", "NMG": " ", "SHAPE.LEN": 0.13634516349537698}}, {"type": "Feature", "id": 194, "geometry": {"type": "LineString", "coordinates": [[-75.57428620399997, 4.4462397528539395], [-75.55341578000002, 4.481228022852843], [-75.53064188799999, 4.453201974853734]]}, "properties": {"OBJECTID": 194, "FNODE_": 0, "TNODE_": 0, "LPOLY_": 0, "RPOLY_": 0, "FGE_L_": 194, "FGE_L_ID": 258, "COD": "100100", "NMG": " ", "SHAPE.LEN": 0.0768525306964201}}, {"type": "Feature", "id": 336, "geometry": {"type": "LineString", "coordinates": [[-75.33453324999999, 4.38065878485607], [-75.330559688, 4.382926095856025], [-75.32671860699998, 4.385326533855938], [-75.32354095099998, 4.3882576088558345], [-75.31639066499997, 4.3941210268556326], [-75.312814839, 4.396653782855548], [-75.30870782199997, 4.398655087855499], [-75.304467074, 4.4001248588554684], [-75.299961285, 4.401328884855416], [-75.29598565100002, 4.402798192855391], [-75.28909552900001, 4.405735077855293]]}, "properties": {"OBJECTID": 336, "FNODE_": 0, "TNODE_": 0, "LPOLY_": 0, "RPOLY_": 0, "FGE_L_": 336, "FGE_L_ID": 489, "COD": "100300", "NMG": " ", "SHAPE.LEN": 0.0525054975352274}}], "_consulta": {"url": "https://srvags.sgc.gov.co/arcgis/rest/services/Geologia/Geologia_Por_Departamentos/MapServer/187", "fecha": "2026-09-29"}}