{"type": "FeatureCollection", "features": [{"type": "Feature", "id": 27487, "geometry": {"type": "LineString", "coordinates": [[-75.05610813499993, 5.274048530827103], [-75.06707867499995, 5.2560284608277135], [-75.07928930399993, 5.233768351828436], [-75.09321994699991, 5.216258309828977], [-75.10642070799992, 5.183838102830053], [-75.12510162299992, 5.154827989830973], [-75.13561843299993, 5.138569736831513], [-75.14132427699991, 5.1297489008318085], [-75.1484727589999, 5.118697847832152], [-75.16491357299992, 5.091727736833004], [-75.17573416699992, 5.06871760683376], [-75.19765364999995, 5.034243896834896], [-75.21969626099991, 5.0043273818358385], [-75.23047774299994, 4.9911776588362935], [-75.25039766799995, 4.965637283837137], [-75.26311827099994, 4.948207227837681], [-75.27745892199994, 4.930237185838258], [-75.28867943699993, 4.916107152838704], [-75.32992386299992, 4.849735262840895], [-75.34136198999994, 4.8343968348413835], [-75.34991133599993, 4.820229946841863], [-75.36360315399992, 4.790506605842811], [-75.38088413499992, 4.747586340844188], [-75.39858507799994, 4.710506140845402], [-75.42390729599992, 4.665317168846868], [-75.4356370079999, 4.637265768847802], [-75.45010788799993, 4.594885489849196], [-75.4641186959999, 4.558285259850353], [-75.47547933899995, 4.52933508285134], [-75.4807596359999, 4.51620500985175], [-75.50403070899995, 4.484864918852772], [-75.52882183899993, 4.4530648368537875], [-75.54576758699994, 4.434344808854377], [-75.56369336099993, 4.4153447838550255]]}, "properties": {"OBJECTID": 27487, "Tipo": "Falla", "NombreFalla": "Falla de Palestina", "SHAPE_Length": 1.004498380962124}}, {"type": "Feature", "id": 28053, "geometry": {"type": "LineString", "coordinates": [[-75.9040892129999, 3.925883149870987], [-75.88486840999991, 3.9430331478704126], [-75.85967734999991, 3.9668731598696825], [-75.84793684499994, 3.979283169869275], [-75.83090117699993, 4.005121908868419], [-75.82518334399992, 4.014612036868098], [-75.81537027999991, 4.030899190867557], [-75.79677438499994, 4.062318502866556], [-75.78926347099991, 4.075339460866105], [-75.78053358999995, 4.090473625865619], [-75.76549285099992, 4.117573745864735], [-75.75457227899994, 4.139903864864006], [-75.74211167099992, 4.161598955863322], [-75.73062113599991, 4.177354008862778], [-75.71458543099993, 4.196349046862171], [-75.69804971499991, 4.213444058861581], [-75.68098899199993, 4.230204070861055], [-75.66759835399995, 4.250804146860376], [-75.65776784799993, 4.269814240859763], [-75.64764726599992, 4.297284407858859], [-75.6366166009999, 4.329934619857817], [-75.6298762269999, 4.3461247138572565], [-75.61704558999992, 4.368954821856565], [-75.6018448829999, 4.39028488685584], [-75.58894429399993, 4.407764943855276], [-75.57848484099992, 4.426190986854648], [-75.57702369399993, 4.428765035854597], [-75.5683631899999, 4.4530551888537815], [-75.56006270299991, 4.475155325853062], [-75.55348237299995, 4.487125385852686]]}, "properties": {"OBJECTID": 28053, "Tipo": "Falla", "NombreFalla": "Falla de San Jerónimo", "SHAPE_Length": 0.6690677602103052}}, {"type": "Feature", "id": 28067, "geometry": {"type": "LineString", "coordinates": [[-75.82518334399992, 4.014612036868098], [-75.79282944699992, 4.03957325886728], [-75.77360368099994, 4.052633208866867], [-75.75732302799992, 4.064083179866485], [-75.74147238899991, 4.075503147866104], [-75.72316648499992, 4.0903220988656095], [-75.70802103299991, 4.100533085865266], [-75.6967905649999, 4.110343083864986], [-75.67319780399993, 4.127917582864388], [-75.64312835399994, 4.155383031863522], [-75.6268677509999, 4.161032940863338], [-75.61418717099991, 4.168844311863082], [-75.59983664499993, 4.182642911862612], [-75.59573641999992, 4.192052961862289], [-75.5937238059999, 4.197159897862124], [-75.58563363899992, 4.2066777418618315], [-75.58360252799991, 4.2074901868618095], [-75.57611579499991, 4.210484879861718], [-75.56612205899995, 4.217147370861488], [-75.5216433569999, 4.254202886860288], [-75.51204285499995, 4.27500299985962], [-75.5041524849999, 4.28651303285922], [-75.49612537899992, 4.293888621858974], [-75.47317117199992, 4.315953034858268], [-75.43762975899995, 4.3396829398574726], [-75.42784691899993, 4.342890518857415], [-75.39825963499993, 4.353156243857031], [-75.37612747399993, 4.361752596856779], [-75.35375659399995, 4.375902526856298], [-75.33189579499992, 4.382432389856108], [-75.31960031999995, 4.388967341855878], [-75.29414435599995, 4.400632221855508], [-75.26476323899993, 4.414662082855034], [-75.26444143599991, 4.4148915568550615], [-75.22923193199995, 4.425781869854655], [-75.19819081799994, 4.433151656854432], [-75.1584094019999, 4.441931376854158], [-75.12381815499992, 4.450911143853887], [-75.09416709399994, 4.457240933853678], [-75.05743577299995, 4.466880682853336], [-75.0284347509999, 4.472040461853161], [-74.99153342299991, 4.482020214852875], [-74.96896256899993, 4.491970098852527], [-74.95423203099995, 4.4970300118523365], [-74.93542137199995, 4.500149869852284], [-74.91921078799993, 4.504269759852123], [-74.9050402499999, 4.511389689851873], [-74.8875995219999, 4.52695967685142], [-74.86766869099995, 4.544519655850845], [-74.85432817899994, 4.551809592850599], [-74.83985763099992, 4.558719523850368]]}, "properties": {"OBJECTID": 28067, "Tipo": "Falla de rumbo dextral", "NombreFalla": "Falla de Ibagué", "SHAPE_Length": 1.1569835174670329}}, {"type": "Feature", "id": 28069, "geometry": {"type": "LineString", "coordinates": [[-75.35375659399995, 4.375902526856298], [-75.32150524299993, 4.404532499855382], [-75.29117398699992, 4.430412468854558], [-75.28073353299993, 4.441602485854186], [-75.25975259799992, 4.466522524853364], [-75.24989211499991, 4.483292597852793], [-75.2417217659999, 4.491252596852567], [-75.22326094699991, 4.5126526318518705], [-75.20613018299991, 4.533542665851179], [-75.2008793629999, 4.539634877850984], [-75.19096950399995, 4.551132693850587], [-75.18607294799995, 4.556613195850411], [-75.18028903899994, 4.562752707850223], [-75.17049858799993, 4.576612750849794], [-75.16211815999992, 4.592132818849289]]}, "properties": {"OBJECTID": 28069, "Tipo": "Falla de rumbo dextral", "NombreFalla": "Falla de Chapetón-Pericos", "SHAPE_Length": 0.2906305384359354}}, {"type": "Feature", "id": 28074, "geometry": {"type": "LineString", "coordinates": [[-75.18117639199994, 4.562093695850272], [-75.18818287699992, 4.556890176850419], [-75.19707971899993, 4.550282743850637], [-75.21524496699993, 4.541003317850961], [-75.21550042799993, 4.540872819850929], [-75.22758089099995, 4.534802876851126], [-75.23625124199992, 4.52904290585134], [-75.2426615299999, 4.520572879851622], [-75.24281153999993, 4.520202881851634], [-75.24298154599995, 4.51992287685161], [-75.24326155999995, 4.519392879851624], [-75.24344157299993, 4.51900287585164], [-75.2435615789999, 4.518732869851655], [-75.24392159699994, 4.51794286385169], [-75.24405160999993, 4.517532863851717], [-75.2444216259999, 4.516862864851721], [-75.24460163899994, 4.5164028548517505], [-75.2450416609999, 4.5154128578517465], [-75.24520166899993, 4.51507285485179], [-75.24537642099995, 4.514691170851764], [-75.2538221179999, 4.497242759852356], [-75.2659226859999, 4.479502704852942], [-75.28195528899994, 4.465403404853402], [-75.28389343799995, 4.463882717853476], [-75.28417345199995, 4.46345272085346], [-75.30459434099993, 4.441802702854164], [-75.31378472599994, 4.433222704854423], [-75.31631483099994, 4.4308627048544915], [-75.3194249689999, 4.427652700854612], [-75.32421517299991, 4.422722701854763], [-75.32640526499995, 4.420462692854839], [-75.33032544999992, 4.4153026798550385], [-75.33291557199993, 4.41160267285514], [-75.33983591399993, 4.398952614855533], [-75.35801247599994, 4.379731096856164], [-75.36078681899994, 4.37729260685627], [-75.37612747399993, 4.361752596856779]]}, "properties": {"OBJECTID": 28074, "Tipo": "Falla inversa o de cabalgamiento", "NombreFalla": null, "SHAPE_Length": 0.28440504572090863}}], "_consulta": {"url": "https://srvags.sgc.gov.co/arcgis/rest/services/Mapa_Geologico_Colombia/Mapa_Geologico_Colombia_V2023/MapServer/704", "fecha": "2026-09-29"}}