{"type": "FeatureCollection", "features": [{"type": "Feature", "id": 6015, "geometry": {"type": "Polygon", "coordinates": [[[-75.19096950399995, 4.551132693850587], [-75.18117639099995, 4.5620936968502575], [-75.18818287699992, 4.556890176850419], [-75.19707971899993, 4.550282743850637], [-75.21550042799993, 4.540872819850929], [-75.22758089099995, 4.534802876851126], [-75.22781645999993, 4.535200191851101], [-75.22804090999995, 4.5346028758511405], [-75.23625124199992, 4.52904290585134], [-75.24519167099993, 4.51507285485179], [-75.2538221179999, 4.497242759852356], [-75.2659226859999, 4.479502704852942], [-75.28417345199995, 4.46345272085346], [-75.30459434099993, 4.441802702854164], [-75.31378472599994, 4.433222704854423], [-75.33291557199993, 4.41160267285514], [-75.33983591399993, 4.398952614855533], [-75.35801247599994, 4.379731096856164], [-75.37612747399993, 4.361752596856779], [-75.35375659399995, 4.375902526856298], [-75.32150524299993, 4.404532499855382], [-75.29117398699992, 4.430412468854558], [-75.28073353299993, 4.441602485854186], [-75.25975259799992, 4.466522524853364], [-75.24989211499991, 4.483292597852793], [-75.2417217659999, 4.491252596852567], [-75.22326094699991, 4.5126526318518705], [-75.20613018299991, 4.533542665851179], [-75.19937574699992, 4.541379433850929], [-75.19096950399995, 4.551132693850587]]]}, "properties": {"OBJECTID": 6015, "SimboloUC": "T-Mmg", "Descripcion": "Gneises cuarzofeldespáticos algunos con sillimanita, cordierita y hornblenda; anfibolitas; migmatitas; esquistos, y mármoles.", "Edad": "Triásico", "Comentarios": null, "CodigoUC": 33, "SHAPE_Length": 0.5662103364888549, "SHAPE_Area": 0.0033558843869505445}}, {"type": "Feature", "id": 8005, "geometry": {"type": "Polygon", "coordinates": [[[-75.19319073199995, 4.424431530854703], [-75.19877090499995, 4.426481593854648], [-75.21047131799992, 4.424011675854752], [-75.22106166499992, 4.424791781854709], [-75.2346421439999, 4.422641888854817], [-75.2574929939999, 4.414842023855031], [-75.26394597799992, 4.413900638855081], [-75.26444143599991, 4.4148915568550615], [-75.26476323899993, 4.414662082855034], [-75.29414435599995, 4.400632221855508], [-75.31960031999995, 4.388967341855878], [-75.33189579499992, 4.382432389856108], [-75.34397649199991, 4.349622196857189], [-75.3600973259999, 4.318082041858202], [-75.3774682369999, 4.281291853859401], [-75.3897088789999, 4.255771731860244], [-75.39296909799992, 4.243011638860662], [-75.39907946599993, 4.224501520861274], [-75.39134145399993, 4.203281148861949], [-75.38953109499994, 4.189230836862414], [-75.38980601899993, 4.175476013862863], [-75.38292961899992, 4.159191502863354], [-75.3793904929999, 4.144634758863826], [-75.37943556099992, 4.136500755864141], [-75.3810887489999, 4.127647358864433], [-75.3855963769999, 4.116157995864798], [-75.39400561799994, 4.086937023865736], [-75.39996756199992, 4.0655232038664115], [-75.42185469099991, 4.051354091866889], [-75.43834225699993, 4.039132362867311], [-75.44351270899995, 4.025070092867755], [-75.44672291899991, 4.01352002186815], [-75.4519731769999, 4.00388998386845], [-75.45449549099993, 3.9980652158686105], [-75.4560133949999, 3.994559927868746], [-75.45495346399991, 3.9829098118691277], [-75.4521700059999, 3.9627013758697704], [-75.45242377199992, 3.9370393818706417], [-75.46655448699994, 3.9094792568715087], [-75.47814502699993, 3.8920692058721187], [-75.48906559399995, 3.8686590918728907], [-75.49253601999993, 3.8324488028740773], [-75.4915761609999, 3.8112786108747625], [-75.4875261329999, 3.7981484568751847], [-75.49060630399993, 3.7904984128754324], [-75.5015768259999, 3.7722983478759975], [-75.50435698599995, 3.764518308876244], [-75.51427738699994, 3.7565183168765564], [-75.52850798599991, 3.7430783258769518], [-75.5339553149999, 3.7331368448772775], [-75.53062406999993, 3.7317091688773383], [-75.52997527799994, 3.7323579608773056], [-75.5277687169999, 3.7345645218772674], [-75.52396157899994, 3.7374198748771454], [-75.5168231959999, 3.738371659877102], [-75.50920892099992, 3.738847551877085], [-75.50468794499994, 3.7404431898770545], [-75.5011187529999, 3.7417029048770183], [-75.49350447799992, 3.7459859348768836], [-75.48779377199992, 3.7469377188768545], [-75.4839866339999, 3.7397993358770987], [-75.47935635999994, 3.7383878618771416], [-75.47301607799994, 3.7464778828768592], [-75.46346563899993, 3.7613479298763615], [-75.4570453259999, 3.7723679758760005], [-75.4495349789999, 3.7834179998756285], [-75.42613408999995, 3.7946578998752787], [-75.41910380299993, 3.8006578918750833], [-75.40501317099995, 3.819357941874482], [-75.38926446599993, 3.8372309408739116], [-75.3927725559999, 3.8431780378737104], [-75.3976326209999, 3.854758183873301], [-75.39156234599994, 3.8631282098730493], [-75.37948182899993, 3.8754182138726754], [-75.37596162699992, 3.8859182708723314], [-75.37187131899992, 3.905408406871639], [-75.35801051199991, 3.944938635870383], [-75.35471020999995, 3.9669788018696726], [-75.34835984799992, 3.983958900869085], [-75.33933945099994, 3.995018922868762], [-75.3186885479999, 4.0187889468679705], [-75.31529847699994, 4.0142688848681365], [-75.31530860099991, 3.999558747868605], [-75.32363908299993, 3.9760286178693347], [-75.33240959599993, 3.95169847687018], [-75.33259069899992, 3.9459983068703606], [-75.32884946399992, 3.952488454870152], [-75.3164788549999, 3.9747485458693896], [-75.30538836199992, 3.988718569868937], [-75.29924802699992, 4.0035086488684755], [-75.29439771699992, 4.020598755867919], [-75.28830740899991, 4.032818807867498], [-75.2770669059999, 4.047018836867032], [-75.26949518099991, 4.054582186866776], [-75.27421666899994, 4.062378949866513], [-75.27758676999991, 4.064578995866475], [-75.28398698799992, 4.064189055866506], [-75.2889772019999, 4.058639047866689], [-75.30210761599994, 4.061909193866552], [-75.31375794699994, 4.06897935786635], [-75.31785801099994, 4.07781947186601], [-75.31571785599994, 4.086959532865755], [-75.30844757499995, 4.091659518865589], [-75.29764719299993, 4.093359436865519], [-75.29021691299994, 4.097219398865375], [-75.28382664799994, 4.1019993878652565], [-75.28316012499994, 4.102194355865218], [-75.28316012499994, 4.104808653865147], [-75.28268423299994, 4.110995252864939], [-75.27840120299993, 4.1167059588647605], [-75.27840120299993, 4.11956131286468], [-75.28458780199992, 4.117181851864733], [-75.28887083199993, 4.111947036864907], [-75.29313689499992, 4.1100195468650105], [-75.29427674099992, 4.131439748864256], [-75.29391661499994, 4.144639863863842], [-75.28250616999992, 4.151449820863649], [-75.27722597999991, 4.152809789863564], [-75.27403581099992, 4.159749822863377], [-75.27770585999991, 4.168639936863083], [-75.27510570499993, 4.176559987862813], [-75.27693570799994, 4.182800053862585], [-75.27954567299992, 4.196900208862177], [-75.27409535999993, 4.211220296861683], [-75.26755504999994, 4.222080335861347], [-75.26027468099994, 4.235430387860877], [-75.25620447699993, 4.243290422860645], [-75.23877447699994, 4.255871277860246], [-75.22967340899993, 4.262440365860023], [-75.21661281199994, 4.279980402859452], [-75.21169968099991, 4.286284389859214], [-75.20893253999992, 4.282060353859371], [-75.2033454079999, 4.286532360859229], [-75.20290123199993, 4.286369507859231], [-75.19911218399994, 4.284980291859266], [-75.19078192699993, 4.282010191859391], [-75.18437173799992, 4.279110106859462], [-75.18319212699993, 4.2802707058594365], [-75.18126160899993, 4.282170109859344], [-75.17890141999993, 4.294440197858975], [-75.17564126299993, 4.299300218858831], [-75.16630091299993, 4.302810160858713], [-75.15778057199992, 4.3089501458585096], [-75.15443561099994, 4.310479641858451], [-75.1635607099999, 4.315860256858258], [-75.1638337199999, 4.31636542485826], [-75.16410072299993, 4.316240270858274], [-75.17783123899994, 4.310160337858449], [-75.19255871899992, 4.295166154858941], [-75.19766398999991, 4.291079835859058], [-75.2000421379999, 4.293300379859003], [-75.2036419129999, 4.296623226858881], [-75.20589229099994, 4.298700484858806], [-75.2093023669999, 4.30293055285869], [-75.20776036599995, 4.311216435858405], [-75.19959183999993, 4.325190670857988], [-75.19737169799993, 4.332670717857745], [-75.19549152399992, 4.344730806857339], [-75.1907812529999, 4.357690891856882], [-75.18901105999993, 4.371691000856426], [-75.1868508089999, 4.392131167855768], [-75.18424060199993, 4.405341270855338], [-75.18570055299995, 4.416341383855005], [-75.19319073199995, 4.424431530854703]]]}, "properties": {"OBJECTID": 8005, "SimboloUC": "P-Pi", "Descripcion": "Granodioritas que varían de sienogranitos a tonalitas y de cuarzomonzonitas a cuarzomonzodioritas", "Edad": "Pérmico", "Comentarios": null, "CodigoUC": 29, "SHAPE_Length": 2.119075580636344, "SHAPE_Area": 0.07726124364255699}}, {"type": "Feature", "id": 8313, "geometry": {"type": "Polygon", "coordinates": [[[-75.51713394599994, 4.444035463854105], [-75.51661270099993, 4.446381069854031], [-75.51661270099993, 4.450759277853883], [-75.51566091599994, 4.455518199853738], [-75.51470913199995, 4.460848191853553], [-75.51451877499994, 4.465036043853382], [-75.5171837709999, 4.468272110853327], [-75.52175233699995, 4.474744244853088], [-75.5240366189999, 4.480835664852915], [-75.52613054499994, 4.48216816285282], [-75.52841482699995, 4.481216378852855], [-75.52936661199993, 4.476457456853003], [-75.52755822099994, 4.472888264853134], [-75.52541670599993, 4.469081126853248], [-75.52232340699993, 4.4652739898534035], [-75.5225613529999, 4.462180690853504], [-75.52541670599993, 4.461466851853513], [-75.52851000599992, 4.4607530138535685], [-75.5304135749999, 4.453614630853758], [-75.52969973599994, 4.447903924853944], [-75.52589259899992, 4.444334732854072], [-75.52065778399992, 4.443620894854073], [-75.51713394599994, 4.444035463854105]]]}, "properties": {"OBJECTID": 8313, "SimboloUC": "n4n6-Hi", "Descripcion": "Pórfidos dioríticos, granodioríticos y tonalíticos.", "Edad": "Serravaliano-Mesiniano", "Comentarios": null, "CodigoUC": 161, "SHAPE_Length": 0.09935827768727831, "SHAPE_Area": 0.0003710678742889106}}, {"type": "Feature", "id": 8329, "geometry": {"type": "Polygon", "coordinates": [[[-75.42177105799993, 4.675082824846565], [-75.42037871399992, 4.67829592584649], [-75.42605408799994, 4.674606932846581], [-75.43842728499993, 4.667468549846829], [-75.44794512899995, 4.667468549846829], [-75.45651118899991, 4.671751579846701], [-75.46602903299993, 4.673655148846618], [-75.47269152399991, 4.670799795846681], [-75.47678073599991, 4.664014090846934], [-75.48391911899995, 4.657351599847164], [-75.4943887469999, 4.6583033838471275], [-75.49771999299992, 4.665441766846878], [-75.50290898299994, 4.671256724846715], [-75.51192929899992, 4.670166789846713], [-75.52484584799993, 4.6721042578466525], [-75.5272253089999, 4.663538197846963], [-75.52436995599993, 4.655448030847192], [-75.52103870999991, 4.648309647847438], [-75.52341817099995, 4.643074833847608], [-75.5281801459999, 4.637936621847755], [-75.53095429099994, 4.638006420847766], [-75.53112040399992, 4.620516482848353], [-75.52346024499991, 4.60971630684867], [-75.52226031099991, 4.598026179849098], [-75.52486062799994, 4.572905960849884], [-75.5250806979999, 4.565695893850108], [-75.52737090799991, 4.5508157688505975], [-75.53849167299995, 4.508335453852006], [-75.54995221799993, 4.491465397852543], [-75.55348237299995, 4.487125385852686], [-75.56006270299991, 4.475155325853062], [-75.5683631899999, 4.4530551888537815], [-75.57702369399993, 4.428765035854597], [-75.58894429399993, 4.407764943855276], [-75.6018448829999, 4.39028488685584], [-75.61704558999992, 4.368954821856565], [-75.6298762269999, 4.3461247138572565], [-75.6366166009999, 4.329934619857817], [-75.64764726599992, 4.297284407858859], [-75.65776784799993, 4.269814240859763], [-75.66759835399995, 4.250804146860376], [-75.68098899199993, 4.230204070861055], [-75.69804971499991, 4.213444058861581], [-75.71458543099993, 4.196349046862171], [-75.73062113599991, 4.177354008862778], [-75.74211167099992, 4.161598955863322], [-75.75457227899994, 4.139903864864006], [-75.76549285099992, 4.117573745864735], [-75.78053358999995, 4.090473625865619], [-75.79677438499994, 4.062318502866556], [-75.81537027999991, 4.030899190867557], [-75.82518334399992, 4.014612036868098], [-75.79282944699992, 4.03957325886728], [-75.77360368099994, 4.052633208866867], [-75.75732302799992, 4.064083179866485], [-75.74147238899991, 4.075503147866104], [-75.72316648499992, 4.0903220988656095], [-75.70802103299991, 4.100533085865266], [-75.6967905649999, 4.110343083864986], [-75.67319780399993, 4.127917582864388], [-75.64312835399994, 4.155383031863522], [-75.6268677509999, 4.161032940863338], [-75.61418717099991, 4.168844311863082], [-75.59983664499993, 4.182642911862612], [-75.59573641999992, 4.192052961862289], [-75.5937238059999, 4.197159897862124], [-75.58563363899992, 4.2066777418618315], [-75.58360252799991, 4.2074901868618095], [-75.57611579499991, 4.210484879861718], [-75.56612205899995, 4.217147370861488], [-75.56136313699994, 4.225713429861185], [-75.55803189099993, 4.237610734860844], [-75.54994172399995, 4.247604471860521], [-75.54232744899991, 4.2561705308602145], [-75.53566495799993, 4.258074099860128], [-75.52947835899994, 4.2561705308602145], [-75.52567122199991, 4.261405345860036], [-75.52519532899993, 4.2680678358598225], [-75.52281586799995, 4.279013356859455], [-75.5223399759999, 4.292338338859052], [-75.52281586799995, 4.303283858858706], [-75.52043640699992, 4.307566888858519], [-75.5161533779999, 4.308042780858503], [-75.51139445599995, 4.310422241858453], [-75.5056837489999, 4.310422241858453], [-75.50140071899995, 4.302807966858719], [-75.49759358199992, 4.295193691858929], [-75.49612537899992, 4.293888621858974], [-75.47317117199992, 4.315953034858268], [-75.43762975899995, 4.3396829398574726], [-75.42784691899993, 4.342890518857415], [-75.39825963499993, 4.353156243857031], [-75.37612747399993, 4.361752596856779], [-75.35801247599994, 4.379731096856164], [-75.33983591399993, 4.398952614855533], [-75.33291557199993, 4.41160267285514], [-75.31378472599994, 4.433222704854423], [-75.30459434099993, 4.441802702854164], [-75.28417345199995, 4.46345272085346], [-75.2659226859999, 4.479502704852942], [-75.2538221179999, 4.497242759852356], [-75.24519167099993, 4.51507285485179], [-75.23625124199992, 4.52904290585134], [-75.22804090999995, 4.5346028758511405], [-75.22781645999993, 4.535200191851101], [-75.23326099299993, 4.544383022850833], [-75.21937044299995, 4.553722976850514], [-75.2054998349999, 4.56891299485002], [-75.18704907699993, 4.584152975849504], [-75.17519859099991, 4.592882947849245], [-75.17431893899993, 4.594082235849213], [-75.17611550399994, 4.59934458184904], [-75.18610923999995, 4.609814209848705], [-75.19562708399991, 4.6164767008484775], [-75.20472922399995, 4.633053603847923], [-75.20718924199991, 4.639463685847719], [-75.21967965199991, 4.641923820847673], [-75.22863995999995, 4.640763897847666], [-75.24086029999995, 4.648784083847415], [-75.24921057199992, 4.6501041758473844], [-75.2622210159999, 4.649324285847417], [-75.27355138599995, 4.651434410847354], [-75.27505453799995, 4.654159753847275], [-75.2761480449999, 4.653667675847252], [-75.2818587509999, 4.647956969847433], [-75.28471410399993, 4.638915017847775], [-75.28899713399994, 4.63653555684782], [-75.2985149779999, 4.635583772847854], [-75.30076098299992, 4.634892694847886], [-75.30470157699995, 4.633680203847931], [-75.30803282199992, 4.628921281848082], [-75.3094604989999, 4.616548084848499], [-75.31326763599992, 4.594657042849159], [-75.31755066599993, 4.57990438484968], [-75.3256408339999, 4.573717786849877], [-75.3313515399999, 4.574669570849843], [-75.33373100099993, 4.585615091849486], [-75.33896581499994, 4.597512396849084], [-75.34420062899994, 4.604650779848837], [-75.3532425809999, 4.607982024848751], [-75.3641881019999, 4.607982024848751], [-75.36751934699993, 4.599415964849015], [-75.37180237699994, 4.597512396849084], [-75.37608540699995, 4.600367749849023], [-75.38132022099995, 4.607030240848794], [-75.39274163399995, 4.613216838848594], [-75.39609108299993, 4.619078374848397], [-75.39845233999995, 4.623210574848279], [-75.40463893899994, 4.6351078798478795], [-75.40654250799992, 4.649860538847404], [-75.40701839999991, 4.655571244847227], [-75.41415678299995, 4.652715891847291], [-75.42177105799993, 4.650336430847392], [-75.42652997999994, 4.6541435688472275], [-75.42510230399995, 4.6598542748470475], [-75.42177105799993, 4.675082824846565]], [[-75.4987191539999, 4.482739233852823], [-75.49547041999995, 4.48483484385279], [-75.49091452199991, 4.485023515852755], [-75.48858021599995, 4.481324738852864], [-75.48682019199993, 4.477804690852996], [-75.48387131699991, 4.470556392853202], [-75.48082560699993, 4.467701039853314], [-75.48025453699995, 4.463513188853469], [-75.48310988999992, 4.4616096198534985], [-75.48901095299993, 4.463703545853474], [-75.49510237299995, 4.463132474853467], [-75.49929022499992, 4.46332283185347], [-75.50157450699993, 4.471317820853202], [-75.50009348799995, 4.4772418958530045], [-75.4987191539999, 4.482739233852823]], [[-75.51470913199995, 4.460848191853553], [-75.51566091599994, 4.455518199853738], [-75.51661270099993, 4.450759277853883], [-75.51661270099993, 4.446381069854031], [-75.51713394599994, 4.444035463854105], [-75.52065778399992, 4.443620894854073], [-75.52589259899992, 4.444334732854072], [-75.52969973599994, 4.447903924853944], [-75.5304135749999, 4.453614630853758], [-75.52851000599992, 4.4607530138535685], [-75.52541670599993, 4.461466851853513], [-75.5225613529999, 4.462180690853504], [-75.52232340699993, 4.4652739898534035], [-75.52541670599993, 4.469081126853248], [-75.52755822099994, 4.472888264853134], [-75.52936661199993, 4.476457456853003], [-75.52841482699995, 4.481216378852855], [-75.52613054499994, 4.48216816285282], [-75.5240366189999, 4.480835664852915], [-75.52175233699995, 4.474744244853088], [-75.5171837709999, 4.468272110853327], [-75.51451877499994, 4.465036043853382], [-75.51470913199995, 4.460848191853553]]]}, "properties": {"OBJECTID": 8329, "SimboloUC": "J3K1?-Mbg", "Descripcion": "Esquistos grafíticos, cuarzomoscovíticos, cloríticos y anfibólicos; filitas; cuarcitas; mármoles, y serpentinitas.", "Edad": "Jurásico Superior-Cretácico Inferior?", "Comentarios": "<Null>", "CodigoUC": 57, "SHAPE_Length": 2.412958821039212, "SHAPE_Area": 0.11753064833883013}}, {"type": "Feature", "id": 8472, "geometry": {"type": "Polygon", "coordinates": [[[-74.92718759399992, 4.876833338840027], [-74.9262974529999, 4.88887344983961], [-74.92559725199993, 4.907423623838989], [-74.92418706799992, 4.921383739838562], [-74.92114686399992, 4.9326738208381675], [-74.92372676199994, 4.952344041837533], [-74.9254035809999, 4.958251978837363], [-74.92577678999993, 4.956924101837415], [-74.92750689099995, 4.952004073837556], [-74.93535716899993, 4.9507341348376], [-74.94246741599994, 4.950174196837636], [-74.94385647699994, 4.94184049183787], [-74.94393754499993, 4.9413541248379325], [-74.94513770299994, 4.928844014838286], [-74.95160810599992, 4.90984389183895], [-74.95160753699992, 4.909827482838944], [-74.95108822399993, 4.8948537408394275], [-74.95775853799995, 4.8856037168396895], [-74.96042869999991, 4.878653675839937], [-74.96858904999993, 4.869913669840241], [-74.96978912999992, 4.869155231840277], [-74.96996023499992, 4.869047094840238], [-74.9817695719999, 4.86158370984048], [-74.99217000599992, 4.853023725840775], [-74.99602022099992, 4.8443936828410665], [-74.99595341499992, 4.83887273884124], [-74.9959003049999, 4.8344835858414035], [-74.99978047899992, 4.82957357384153], [-74.9989405359999, 4.820773479841832], [-75.00608081299993, 4.816713507841972], [-75.01135914499991, 4.815494754842029], [-75.01145100499991, 4.815473544842027], [-75.0355120019999, 4.796323587842625], [-75.05397953199991, 4.78262100884309], [-75.04986245099991, 4.776060032843295], [-75.04807260599995, 4.777043518843258], [-75.03981229099992, 4.780903480843114], [-75.03660225999994, 4.772493371843372], [-75.03679237099993, 4.761043265843767], [-75.03065222399994, 4.754453143844006], [-75.0273722149999, 4.744063013844323], [-75.02761874999993, 4.743864029844319], [-75.0273722149999, 4.743713011844332], [-75.02860232299992, 4.736732949844582], [-75.03333258099991, 4.726402898844878], [-75.03681281699994, 4.713552812845346], [-75.0445032579999, 4.693202684845987], [-75.04892353499991, 4.680112604846426], [-75.06166416999991, 4.657732507847102], [-75.0671545379999, 4.63794237084778], [-75.07671491199994, 4.63233240984795], [-75.08942548099992, 4.617282385848442], [-75.10225613599994, 4.5925822728492465], [-75.09392591499994, 4.586042132849496], [-75.0814055379999, 4.581141966849624], [-75.07631533299991, 4.5851219618495005], [-75.06903501699992, 4.592951965849219], [-75.05818457299995, 4.60103194284898], [-75.0515143209999, 4.604451909848879], [-75.0521943729999, 4.600611881848992], [-75.0500844099999, 4.589681756849332], [-75.05774472999991, 4.582111761849597], [-75.0781355979999, 4.562981768850242], [-75.1019564579999, 4.55658192885042], [-75.10709668099992, 4.550741917850635], [-75.10461664799993, 4.545221842850818], [-75.10171655399995, 4.545301819850805], [-75.0889661089999, 4.546381710850725], [-75.07795573699991, 4.546981614850724], [-75.06509529399995, 4.548241510850705], [-75.05959515199993, 4.542991415850863], [-75.05788520899995, 4.530841278851266], [-75.0626854379999, 4.5234412538515265], [-75.06833566099994, 4.52009127485163], [-75.07543586399993, 4.523321373851534], [-75.0881362639999, 4.526491519851433], [-75.10366683199993, 4.521351610851561], [-75.11460725199993, 4.51598166185174], [-75.13317794499994, 4.509031773851953], [-75.13700793899994, 4.523821941851467], [-75.1340274069999, 4.533349581851199], [-75.13283767599995, 4.53751363785104], [-75.13482769199993, 4.542572099850901], [-75.13826775399991, 4.5482721798507155], [-75.13378754999991, 4.554132195850511], [-75.1269572459999, 4.561882203850276], [-75.11707676599991, 4.5779522648497455], [-75.11465661499994, 4.585562315849472], [-75.11312646899995, 4.596352402849139], [-75.11144978699991, 4.599279447849028], [-75.11957667899992, 4.597392472849096], [-75.12310684199991, 4.592002454849266], [-75.12892716199991, 4.579242389849663], [-75.13525740999995, 4.5746624008498395], [-75.13765750199991, 4.5741924208498554], [-75.14322006499992, 4.580704306849647], [-75.1481148339999, 4.586434431849475], [-75.14931776899994, 4.587842662849407], [-75.15279780599991, 4.596082773849157], [-75.16211815999992, 4.592132818849289], [-75.17049858799993, 4.576612750849794], [-75.18028903899994, 4.562752707850223], [-75.18117639099995, 4.5620936968502575], [-75.19096950399995, 4.551132693850587], [-75.19937574699992, 4.541379433850929], [-75.20613018299991, 4.533542665851179], [-75.22326094699991, 4.5126526318518705], [-75.2417217659999, 4.491252596852567], [-75.24989211499991, 4.483292597852793], [-75.25975259799992, 4.466522524853364], [-75.28073353299993, 4.441602485854186], [-75.29117398699992, 4.430412468854558], [-75.32150524299993, 4.404532499855382], [-75.35375659399995, 4.375902526856298], [-75.37612747399993, 4.361752596856779], [-75.39825963499993, 4.353156243857031], [-75.42784691899993, 4.342890518857415], [-75.43762975899995, 4.3396829398574726], [-75.47317117199992, 4.315953034858268], [-75.49612537899992, 4.293888621858974], [-75.49331055199991, 4.291386553859041], [-75.48379270799995, 4.288055308859176], [-75.48141324699992, 4.2856758478592285], [-75.48188913899992, 4.279965140859424], [-75.48617216899993, 4.277109787859539], [-75.48617216899993, 4.270447296859771], [-75.47950967799994, 4.261405345860036], [-75.47046772599992, 4.251887501860331], [-75.46808826499995, 4.245225010860563], [-75.47617843299992, 4.241893764860659], [-75.48997930699994, 4.2442732258606135], [-75.49806947399992, 4.248080363860503], [-75.50663553399994, 4.251411608860364], [-75.51234623999994, 4.249032147860462], [-75.51758105399995, 4.242369657860685], [-75.5275747899999, 4.237610734860844], [-75.53138192799992, 4.2295205678610746], [-75.5380444189999, 4.224761645861225], [-75.54518280199994, 4.226189322861214], [-75.55279707699992, 4.228092890861136], [-75.55708010699993, 4.224285753861242], [-75.55708010699993, 4.217147370861488], [-75.5542247539999, 4.212388448861634], [-75.54327923299991, 4.205725957861868], [-75.53138192799992, 4.198111682862132], [-75.52995425099994, 4.189545622862395], [-75.53376138899995, 4.180979563862642], [-75.5389962029999, 4.174317072862869], [-75.55279707699992, 4.17241350386296], [-75.55898367599991, 4.175744748862822], [-75.56517027399991, 4.181455455862627], [-75.5718327649999, 4.188593838862429], [-75.57480564699995, 4.199592845862089], [-75.58268584799993, 4.206772980861844], [-75.58360252799991, 4.2074901868618095], [-75.58563363899992, 4.2066777418618315], [-75.5937238059999, 4.197159897862124], [-75.59573641999992, 4.192052961862289], [-75.59983664499993, 4.182642911862612], [-75.61418717099991, 4.168844311863082], [-75.6268677509999, 4.161032940863338], [-75.64312835399994, 4.155383031863522], [-75.67319780399993, 4.127917582864388], [-75.6967905649999, 4.110343083864986], [-75.70802103299991, 4.100533085865266], [-75.72316648499992, 4.0903220988656095], [-75.74147238899991, 4.075503147866104], [-75.75732302799992, 4.064083179866485], [-75.77360368099994, 4.052633208866867], [-75.77636384399995, 4.045033164867104], [-75.78078406799995, 4.036423117867394], [-75.78993452299994, 4.019473040867953], [-75.7952948059999, 4.007552980868321], [-75.80344519399995, 3.994482924868743], [-75.81140557899994, 3.981102868869161], [-75.8178858899999, 3.9706328338695402], [-75.81888600299993, 3.9610427518698605], [-75.81605603999992, 3.945422585870351], [-75.81531616099994, 3.92818242387091], [-75.81340618999991, 3.9172723038712642], [-75.80556608899991, 3.897832060871933], [-75.8001860249999, 3.883381877872399], [-75.7996260779999, 3.8749918018726626], [-75.80239624899991, 3.8663917438729314], [-75.8069865409999, 3.8494216258735223], [-75.80798667999994, 3.8375415318738626], [-75.80201657599991, 3.8257213728742787], [-75.8125370429999, 3.8123913358747146], [-75.81817731299992, 3.8032613078750006], [-75.82391753799993, 3.8001013228751286], [-75.83254786899994, 3.7949113508752665], [-75.8334779939999, 3.7843012598756207], [-75.8334380629999, 3.7755611818758905], [-75.82940804099991, 3.7622610308763718], [-75.8306381399999, 3.755260980876559], [-75.83258827499992, 3.747000917876857], [-75.83906854199995, 3.7407409178770603], [-75.8464288699999, 3.7321109018773115], [-75.84594897199992, 3.7170307668778], [-75.84433899399994, 3.708610677878102], [-75.84911922599991, 3.7003406348783914], [-75.85065935999995, 3.6894705528787495], [-75.84752932399994, 3.681410454878969], [-75.8411292049999, 3.6693603008793536], [-75.85535974099992, 3.6629403558796194], [-75.86140990399991, 3.668380454879435], [-75.86699010299992, 3.667730496879465], [-75.8699102569999, 3.66081045987964], [-75.87661059299995, 3.647400399880071], [-75.87527062099991, 3.638770311880397], [-75.8741480619999, 3.6368274338804363], [-75.86981050799994, 3.629320178880675], [-75.86950475499992, 3.6289984328806892], [-75.8631203409999, 3.6222800638809116], [-75.85586012099992, 3.6193299788809963], [-75.8487798509999, 3.622969951880891], [-75.84459967599992, 3.626649945880755], [-75.8420095809999, 3.627489932880731], [-75.84100964899994, 3.614489810881164], [-75.84061971699992, 3.604599718881513], [-75.84903017599993, 3.5843196048821735], [-75.85514047999993, 3.5726495548825365], [-75.86247088599993, 3.5533294518831835], [-75.86273960099993, 3.552513754883202], [-75.8586908019999, 3.547249366883373], [-75.84932053799992, 3.5402592258835885], [-75.84304037999993, 3.5342691248838296], [-75.8445004749999, 3.527999080884016], [-75.84655059199991, 3.5228690538841745], [-75.85617835499994, 3.520203241884293], [-75.86284084599993, 3.5163961048843912], [-75.8652203069999, 3.5121130748845166], [-75.86712387599994, 3.504498799884785], [-75.87245164799992, 3.500012254884915], [-75.87467169599995, 3.504159113884786], [-75.8929723729999, 3.4981092128849935], [-75.93437387299991, 3.486619454885333], [-75.95318458699995, 3.4780195318856486], [-75.96873021499994, 3.4654095478860723], [-75.98365582699995, 3.4529995558864663], [-75.99776644699995, 3.4355895228870588], [-76.00188674099991, 3.4165993898876295], [-76.00325693199994, 3.398649244888233], [-76.00098694299993, 3.3869091258886534], [-75.99879693999992, 3.3776490228889213], [-76.00555724799995, 3.368379001889209], [-76.00916750499994, 3.3511288778897854], [-76.01247772499994, 3.3382287918902107], [-76.01368934299995, 3.3316117628904385], [-76.01609829499995, 3.3184557088908897], [-76.01361609399993, 3.300244992891487], [-76.01107820399994, 3.2718582138924064], [-76.01128865599992, 3.2333821388936617], [-76.01226891499994, 3.2077461548944863], [-76.0103288919999, 3.1803974288953634], [-76.00330871099993, 3.1733673128956434], [-76.0008686889999, 3.1659872298958374], [-75.9984387099999, 3.1524471038963346], [-75.99966885399994, 3.1395270028967346], [-75.9996889759999, 3.1235368658972416], [-76.00397919499994, 3.1143168268975345], [-75.9948089589999, 3.1044566668978995], [-75.98991884499992, 3.097686576898079], [-75.98441866799993, 3.0970665238981256], [-75.97584837099993, 3.097676461898071], [-75.9648380349999, 3.092126337898287], [-75.95382766299991, 3.0921162488982916], [-75.94464740199993, 3.08533611589851], [-75.93669714999993, 3.082866035898566], [-75.9250667519999, 3.084085957898545], [-75.9134363359999, 3.0859158798985], [-75.89995590299992, 3.083565751898584], [-75.88690553799995, 3.073185565898905], [-75.87935535899993, 3.063155426899253], [-75.87868548599994, 3.0441452608998367], [-75.8814456309999, 3.037245229900077], [-75.88831581199992, 3.0434653348998806], [-75.89655603099993, 3.0517754608996306], [-75.89654594299992, 3.0628355548992294], [-75.89859596999992, 3.0690556248990655], [-75.90822629599995, 3.0690656948990376], [-75.91441651499991, 3.0676857388990872], [-75.92267687399993, 3.057325710899447], [-75.9419375889999, 3.0497457988996555], [-75.95087791899994, 3.0463058438997943], [-75.9611982859999, 3.044235909899842], [-75.97703876499992, 3.0512660898996287], [-75.98661904599993, 3.0573962198994074], [-75.9913191839999, 3.0596662718993577], [-76.00166958199992, 3.0546563138994993], [-76.00682983699994, 3.04458626189983], [-76.01176007899994, 3.0338062179001812], [-76.01531026599991, 3.025956181900465], [-76.02027046599994, 3.0220061819005593], [-76.01686041699992, 3.0129260829008975], [-76.00890021099991, 3.004645951901176], [-75.99822987899995, 3.000665839901285], [-75.9970198929999, 2.9933157709015443], [-75.99736003999993, 2.9751756229020967], [-75.9951562299999, 2.969599907902317], [-75.9960509949999, 2.969976545902284], [-75.98841442399993, 2.952832639902841], [-75.97949144499995, 2.9340943839034543], [-75.97443509099992, 2.922494511903857], [-75.9759222539999, 2.912381802904188], [-75.97681455199995, 2.90673058290437], [-75.9741376579999, 2.9007819299045505], [-75.97616019999992, 2.897153251904684], [-75.97949144499995, 2.8909666539048833], [-75.98234679899991, 2.8866836239050166], [-75.98234679899991, 2.8809729169052143], [-75.9842503669999, 2.877165779905308], [-75.98948518199995, 2.8733586419054786], [-75.99369959899991, 2.868301341905615], [-75.9942441039999, 2.8676479359056697], [-75.9951958879999, 2.861937228905865], [-75.99329231899992, 2.851943492906173], [-75.99567177999995, 2.8429015409064577], [-76.00566551599991, 2.8305283439068774], [-76.02565298899992, 2.8167274699072995], [-76.04230921599992, 2.8029265959077816], [-76.05087527599994, 2.7900775069082226], [-76.05468241299991, 2.7796078789085503], [-76.05753776599994, 2.776276632908648], [-76.05800689199992, 2.776457065908669], [-76.06372436499993, 2.778656093908546], [-76.06512030899995, 2.778656093908546], [-76.06450382499992, 2.777714532908587], [-76.06115379199991, 2.7670744289089324], [-76.05619371699993, 2.7537242869093914], [-76.05148365299993, 2.741754145909782], [-76.04837363099995, 2.7297140349102005], [-76.05073377499991, 2.7221939869104403], [-76.05296640299991, 2.714875536910662], [-76.04853379199994, 2.709173867910835], [-76.03857351399995, 2.701033729911115], [-76.03847354099992, 2.6966336919112903], [-76.04103367699992, 2.6906936629114373], [-76.04568387799992, 2.68533365791162], [-76.04592391599994, 2.6804636219117772], [-76.0405837639999, 2.676643553911924], [-76.03345482299994, 2.671331400912118], [-76.02250930299994, 2.6670483709122434], [-76.01156378199994, 2.6632412329123554], [-75.99585933899994, 2.661337664912432], [-75.98681738699992, 2.66038587991248], [-75.98491381899993, 2.6537233889126552], [-75.98348614199995, 2.6423019769130227], [-75.98681738699992, 2.6365912699132172], [-75.9930039859999, 2.633735916913343], [-75.99633523099993, 2.6275493179135605], [-75.9930039859999, 2.625645748913588], [-75.98872095599995, 2.618031473913853], [-75.98253435799995, 2.615652012913898], [-75.97492008199993, 2.615652012913898], [-75.96778169899994, 2.62088682691373], [-75.96397456199992, 2.627549317913554], [-75.95731207099993, 2.6289769949134922], [-75.94874601099991, 2.632308239913354], [-75.9378004909999, 2.634687700913304], [-75.93018621499994, 2.631356455913389], [-75.93018621499994, 2.621362719913763], [-75.93399335299995, 2.619459150913788], [-75.94208352099992, 2.62088682691373], [-75.95302904099992, 2.61993504291377], [-75.95873974799991, 2.614700228913935], [-75.96254688499994, 2.604706492914253], [-75.95826385499993, 2.60185113891439], [-75.9549326099999, 2.6004234629144416], [-75.9554085019999, 2.5932850799146325], [-75.96111920899995, 2.584243127914969], [-75.96179095199994, 2.582675725914987], [-75.96012172699994, 2.58311222391497], [-75.94072100099993, 2.59234215291468], [-75.92501042799995, 2.598682084914477], [-75.89186924099994, 2.607311894914191], [-75.8781885379999, 2.639982049913132], [-75.86751788999993, 2.6783222629118377], [-75.8566671939999, 2.7220625179104476], [-75.8337911019999, 2.7646226749090164], [-75.81408519899992, 2.7963927809079894], [-75.80160462599991, 2.8153828339073477], [-75.78844410999994, 2.82509280390704], [-75.77822364499991, 2.840772852906555], [-75.7723733389999, 2.8556029239060163], [-75.75558260499992, 2.876652956905379], [-75.73978186799991, 2.9032730489044782], [-75.73125146599995, 2.918223098903967], [-75.72459112299993, 2.9332731679035158], [-75.72299096299992, 2.947463269903036], [-75.70870034799992, 2.964323291902482], [-75.69182964599992, 2.98183329790192], [-75.68401930599993, 2.99140331090158], [-75.6713687539999, 3.00725333890105], [-75.65520807999991, 3.0245633439004886], [-75.6552076609999, 3.0245626119005], [-75.65152797899992, 3.0212032949006233], [-75.6476685259999, 3.016988291900745], [-75.64262775899994, 3.0114831459009097], [-75.64957808699995, 2.999143105901351], [-75.6532169539999, 2.9955924489014585], [-75.66038855699992, 2.9858130769017555], [-75.66301576799992, 2.9832616159018355], [-75.66154506799995, 2.977746491902018], [-75.66749371999992, 2.9658491869024215], [-75.67225264199993, 2.952167285902886], [-75.67582183399992, 2.936700788903358], [-75.68117562099991, 2.933131597903482], [-75.6895037349999, 2.9242086189037946], [-75.69783184799991, 2.908147256904309], [-75.6996164439999, 2.8962499519047067], [-75.69969047199993, 2.895028495904747], [-75.70080617499991, 2.8766193989053384], [-75.70378050099993, 2.8700758809055484], [-75.70675482699994, 2.8552042499060337], [-75.7097291529999, 2.837358291906666], [-75.71091888399991, 2.8207020649072168], [-75.71151374899995, 2.797502320907966], [-75.71187698499995, 2.796412611907962], [-75.70907171999994, 2.7871319049083088], [-75.71180205099995, 2.756081681909304], [-75.72597274099991, 2.728201577910199], [-75.72672414099992, 2.7275432609102306], [-75.7329288979999, 2.7100571289108215], [-75.74413358599992, 2.6965514689112418], [-75.73736064399992, 2.6928655229114047], [-75.74485594599992, 2.666156072912282], [-75.75532557499992, 2.643789139913015], [-75.76531931099993, 2.6152356079139594], [-75.77152512299995, 2.6141210439139644], [-75.78025542699993, 2.612711101914001], [-75.77533517499995, 2.6253111599136187], [-75.76593124999994, 2.6429120669130124], [-75.75156405399991, 2.6672813029121976], [-75.74384363699994, 2.6892014089115146], [-75.74413358599992, 2.6965514689112418], [-75.75308385099993, 2.7018915759111173], [-75.76396411099995, 2.715281764910625], [-75.76285418899994, 2.7006216459111254], [-75.75316397199992, 2.685491455911644], [-75.75997436099993, 2.664541342912305], [-75.76538258599993, 2.6541979229126733], [-75.7661546619999, 2.6527213009126767], [-75.76627514499995, 2.6533907109126615], [-75.7766496989999, 2.644008181912976], [-75.7806900999999, 2.640095649913147], [-75.78862556999991, 2.632411317913345], [-75.79754593899992, 2.622811309913712], [-75.81140658499993, 2.5984412289144823], [-75.83302742599994, 2.5840312819149642], [-75.84849802299993, 2.5734313139153047], [-75.85542831799995, 2.566031306915545], [-75.86990889999993, 2.5530413179159654], [-75.88093528299993, 2.533036213916614], [-75.89783018299994, 2.507081180917467], [-75.9160709599999, 2.484591148918202], [-75.92336816199992, 2.4759913929185164], [-75.91971658699993, 2.473122298918604], [-75.91305409599994, 2.459321424919032], [-75.91146104899991, 2.450730851919326], [-75.91268113099994, 2.4450908239195526], [-75.9183413529999, 2.4414908349196556], [-75.92171153599992, 2.432210797919968], [-75.92627181499995, 2.4141006899205295], [-75.9291819529999, 2.408910672920742], [-75.93669227299995, 2.3995406609210197], [-75.94995284299995, 2.3828106259215978], [-75.95197296599991, 2.3756305889218226], [-75.95545312899992, 2.3688405649220465], [-75.94722289899994, 2.362900464922215], [-75.94679292099994, 2.3573804159224077], [-75.9492230429999, 2.3521304009225825], [-75.95659339699995, 2.337030340923068], [-75.96633375699992, 2.3328303759232116], [-75.97188395299992, 2.3314104089232512], [-75.97210786799991, 2.3316094189232626], [-75.97539597499991, 2.3274992849233658], [-75.97444418999993, 2.320836794923587], [-75.9711129449999, 2.3141743039238274], [-75.96445045399992, 2.31369841192384], [-75.96420537299991, 2.312105386923921], [-75.96094371299995, 2.3143702029238233], [-75.9587290639999, 2.3171952749237326], [-75.95325337999992, 2.324180218923513], [-75.94844316199993, 2.3316702369232654], [-75.94783310699995, 2.33705027492309], [-75.94183282799992, 2.3469102999227323], [-75.9323224449999, 2.3563803039224553], [-75.92167196499992, 2.372130339921924], [-75.91345157199993, 2.3889504129213903], [-75.9099414229999, 2.3933004149212214], [-75.90213111899993, 2.3986303979210666], [-75.89888094299994, 2.4076404369207385], [-75.89714536499991, 2.4172441779204634], [-75.89622074399995, 2.422360527920281], [-75.88986041999993, 2.436980590919789], [-75.88418016599991, 2.4465806259194833], [-75.88111999199992, 2.4554806669191884], [-75.88094991399993, 2.4658907489188167], [-75.87894974299991, 2.4796608349183824], [-75.8766995709999, 2.4930309189179733], [-75.87172114299995, 2.4994898409177417], [-75.87084931999993, 2.500620928917726], [-75.86814916399993, 2.508750969917417], [-75.85576872599995, 2.5123609129173143], [-75.84827843799991, 2.5162608859171747], [-75.83594801899994, 2.5266095139168674], [-75.83433787899992, 2.5279608669167857], [-75.82544752199993, 2.536590864916509], [-75.82689751099991, 2.5440009329162727], [-75.82353736199991, 2.5485009449161184], [-75.81193691399994, 2.556270913915843], [-75.79913641499991, 2.565470883915599], [-75.78637598199992, 2.566930798915545], [-75.78160579299993, 2.570830798915407], [-75.76821527999994, 2.578230751915166], [-75.75923492999993, 2.584580735914955], [-75.75044460099991, 2.589600701914751], [-75.7395841849999, 2.595830670914553], [-75.73217469199994, 2.602338025914332], [-75.72701368199995, 2.606870659914225], [-75.72144346199991, 2.610460642914096], [-75.71187008299995, 2.6172239789138785], [-75.70437280399995, 2.622520605913712], [-75.70071392599993, 2.625215013913589], [-75.69792254999993, 2.6272705919135277], [-75.67706174699993, 2.640430532913128], [-75.66223115399993, 2.6526305169127298], [-75.64520046199993, 2.668520501912216], [-75.62623970299995, 2.68507048791164], [-75.61430020199992, 2.6935997679113655], [-75.61429923399993, 2.6936004589113356], [-75.60956902899994, 2.6998904709111513], [-75.60088868899993, 2.706950456910919], [-75.59405841199992, 2.7129104459107394], [-75.58546806499993, 2.720200435910509], [-75.57431766399992, 2.7243903859103225], [-75.56649732599993, 2.7344604009100446], [-75.56201705099994, 2.7510004959094876], [-75.55819680299993, 2.766130577908972], [-75.55646666599995, 2.7766006489086172], [-75.55087634199992, 2.794900741908008], [-75.54369180799995, 2.816022703907367], [-75.54179575799992, 2.8303509399068805], [-75.54108562199991, 2.845481057906385], [-75.53941538399994, 2.86951122490557], [-75.53519516199992, 2.879711271905253], [-75.5278147649999, 2.8984113569046195], [-75.52743466999993, 2.909201443904293], [-75.5228844159999, 2.922181506903851], [-75.51693412799995, 2.933571542903506], [-75.51085387199993, 2.9404715569032716], [-75.50309353299991, 2.950271565902954], [-75.49467320999992, 2.9554615459027382], [-75.48605284199994, 2.9654015489024697], [-75.4791725199999, 2.9773315889020533], [-75.47378225999995, 2.987771628901706], [-75.46944199599994, 3.002421713901253], [-75.4664217159999, 3.025741870900494], [-75.46209141399993, 3.046131992899806], [-75.46008128099993, 3.054072039899513], [-75.46966148099995, 3.0694622378990455], [-75.4785616289999, 3.088412459898428], [-75.4803858969999, 3.0960240388981353], [-75.48800017199994, 3.0945963618981978], [-75.4918073099999, 3.088885654898399], [-75.4908555259999, 3.0793678108986953], [-75.48990374099992, 3.069374074899007], [-75.48642206799991, 3.065922345899176], [-75.48299196799991, 3.0642523058992013], [-75.4779918189999, 3.0619022408992502], [-75.4749417779999, 3.0538721558995436], [-75.48063205799991, 3.0427621158999005], [-75.48404225999991, 3.0312220529002967], [-75.48168229599992, 3.0166919199007727], [-75.48343248399993, 3.00047180390131], [-75.4864626989999, 2.9859217109017595], [-75.48811281399992, 2.9779116669020214], [-75.50210341899992, 2.9605416359026067], [-75.51707394199991, 2.958131734902666], [-75.5427648509999, 2.952931898902864], [-75.54769507499992, 2.944511872903128], [-75.55283528899992, 2.9401018819032845], [-75.55281538299994, 2.927091778903709], [-75.5573755719999, 2.922681778903851], [-75.56060568899994, 2.922291801903861], [-75.56879500999992, 2.925940856903727], [-75.56891585999995, 2.9363919749033727], [-75.56841658899992, 2.9371126409033588], [-75.56848583699991, 2.937101975903368], [-75.57523605599994, 2.937742034903321], [-75.57768603199992, 2.9518221659028803], [-75.57852602799994, 2.9563622059027277], [-75.58627622499995, 2.9635623199024854], [-75.59250640099992, 2.968892410902329], [-75.59041620999994, 2.983432514901848], [-75.58487594999991, 2.9938025499015004], [-75.58488592099991, 2.996722577901407], [-75.59187608899992, 3.0064127039010966], [-75.59634613299994, 3.0198128469006735], [-75.6021062559999, 3.0291229679003715], [-75.60977648599993, 3.0320330519002816], [-75.61982680999995, 3.034593150900186], [-75.62742699699993, 3.043413277899879], [-75.63381718099993, 3.047463358899743], [-75.63169704899991, 3.0551534048994893], [-75.63785720099992, 3.0624235158992765], [-75.64507743799993, 3.062733577899245], [-75.65117766299994, 3.0604236048993014], [-75.65297772499991, 3.0605836218993376], [-75.6571978039999, 3.0685537178990807], [-75.67554856099991, 3.050643718899626], [-75.6849988109999, 3.0588838568993806], [-75.67499835199993, 3.075103909898833], [-75.67062816499993, 3.0804439178986778], [-75.66619787199994, 3.09800402289807], [-75.6676278729999, 3.104384091897906], [-75.6611275379999, 3.118604153897429], [-75.66106688899993, 3.1186415948973933], [-75.6560173009999, 3.1273341788971223], [-75.65243707399992, 3.140794265896684], [-75.64592882199992, 3.1636678548959596], [-75.64396233399992, 3.1645500608958996], [-75.6438133119999, 3.1651858868958898], [-75.64691138299992, 3.168936183895778], [-75.64693673199992, 3.169426864895731], [-75.65181679599993, 3.1731445208956033], [-75.65445677399993, 3.187434659895165], [-75.65344827799993, 3.198976005894784], [-75.64916524799992, 3.2070661738945407], [-75.64155097299994, 3.2165840178941902], [-75.63882634599992, 3.217673868894171], [-75.63886596499992, 3.223424826894005], [-75.63982593999992, 3.2306048988937524], [-75.64606611399995, 3.2343649768935974], [-75.64769609799993, 3.2441350718933024], [-75.6466959139999, 3.2621052138927387], [-75.64168556999994, 3.283895350892003], [-75.63669510499994, 3.3213556198907894], [-75.63100475399995, 3.3411257418901465], [-75.62111379899994, 3.4175463038875984], [-75.61523343699992, 3.438376429886937], [-75.60739309299993, 3.4476964418866234], [-75.60718860399993, 3.4476710758866362], [-75.60621301299994, 3.453206473886456], [-75.60303281499995, 3.4637465418861284], [-75.5972225029999, 3.477616610885678], [-75.59199224199995, 3.488396654885324], [-75.59152214399995, 3.49774673288497], [-75.59159901099991, 3.5010354848848637], [-75.59209197199993, 3.5221269468841916], [-75.59235180099995, 3.5441671398834815], [-75.59224167699995, 3.557997259883053], [-75.59482231599992, 3.565511367882759], [-75.59495171399993, 3.5654473388827777], [-75.60911228899994, 3.552767349883201], [-75.61470254099993, 3.5454673338834475], [-75.61772253299995, 3.5589974718829676], [-75.61420234099995, 3.568217527882675], [-75.61404426399992, 3.569509167882664], [-75.61611240199994, 3.567897538882689], [-75.62805291699993, 3.5546675198831372], [-75.63678336399994, 3.536497440883715], [-75.64879375899994, 3.537327546883709], [-75.65743406099995, 3.536187611883719], [-75.65005369099993, 3.551527674883215], [-75.6425233299999, 3.564427724882838], [-75.63499300399991, 3.5733077418825148], [-75.62347255999993, 3.579467695882313], [-75.61242398299993, 3.5827483798822044], [-75.61123203499994, 3.5924877068819208], [-75.60925189599993, 3.6020077738815943], [-75.59934150299995, 3.6087477528813436], [-75.60144151199995, 3.616187833881126], [-75.60234142599995, 3.6299379588806766], [-75.60261134299992, 3.641698064880288], [-75.59922092199992, 3.6776583448790974], [-75.59470054499991, 3.7047385438782205], [-75.59222132299993, 3.7211994708777096], [-75.6011005119999, 3.73464885887724], [-75.5932800569999, 3.757478993876492], [-75.58511959099991, 3.7805591298757615], [-75.57219885199993, 3.8154993268745914], [-75.56528848099993, 3.83156941487406], [-75.55601806499993, 3.8438994478736666], [-75.54856028099994, 3.8560743298732825], [-75.55159454199992, 3.871724719872788], [-75.5512376229999, 3.885287646872298], [-75.54873918899995, 3.900635170871843], [-75.53981620999991, 3.923477995871095], [-75.53232090799992, 3.9366840048706484], [-75.53278639199993, 3.947960172870279], [-75.53190052699995, 3.9538790048701085], [-75.52504595099992, 3.9693903018695895], [-75.52365577199993, 3.9850804288690482], [-75.51996552899993, 3.9988605228686196], [-75.51756538299992, 4.006080569868364], [-75.51531096899993, 4.01095190086821], [-75.50269482499994, 4.012170491868164], [-75.4810270289999, 4.01706898286801], [-75.47903384699993, 4.017782198867995], [-75.46141524899991, 4.024086619867773], [-75.43834225699993, 4.039132362867311], [-75.42185469099991, 4.051354091866889], [-75.39996756199992, 4.0655232038664115], [-75.39400561799994, 4.086937023865736], [-75.3855963769999, 4.116157995864798], [-75.3810887489999, 4.127647358864433], [-75.37943556099992, 4.136500755864141], [-75.3793904929999, 4.144634758863826], [-75.38292961899992, 4.159191502863354], [-75.38980601899993, 4.175476013862863], [-75.38953109499994, 4.189230836862414], [-75.39134145399993, 4.203281148861949], [-75.39907946599993, 4.224501520861274], [-75.39296909799992, 4.243011638860662], [-75.3897088789999, 4.255771731860244], [-75.3774682369999, 4.281291853859401], [-75.3600973259999, 4.318082041858202], [-75.34397649199991, 4.349622196857189], [-75.33189579499992, 4.382432389856108], [-75.31960031999995, 4.388967341855878], [-75.29414435599995, 4.400632221855508], [-75.26476323899993, 4.414662082855034], [-75.26444143599991, 4.4148915568550615], [-75.26489776199992, 4.415804207855], [-75.25775937899994, 4.4215149138548115], [-75.25157277999995, 4.433412218854421], [-75.24633796599994, 4.438647033854236], [-75.24824153499992, 4.442930062854119], [-75.25252456499993, 4.449592553853895], [-75.25300045699993, 4.453875583853764], [-75.25062099599995, 4.457801694853632], [-75.23812882599992, 4.460181155853586], [-75.23277503799994, 4.456611963853662], [-75.23039557699991, 4.4506633118538845], [-75.2173085419999, 4.4506633118538845], [-75.2089804279999, 4.448878715853954], [-75.20838556299992, 4.454232502853763], [-75.20660096699993, 4.459586289853578], [-75.20184204499992, 4.462560616853487], [-75.19589339299995, 4.463155481853451], [-75.19085034299991, 4.459141831853589], [-75.18531023499992, 4.450341692853861], [-75.17291977199994, 4.4555316368537365], [-75.16300940499991, 4.458991578853584], [-75.1492488589999, 4.46790153785334], [-75.14236858099991, 4.473121521853121], [-75.13331823399994, 4.477391474852988], [-75.1238879629999, 4.472771349853161], [-75.11293767099994, 4.463511155853435], [-75.10078723799995, 4.466361079853368], [-75.0753163789999, 4.467060848853331], [-75.05552563999993, 4.474660739853073], [-75.0422251299999, 4.481440675852901], [-75.0349186709999, 4.4819156388528665], [-75.01838425599993, 4.489490532852637], [-75.00517368499993, 4.5031505398521885], [-74.99967294599992, 4.510833351851925], [-74.99335316799994, 4.516480550851744], [-74.98832295199992, 4.521890555851559], [-74.99001291699994, 4.532120668851205], [-74.99466296499992, 4.543390815850844], [-74.99539293599992, 4.54954087985064], [-74.9902338359999, 4.555893946850451], [-74.99049267099991, 4.560340937850317], [-74.98702156399992, 4.567315359850075], [-74.96203722299992, 4.582305963849585], [-74.94490510399993, 4.593370457849196], [-74.94062207399992, 4.601579597848957], [-74.9420497509999, 4.612644091848576], [-74.94358049999994, 4.624621100848204], [-74.9498806279999, 4.634171242847919], [-74.95293065999994, 4.641581346847648], [-74.95129048899992, 4.653791445847266], [-74.9511504319999, 4.659331499847075], [-74.95501041199992, 4.676241691846546], [-74.95262030099991, 4.679431699846429], [-74.94834013399992, 4.6814216748463755], [-74.94460993399991, 4.689831719846113], [-74.9410896249999, 4.710151881845412], [-74.93993944899995, 4.7245220068449685], [-74.93881922299994, 4.745002193844282], [-74.9434093349999, 4.749402276844148], [-74.94684935299995, 4.759732407843795], [-74.95583953899995, 4.7727326118434075], [-74.96022963299993, 4.777892704843207], [-74.95775950899991, 4.78211272084311], [-74.95431940999993, 4.781162680843125], [-74.94723913199994, 4.784802644843001], [-74.94167877599995, 4.803132768842397], [-74.93969862799992, 4.811892833842104], [-74.9389484809999, 4.824412949841715], [-74.9349882489999, 4.835123014841374], [-74.93538815199992, 4.846923131840995], [-74.93039792099995, 4.85408315384076], [-74.92763773999991, 4.863343212840444], [-74.92718759399992, 4.876833338840027]], [[-74.99001080599993, 4.760122815843823], [-74.99647102199992, 4.759942874843831], [-74.99567082999994, 4.7777330388432215], [-74.9885604939999, 4.787863070842893], [-74.98707037699995, 4.794923118842689], [-74.98298014099993, 4.8054731848423], [-74.98066698799994, 4.811795546842147], [-74.97999998899991, 4.8111832098421585], [-74.97268984999994, 4.7997230328425236], [-74.9643696899999, 4.787322832842921], [-74.96621984199993, 4.77708275684326], [-74.97299015699991, 4.767802728843528], [-74.99001080599993, 4.760122815843823]], [[-75.04059430199993, 4.56610144785009], [-75.05383481299992, 4.559061502850345], [-75.05357472399993, 4.5676915818500605], [-75.05096458799994, 4.572681606849883], [-75.04065416499992, 4.58148159284964], [-75.0340638639999, 4.589981613849336], [-75.03064363599992, 4.601631693848942], [-75.03007350299993, 4.614871810848525], [-75.02631324499993, 4.629081909848084], [-75.02344302799992, 4.641672004847681], [-75.0175427769999, 4.64750199884744], [-75.01480261899991, 4.654372044847237], [-75.01541252099992, 4.667132164846816], [-75.01561184399992, 4.6675505168467994], [-75.0141524629999, 4.6689721748467825], [-75.01021225499994, 4.67778222184649], [-75.0056720529999, 4.6825222188463345], [-75.00191196499992, 4.678042140846458], [-74.99815198599993, 4.662471964846973], [-74.99853206299991, 4.65587190784718], [-75.00256229199994, 4.645401845847555], [-75.00550247799993, 4.636051784847836], [-75.01251280399993, 4.625941749848147], [-75.02159325399992, 4.610891698848683], [-75.02516358999992, 4.586861504849435], [-75.03159390099995, 4.576441469849794], [-75.04059430199993, 4.56610144785009]], [[-75.00790050699993, 4.586915610849425], [-75.01551478199991, 4.593578101849192], [-75.01503888999991, 4.59786113184906], [-75.0102799679999, 4.603571837848885], [-75.00684276399994, 4.610101549848695], [-74.99791235999993, 4.6214015748483], [-74.99672998299991, 4.623176908848241], [-74.9883889269999, 4.614041466848537], [-74.9893407109999, 4.607854867848758], [-74.98553357299994, 4.603095945848899], [-74.97982286699994, 4.5964334548491275], [-74.98267821999991, 4.59119864084929], [-74.99362374099991, 4.5859638268494605], [-75.00218979999994, 4.5859638268494605], [-75.00790050699993, 4.586915610849425]], [[-75.37030736199995, 4.352262452857056], [-75.36959745899992, 4.3386423228575035], [-75.3698076199999, 4.321352160858073], [-75.38075816399993, 4.30220208185871], [-75.39408872299992, 4.289672083859127], [-75.40702922399993, 4.282692129859327], [-75.4240599069999, 4.270682175859764], [-75.43329024899992, 4.267702229859828], [-75.43364229299993, 4.267611279859814], [-75.43363026199995, 4.267742231859812], [-75.43589026099994, 4.275642321859582], [-75.43866025199992, 4.288062464859159], [-75.43512003699993, 4.298932537858841], [-75.43221987999993, 4.305132566858596], [-75.41966932799994, 4.319132585858178], [-75.4044686119999, 4.342092661857429], [-75.40168847899992, 4.346522685857275], [-75.3971582929999, 4.349772673857159], [-75.38213778799991, 4.3492125288571675], [-75.37448748299994, 4.354342510857036], [-75.37030736199995, 4.352262452857056]], [[-75.40641079599993, 4.101170458865264], [-75.42029133099993, 4.094020515865495], [-75.42814158199991, 4.095790600865469], [-75.44360204599991, 4.102720797865219], [-75.44831210199993, 4.114030946864843], [-75.45227208199992, 4.131271135864286], [-75.4535619369999, 4.153621354863533], [-75.44780164299993, 4.164901409863207], [-75.4408113309999, 4.173241422862949], [-75.43280099099991, 4.18116141886269], [-75.42351068599993, 4.180181330862715], [-75.4180605979999, 4.169131180863055], [-75.4187407849999, 4.15095102286364], [-75.41989094299993, 4.136770899864087], [-75.4126208319999, 4.121190699864609], [-75.40183049299992, 4.1182605748647285], [-75.40256061699995, 4.106570474865103], [-75.40641079599993, 4.101170458865264]], [[-75.52612471999993, 4.116641648864788], [-75.53654517699994, 4.104561634865133], [-75.54879549399993, 4.116171847864793], [-75.55243552099995, 4.12625196986444], [-75.55191545899993, 4.131402010864313], [-75.53728482299994, 4.148312041863707], [-75.52956449499993, 4.154992030863511], [-75.51981414499994, 4.157761976863425], [-75.50750378499993, 4.151101804863629], [-75.51252403799992, 4.14138176386397], [-75.52010443499995, 4.125501678864492], [-75.52612471999993, 4.116641648864788]], [[-75.74974103199992, 3.960573258869853], [-75.75009366499995, 3.9607221608698833], [-75.76166407399995, 3.9594122468698756], [-75.77265443099992, 3.9612523558698216], [-75.78011458899994, 3.9718825248694953], [-75.78144456299992, 3.9806426168691984], [-75.77714430099991, 3.994882701868721], [-75.76922390899995, 4.009202772868295], [-75.76517371999995, 4.014292779868103], [-75.75140321099991, 4.01900270986794], [-75.74074277799991, 4.027232687867702], [-75.7379527089999, 4.024572641867771], [-75.73127257699991, 4.012942476868165], [-75.7316326479999, 4.006322423868381], [-75.73316278499993, 3.996282339868681], [-75.73001796099993, 3.9854216578690536], [-75.71632238199993, 3.9760820138693305], [-75.70793214499992, 3.9704118838695153], [-75.6963317769999, 3.9674417568696434], [-75.68574142199992, 3.9667916648696626], [-75.67947115399994, 3.9731716698694455], [-75.67490095699992, 3.9781216748692922], [-75.68217113899993, 3.985801803869039], [-75.6908913819999, 3.9924219378688175], [-75.6839610859999, 3.9996819508685904], [-75.66843052699994, 4.003281850868456], [-75.65522012699995, 3.9972416778686806], [-75.65020001799991, 3.990241573868869], [-75.6523001889999, 3.9782114798693033], [-75.66494078699992, 3.9583414098699286], [-75.67367129799993, 3.9338912628707448], [-75.67580150899994, 3.917401130871282], [-75.67818167599995, 3.906511052871651], [-75.68645207899993, 3.8926809948721064], [-75.68693214699994, 3.887000947872293], [-75.68616219199993, 3.8780208578725626], [-75.68181225299992, 3.853910605873337], [-75.67786218999993, 3.8446304878736477], [-75.6783122729999, 3.8367004208738917], [-75.67855335299993, 3.8330587778740286], [-75.68607262099994, 3.826720398874239], [-75.71110355699994, 3.8162005158745527], [-75.74290476199991, 3.801610653875049], [-75.76071542599993, 3.7954707498752405], [-75.76646578499992, 3.7758306228758793], [-75.76471592899992, 3.7511703858767085], [-75.7658460639999, 3.7398502928770876], [-75.76649614799993, 3.732320236877328], [-75.78697690999991, 3.724030331877571], [-75.79629726299993, 3.7194603678777356], [-75.80003738999994, 3.7195903988777532], [-75.81571783299995, 3.7302806298773605], [-75.82050793799993, 3.737480734877166], [-75.82410794499992, 3.7512008838767064], [-75.82183774999993, 3.765590995876242], [-75.81612743799991, 3.7796810708757937], [-75.8030469169999, 3.7887510458754807], [-75.78152612999992, 3.7948409228752515], [-75.78221606299991, 3.8063910298748804], [-75.78488602699991, 3.8211011848744425], [-75.78119583699993, 3.8294012318741446], [-75.77486550899994, 3.8425312958737114], [-75.7728452959999, 3.859451431873171], [-75.76672492999995, 3.8780915458725533], [-75.77041489499993, 3.897561757871909], [-75.76704463199991, 3.9149418858713503], [-75.75950415499995, 3.9406320588704995], [-75.74974103199992, 3.960573258869853]], [[-75.68931643799993, 3.3773865168889188], [-75.69360662999992, 3.3710165008891204], [-75.70017687199993, 3.368316532889209], [-75.7047070399999, 3.366936558889276], [-75.70675714799995, 3.362046525889461], [-75.7011270289999, 3.3537064138896944], [-75.69635695699992, 3.341956279890125], [-75.69307692899991, 3.3312261638904292], [-75.69496702999993, 3.3267161358906043], [-75.70037728599993, 3.317486099890885], [-75.70255748799991, 3.3022159968914107], [-75.70704773499995, 3.2897159218918306], [-75.7126080189999, 3.2781558708922], [-75.71802825599991, 3.271865867892403], [-75.72007318599992, 3.2741669738923362], [-75.71959729399993, 3.2822571418920323], [-75.71626604799991, 3.28939552489184], [-75.71727799199994, 3.3006260958914715], [-75.72552818299994, 3.311726254891072], [-75.72737819999992, 3.31763632489091], [-75.72510797799993, 3.33598646289027], [-75.7260479389999, 3.3450365398900135], [-75.73244638299991, 3.346978480889935], [-75.73605826999994, 3.3460066308899767], [-75.74467853099992, 3.349416733889835], [-75.7457384619999, 3.362526854889416], [-75.74996852099991, 3.373376976889078], [-75.75037369499995, 3.3738528738890667], [-75.73625352099992, 3.3788632578889035], [-75.72673567699991, 3.380290934888837], [-75.7167419399999, 3.3764837968889516], [-75.7140975069999, 3.3767482408889773], [-75.70570646899995, 3.396438515888292], [-75.68842637799992, 3.4281180578872625], [-75.6884263579999, 3.4281180938872824], [-75.68247770199991, 3.4393015678869183], [-75.67724288799991, 3.4478676278866036], [-75.66867682799995, 3.4597649328862565], [-75.66439379799994, 3.462620285886137], [-75.65963487599993, 3.4611926088862046], [-75.65915898399993, 3.4540542258864], [-75.66284505399994, 3.4375068058869482], [-75.66423514299993, 3.4322617768871417], [-75.66562523199991, 3.4270167478873352], [-75.66969543499994, 3.4186767078876], [-75.68038591699991, 3.403526664888086], [-75.68801631499991, 3.387016591888624], [-75.68931643799993, 3.3773865168889188]], [[-75.72848050499994, 3.03104397990027], [-75.73382080099992, 3.016063897900796], [-75.7383809989999, 3.010063888901002], [-75.73638100799991, 2.9996837839013177], [-75.73975114599995, 2.997483791901405], [-75.74571133299992, 2.9988738539013453], [-75.75901177999992, 2.998853955901341], [-75.76556203399991, 2.9952539759014702], [-75.76892222799995, 2.9848639259017946], [-75.79394306599994, 2.9854241249017806], [-75.80705351899991, 2.984004211901828], [-75.8145937889999, 2.9823942599019095], [-75.82314404399995, 2.986574363901773], [-75.82592411399992, 2.9905644109016403], [-75.83764448799991, 2.992944523901522], [-75.85152507599992, 2.9773445069020408], [-75.86035539399995, 2.9753345579020936], [-75.87832602499992, 2.97291467990222], [-75.88945634899994, 2.9790848129019674], [-75.87378571499994, 2.9922848009015333], [-75.86724543999992, 2.9994848069013043], [-75.85873503499994, 3.014864862900826], [-75.84329441499995, 3.027614849900409], [-75.83533406599992, 3.038064869900079], [-75.82604356299993, 3.0620349938992515], [-75.81795304799994, 3.092595176898281], [-75.81099282999992, 3.091015112898334], [-75.79728239999992, 3.0858449668984944], [-75.78575205699991, 3.0796748248986696], [-75.79149236299992, 3.065284748899153], [-75.79783263699994, 3.058684745899355], [-75.81192316999994, 3.050884790899614], [-75.79960278499993, 3.0469046608997483], [-75.78919242499995, 3.0477245888997166], [-75.78033215199991, 3.044544489899861], [-75.77854213299992, 3.0385544339000266], [-75.7823023009999, 3.0341544229001967], [-75.77911224899992, 3.0263743389004625], [-75.7695819409999, 3.024994247900463], [-75.76481179699994, 3.0228042009005387], [-75.76202174699995, 3.0166141259007846], [-75.75764164199995, 3.0114340439009246], [-75.75030135599991, 3.0154440249008116], [-75.74694118899993, 3.022634050900563], [-75.73940086599993, 3.0322240689002347], [-75.72848050499994, 3.03104397990027]], [[-75.9466528239999, 2.8841582779051285], [-75.94569897899993, 2.8854744939050465], [-75.9406487309999, 2.894434523904779], [-75.9321583759999, 2.9043345429044365], [-75.9262081519999, 2.906234515904354], [-75.92179804299991, 2.901124439904529], [-75.91982801099994, 2.8968643859046868], [-75.91988809899993, 2.8852442919050447], [-75.9183481529999, 2.871834178905518], [-75.91697815999993, 2.864894108905764], [-75.90722786399994, 2.860724003905888], [-75.90517784499991, 2.853553929906134], [-75.90815801499991, 2.844803880906404], [-75.91504837199994, 2.8275337959069686], [-75.92250873699993, 2.813163742907447], [-75.93147914199994, 2.799453699907892], [-75.93515785499994, 2.794132696908061], [-75.9355693249999, 2.7944336899080504], [-75.94299953299992, 2.799843793907891], [-75.9547916919999, 2.812345337907455], [-75.95480498699993, 2.8123033479074557], [-75.96255144199995, 2.7887450939082647], [-75.96231349599992, 2.7684007029088975], [-75.96754830999993, 2.74365430790974], [-75.97349696299995, 2.7262842429102903], [-75.98069647999995, 2.707454735910888], [-75.98143841399991, 2.7070344029109314], [-75.99610382899994, 2.682198088911718], [-76.01135530099992, 2.6951128899113193], [-76.01967995199993, 2.7025951959110652], [-76.02598023599995, 2.7082579749108526], [-76.0033020809999, 2.7332137189100405], [-75.9965727849999, 2.747858630909554], [-75.98883953699993, 2.769273779908857], [-75.98943440199992, 2.7778993259085967], [-75.9849015289999, 2.7942462229080682], [-75.97785832499994, 2.8100458439075315], [-75.9739301699999, 2.8223950249071157], [-75.9736603899999, 2.824224213907087], [-75.97541013599994, 2.846020996906332], [-75.97514022899992, 2.852284457906128], [-75.96612980399993, 2.8676445079056534], [-75.9628895269999, 2.8896446619049447], [-75.9491410739999, 2.9017966439045177], [-75.94750153599995, 2.89201040190482], [-75.9466528239999, 2.8841582779051285]], [[-75.5742064339999, 2.8849816159050774], [-75.57486653399991, 2.873911532905445], [-75.5813767599999, 2.874131583905428], [-75.5972772369999, 2.881131768905233], [-75.60374742499994, 2.884951844905058], [-75.61041758599993, 2.8933619629048124], [-75.6113185289999, 2.8960649139047296], [-75.6039573249999, 2.898921959904612], [-75.59806706299992, 2.906771968904392], [-75.59217680899991, 2.91386198490411], [-75.58533652499995, 2.9213319879038986], [-75.5753762029999, 2.9190718899039556], [-75.5688560239999, 2.9143318039041355], [-75.56346586199993, 2.9123117439041986], [-75.56323588499993, 2.90779170890436], [-75.56770613499992, 2.895601651904707], [-75.5742064339999, 2.8849816159050774]], [[-75.5717204149999, 2.798870510907915], [-75.5773031459999, 2.7965085859079877], [-75.57779722499993, 2.797570974907928], [-75.59665775899992, 2.809991207907517], [-75.60427793399992, 2.821071351907158], [-75.61571822999991, 2.833111534906775], [-75.62344836799991, 2.8490017169062707], [-75.62744843099995, 2.8581718179059665], [-75.62287882699991, 2.863115957905828], [-75.61038665599995, 2.863115957905828], [-75.5949201599999, 2.8649005539057595], [-75.58480744999991, 2.8613313619058354], [-75.56993581899991, 2.842295673906489], [-75.56339230099991, 2.8315880999068574], [-75.56220257099994, 2.817311332907309], [-75.56577176199994, 2.808388354907615], [-75.5717204149999, 2.798870510907915]]]}, "properties": {"OBJECTID": 8472, "SimboloUC": "J-Pi", "Descripcion": "Granodioritas que varían de sienogranitos a tonalitas y de cuarzomonzonitas a cuarzomonzodioritas", "Edad": "Jurásico", "Comentarios": null, "CodigoUC": 47, "SHAPE_Length": 13.950207962992206, "SHAPE_Area": 0.5290643133059478}}, {"type": "Feature", "id": 8522, "geometry": {"type": "Polygon", "coordinates": [[[-75.5562110859999, 4.639876901847736], [-75.56489137199992, 4.6406469908476655], [-75.56739150899995, 4.63508695884789], [-75.57101176499992, 4.620306842848326], [-75.5697618399999, 4.607996706848726], [-75.56186165999992, 4.598256543849038], [-75.56430180799993, 4.590896493849295], [-75.57830226699991, 4.592266631849273], [-75.5912027299999, 4.590286735849314], [-75.59543285199993, 4.592996800849253], [-75.60715325199993, 4.592536898849224], [-75.62032369499991, 4.5929470248492335], [-75.63234425899992, 4.57654696784977], [-75.63500449399993, 4.560186831850299], [-75.63705471799994, 4.542926682850879], [-75.63285470799991, 4.528836508851351], [-75.63363477799993, 4.522946461851503], [-75.64280527499994, 4.502616347852181], [-75.65350578199991, 4.487586292852661], [-75.6550533219999, 4.486486771852731], [-75.65466587499992, 4.4809362358528695], [-75.66585643099995, 4.461766151853497], [-75.6714467729999, 4.445116039854062], [-75.67918714299992, 4.432905994854438], [-75.67955481699994, 4.432525780854439], [-75.67980723199992, 4.425425920854687], [-75.6775073199999, 4.406165717855327], [-75.6766774379999, 4.390115554855856], [-75.68713804999993, 4.361145371856792], [-75.70395899499994, 4.3184451138581625], [-75.72186991899991, 4.2828949328593575], [-75.73056028399992, 4.2755649408595975], [-75.73419041199992, 4.2750749638595895], [-75.73619661899994, 4.277466480859544], [-75.73923061699992, 4.270884969859719], [-75.7503812519999, 4.242094791860652], [-75.76557205099994, 4.209934619861726], [-75.7868043819999, 4.172896746862901], [-75.78870319299995, 4.169584443863037], [-75.7951635259999, 4.156494372863441], [-75.8051036999999, 4.141717521863962], [-75.80901417299992, 4.135904295864161], [-75.81654455299991, 4.121194220864606], [-75.83442057299993, 4.073898936866177], [-75.86384723899994, 3.996653469868688], [-75.87950596299993, 3.968711078869587], [-75.8800212079999, 3.9686945308695702], [-75.88270817699993, 3.961653300869831], [-75.9040892129999, 3.925883149870987], [-75.88486840999991, 3.9430331478704126], [-75.85967734999991, 3.9668731598696825], [-75.84793684499994, 3.979283169869275], [-75.83090117699993, 4.005121908868419], [-75.82518334399992, 4.014612036868098], [-75.81537027999991, 4.030899190867557], [-75.79677438499994, 4.062318502866556], [-75.78053358999995, 4.090473625865619], [-75.76549285099992, 4.117573745864735], [-75.75457227899994, 4.139903864864006], [-75.74211167099992, 4.161598955863322], [-75.73062113599991, 4.177354008862778], [-75.71458543099993, 4.196349046862171], [-75.69804971499991, 4.213444058861581], [-75.68098899199993, 4.230204070861055], [-75.66759835399995, 4.250804146860376], [-75.65776784799993, 4.269814240859763], [-75.64764726599992, 4.297284407858859], [-75.6366166009999, 4.329934619857817], [-75.6298762269999, 4.3461247138572565], [-75.61704558999992, 4.368954821856565], [-75.6018448829999, 4.39028488685584], [-75.58894429399993, 4.407764943855276], [-75.57702369399993, 4.428765035854597], [-75.5683631899999, 4.4530551888537815], [-75.56006270299991, 4.475155325853062], [-75.55348237299995, 4.487125385852686], [-75.55962250999994, 4.4949455168524395], [-75.55434214099995, 4.516215672851763], [-75.5429613849999, 4.557355970850382], [-75.54232114699994, 4.581096197849628], [-75.54267094199992, 4.605416440848813], [-75.5432008219999, 4.619966587848361], [-75.53971054399995, 4.638226731847781], [-75.54683078799991, 4.6375067958478065], [-75.5562110859999, 4.639876901847736]]]}, "properties": {"OBJECTID": 8522, "SimboloUC": "b5k4-VCm", "Descripcion": "Basaltos y andesitas intercalados con arenitas lodosas líticas, lodolitas carbonosas, arenitas feldespáticas, calizas y limolitas silíceas.", "Edad": "Aptiano-Santoniano", "Comentarios": null, "CodigoUC": 85, "SHAPE_Length": 1.7076497162228805, "SHAPE_Area": 0.043383510964091876}}], "_consulta": {"url": "https://srvags.sgc.gov.co/arcgis/rest/services/Mapa_Geologico_Colombia/Mapa_Geologico_Colombia_V2023/MapServer/733", "fecha": "2026-09-29"}}